name,phone,URL,address,newAddress,_GC_TYPE,_CLEANADDR,_X,_Y
"부부상담클리닉, 서울라운지 청담",0507-1357-9614,http://seoullounge.co.kr,서울 강남구 학동로82길 15 1층,서울특별시 강남구 학동로82길 15 1층,정,서울특별시 강남구 학동로82길 15 (삼성동),127.05177290960602,37.51798227817973
가온누리아동심리상담센터,0507-1344-0330,https://kaonnuri13.modoo.at,서울 송파구 새말로 125 어은회관 502호,서울특별시 송파구 새말로 125 어은회관 502호,정,서울특별시 송파구 새말로 125 (문정동),127.12789163671479,37.4831025554438
마인드카페 심리상담센터 강남점,02-556-9811,https://center.mindcafe.co.kr,서울 강남구 영동대로96길 20 4층,서울특별시 강남구 영동대로96길 20 4층,정,서울특별시 강남구 영동대로96길 20 (삼성동),127.06421389267264,37.51077646870634
마인드원 심리상담센터 강남본사,0507-1409-3849,http://www.mindone2.kr,서울 강남구 테헤란로64길 18 세화빌딩 7층,서울특별시 강남구 테헤란로64길 18 세화빌딩 7층,정,서울특별시 강남구 테헤란로64길 18 (대치동),127.05120567465515,37.503767989971415
마음일랑 심리상담센터,0507-1369-6641,http://www.maumilrang.com/sub0402.php,서울 서초구 서운로 6 코날빌딩 6층 마음일랑심리상담센터,서울특별시 서초구 서운로 6 코날빌딩 6층 마음일랑심리상담센터,정,서울특별시 서초구 서운로 6 (서초동),127.02990280974879,37.48472384671457
마인드카페 심리상담센터 잠실점,02-6952-9560,https://center.mindcafe.co.kr,서울 송파구 올림픽로35가길 16 홈플러스 잠실점 4층,서울특별시 송파구 올림픽로35가길 16 홈플러스 잠실점 4층,정,서울특별시 송파구 올림픽로35가길 16 (신천동),127.10307899739232,37.51613678503209
마음치유클리닉 심리상담센터,02-2678-7119,https://blog.naver.com/mindhealing7,서울 구로구 경인로67길 23 신도림2차푸르지오 304호,서울특별시 구로구 경인로67길 23 신도림2차푸르지오 304호,정,서울특별시 구로구 경인로67길 23 (신도림동),126.8894821149412,37.51048174145066
마인드카페 심리상담센터 용산점,02-790-9811,http://center.mindcafe.co.kr,서울 용산구 장문로 23 지하1층 103호 MINDCAFE,서울특별시 용산구 장문로 23 지하1층 103호 MINDCAFE,정,서울특별시 용산구 장문로 23 (이태원동),126.99311460766623,37.52855444717915
마음닿음 심리상담센터 노원센터,010-3727-5245,https://blog.naver.com/shinymoonlight,서울 노원구 마들로 127,서울특별시 노원구 마들로 127,정,서울특별시 노원구 마들로 127 (월계동),127.0642729533311,37.626374989365196
온마음 심리상담센터 노원센터,0507-1399-1476,https://blog.naver.com/eun77krrr,서울 노원구 노원로 3 1층 102-1호,서울특별시 노원구 노원로 3 1층 102-1호,정,서울특별시 노원구 노원로 3 (공릉동),127.08664924150666,37.621957345464885
헬로스마일 심리상담센터 종로점,02-725-5412,http://www.hellosmile.kr/bbs/board.php?bo_table=b4,서울 종로구 새문안로 89 정우빌딩 603호,서울특별시 종로구 새문안로 89 정우빌딩 603호,정,서울특별시 종로구 새문안로 89 (신문로1가),126.97453024611566,37.5705044105768
마인드카페 심리상담센터 강서점,02-6952-9816,https://center.mindcafe.co.kr,서울 강서구 마곡중앙2로 5 메트로비즈타워 2층 201호,서울특별시 강서구 마곡중앙2로 5 메트로비즈타워 2층 201호,정,서울특별시 강서구 마곡중앙2로 5 (마곡동),126.82746449170403,37.558489179824186
노원심리상담센터 마음소풍,02-932-3533,,서울 노원구 노해로 501 5층 502호,서울특별시 노원구 노해로 501 5층 502호,정,서울특별시 노원구 노해로 501 (상계동),127.06351186061153,37.6552082844096
허그맘허그인심리상담센터 여의도센터,02-2135-7542,https://www.hugmom.co.kr/branch/main/main.html?jijummid=yeouido&src=viral&kw=000101,서울 영등포구 여의대방로 376 나라키움여의도빌딩 305~307호,서울특별시 영등포구 여의대방로 376 나라키움여의도빌딩 305~307호,정,서울특별시 영등포구 여의대방로 376 (여의도동),126.93129715366355,37.51824673473821
허그맘 허그인 심리상담센터 노원센터,02-930-0744,http://www.hugmom.co.kr/index.php?b_idx=center&b_type=center_1&ctList=3,서울 노원구 노해로 521 정일빌딩 6층,서울특별시 노원구 노해로 521 정일빌딩 6층,정,서울특별시 노원구 노해로 521 (상계동),127.06593914578106,37.655809007584566
프롬맘 아동심리상담센터,070-8849-8910,https://blog.naver.com/frommomblog,서울 강남구 남부순환로377길 4 (4층 프롬맘 아동심리상담센터),서울특별시 강남구 남부순환로377길 4 (4층 프롬맘 아동심리상담센터),정,서울특별시 강남구 남부순환로377길 4 (도곡동),127.04536168630618,37.48683524735711
마음닿음 심리상담센터,010-9341-4418,https://blog.naver.com/shinymoonlight,서울 마포구 마포대로 63-8 삼창프라자 1130호,서울특별시 마포구 마포대로 63-8 삼창프라자 1130호,정,서울특별시 마포구 마포대로 63-8 (도화동),126.94781510712752,37.542259806202196
서울라운지 심리상담센터,0507-1344-9612,https://blog.naver.com/seoulloungemind,서울 중구 세종대로 11 조광빌딩 4층 서울라운지,서울특별시 중구 세종대로 11 조광빌딩 4층 서울라운지,정,서울특별시 중구 세종대로 11 (남대문로5가),126.97308741309612,37.55817518068412
마음소리 심리상담센터,02-747-3513,http://maumsory.com/,서울 성북구 동소문로20나길 47 코아루센타시아 219호,서울특별시 성북구 동소문로20나길 47 코아루센타시아 219호,정,서울특별시 성북구 동소문로20나길 47 (동선동1가),127.0191138864462,37.593057019768295
허그맘허그인 심리상담센터 강남본점,02-568-6255,https://blog.naver.com/no1hugmom,서울 강남구 학동로 137-6 인의빌딩 302호,서울특별시 강남구 학동로 137-6 인의빌딩 302호,정,서울특별시 강남구 학동로 137-6 (논현동),127.02596981065771,37.51309449985578
목동행복한심리상담센터,0507-1400-0222,http://www.wehappy.or.kr/,서울 양천구 등촌로 202 2층,서울특별시 양천구 등촌로 202 2층,정,서울특별시 양천구 등촌로 202 (목동),126.86338690151307,37.54767171514377
헬로스마일 심리상담센터 관악점,0507-1364-5412,https://blog.naver.com/hell0smile,서울 관악구 남부순환로 1769,서울특별시 관악구 남부순환로 1769,정,서울특별시 관악구 남부순환로 1769 (봉천동),126.9469440689779,37.48213881629103
유해피 아동청소년성인 심리상담센터 송파잠실점,02-421-1070,https://www.you-happy.co.kr/sub/sub00_01.php?br_idx=11,서울 송파구 백제고분로 510 5층,서울특별시 송파구 백제고분로 510 5층,정,서울특별시 송파구 백제고분로 510 (방이동),127.11572650366219,37.51544079239981
밝은희망 부부상담클리닉 청담센터,1522-5499,http://www.brighthope.co.kr,서울 강남구 학동로 419 대륭빌딩 2층,서울특별시 강남구 학동로 419 대륭빌딩 2층,정,서울특별시 강남구 학동로 419 (청담동),127.04597655585964,37.518306118183
이해와공감심리상담센터,0507-1419-0207,https://blog.naver.com/20mind20/222989887243,서울 서초구 강남대로 224 양재동 한신휴플러스 2층 202호,서울특별시 서초구 강남대로 224 양재동 한신휴플러스 2층 202호,정,서울특별시 서초구 강남대로 224 (양재동),127.0351397210287,37.48401339866343
헬로스마일 심리상담센터 성수점,0507-1434-5412,https://blog.naver.com/sungsu211007,서울 성동구 아차산로 92 S타워 12층,서울특별시 성동구 아차산로 92 S타워 12층,정,서울특별시 성동구 아차산로 92 (성수동2가),127.05425042393051,37.544790566759524
허그맘허그인 심리상담센터 송파잠실문정점,0507-1316-0051,https://blog.naver.com/hugmom2022,서울 송파구 송파대로 111 파크하비오타워동 205동 308호,서울특별시 송파구 송파대로 111 파크하비오타워동 205동 308호,정,"서울특별시 송파구 송파대로 111, 205동 (문정동)",127.12268936148882,37.48149008623631
인사이드아웃심리상담센터 광화문점,0507-1443-0602,http://InsideOut.co.kr,서울 종로구 새문안로 103-1 3층 5층,서울특별시 종로구 새문안로 103-1 3층 5층,정,서울특별시 종로구 새문안로 103-1 (신문로1가),126.97617705543469,37.57047448471047
유해피 아동청소년성인 심리상담센터 목동점,02-2642-3533,https://www.you-happy.co.kr/sub/sub00_01.php?br_idx=3,서울 양천구 신목로 34,서울특별시 양천구 신목로 34,정,서울특별시 양천구 신목로 34 (신정동),126.87397915616545,37.51862493709539
허그맘허그인 심리상담센터 성북센터,02-6956-0204,https://blog.naver.com/hugmomsb0204,서울 성북구 종암로 167 동일하이빌뉴시티 상가동 401호 허그맘허그인 성북센터,서울특별시 성북구 종암로 167 동일하이빌뉴시티 상가동 401호 허그맘허그인 성북센터,정,서울특별시 성북구 종암로 167 (하월곡동),127.03092817223227,37.60503701904914
제나힐링심리상담센터,0507-1379-7102,https://blog.naver.com/zenatherapy,서울 관악구 남부순환로 1811 신원메트로빌 711호,서울특별시 관악구 남부순환로 1811 신원메트로빌 711호,정,서울특별시 관악구 남부순환로 1811 (봉천동),126.95150247754609,37.4817149710663
허그맘 허그인 심리상담센터 강동직영센터,0507-1415-0148,https://blog.naver.com/wjdgktp,서울 강동구 올림픽로 572 하늘채아파트상가 2층,서울특별시 강동구 올림픽로 572 하늘채아파트상가 2층,정,서울특별시 강동구 올림픽로 572 (성내동),127.12183205167625,37.53255726985421
심리상담센터 재희,010-6764-3422,https://blog.naver.com/jjh3422,서울 중랑구 사가정로50길 10 나비빌딩 3층,서울특별시 중랑구 사가정로50길 10 나비빌딩 3층,정,서울특별시 중랑구 사가정로50길 10 (면목동),127.08631767821171,37.580396063788804
허그맘허그인 심리상담센터 강서점,02-2088-3515,https://youtube.com/@hugmomks,서울 강서구 공항대로 247 퀸즈파크나인 c동 9층,서울특별시 강서구 공항대로 247 퀸즈파크나인 c동 9층,정,서울특별시 강서구 공항대로 247 (마곡동),126.83491103378454,37.55933031586384
심리상담센터 헤세드,0507-1474-1355,https://blog.naver.com/hesedtherapy,서울 노원구 한글비석로 384 대호프라자 225-1호,서울특별시 노원구 한글비석로 384 대호프라자 225-1호,정,서울특별시 노원구 한글비석로 384 (중계동),127.07323367612447,37.659837066371026
유해피 아동청소년성인 심리상담센터 송파잠실점,02-421-1070,https://www.you-happy.co.kr/sub/sub00_01.php?br_idx=11,서울 송파구 백제고분로 510 5층,서울특별시 송파구 백제고분로 510 5층,정,서울특별시 송파구 백제고분로 510 (방이동),127.11572650366219,37.51544079239981
허그맘허그인 심리상담센터 목동직영점,02-6092-6600,http://www.hugmom.co.kr/index.php?b_idx=center&b_type=center_1&ctList=4,서울 양천구 오목로 340 협성빌딩 A동 3층,서울특별시 양천구 오목로 340 협성빌딩 A동 3층,정,"서울특별시 양천구 오목로 340, A동 (목동)",126.87511208104205,37.52426777623261
허그맘허그인심리상담센터 마포점,02-2138-6255,http://www.hugmom.co.kr/index.php?b_idx=center&b_type=center_1&ctList=34,서울 마포구 백범로 130 뉴한일빌딩 4층,서울특별시 마포구 백범로 130 뉴한일빌딩 4층,정,서울특별시 마포구 백범로 130 (염리동),126.94519518748558,37.54619827669924
엠브레스마인드심리상담센터 은평직영점,0507-1362-9280,http://www.em-mind.com/bbs/page.php?hid=s0113,서울 은평구 은평로 170 상현빌딩,서울특별시 은평구 은평로 170 상현빌딩,정,서울특별시 은평구 은평로 170 (응암동),126.92664479747806,37.60109976949264
해피팝 심리상담센터,0507-1392-9942,https://blog.naver.com/hyearan2,서울 성동구 왕십리로 92 3층,서울특별시 성동구 왕십리로 92 3층,정,서울특별시 성동구 왕십리로 92 (성수동1가),127.04498423205622,37.54571738067156
가족심리상담센터,0507-1371-2396,https://pf.kakao.com/_mCCcxj,서울 강서구 강서로45라길 35 2층,서울특별시 강서구 강서로45라길 35 2층,정,서울특별시 강서구 강서로45라길 35 (내발산동),126.83412747136467,37.549463087874464
서울마인드브릿지심리상담센터,02-332-5112,https://seoulmindbridge.com/,서울 마포구 동교로23길 58 3층 서울마인드브릿지 심리상담센터,서울특별시 마포구 동교로23길 58 3층 서울마인드브릿지 심리상담센터,정,서울특별시 마포구 동교로23길 58 (연남동),126.91924149412544,37.558308246238596
나다운심리상담센터,0507-1335-7198,https://blog.naver.com/nadawundesign,서울 마포구 동교로19길 21,서울특별시 마포구 동교로19길 21,정,서울특별시 마포구 동교로19길 21 (서교동),126.91745889170288,37.55630270925034
온마음으로 심리상담센터,0507-1333-1745,https://blog.naver.com/woolash6,서울 광진구 능동로 69 호반써밋 자양아파트 B105-1호,서울특별시 광진구 능동로 69 호반써밋 자양아파트 B105-1호,정,서울특별시 광진구 능동로 69 (자양동),127.06885244414174,37.53719091357576
마음iN심리상담센터 여의도점,0507-1493-3030,https://mauminyeouido.modoo.at/,서울 영등포구 여의나루로 42 5층 510호,서울특별시 영등포구 여의나루로 42 5층 510호,정,서울특별시 영등포구 여의나루로 42 (여의도동),126.92502149695989,37.52136424756507
강남 최면심리상담센터 지안,0507-1442-1110,https://litt.ly/mindful_jun,서울 서초구 강남대로 305 2층 203호,서울특별시 서초구 강남대로 305 2층 203호,정,서울특별시 서초구 강남대로 305 (서초동),127.03063555809041,37.49018955399421
헬로스마일 심리상담센터 강남점,02-511-5412,http://www.hellosmile.kr/bbs/board.php?bo_table=b1,서울 강남구 논현로131길 30 성도빌딩,서울특별시 강남구 논현로131길 30 성도빌딩,정,서울특별시 강남구 논현로131길 30 (논현동),127.0278861333902,37.51417178449062
소담 마음행복연구소 심리상담센터,02-6326-7582,https://blog.naver.com/sodam6326,서울 동작구 장승배기로 119 301호,서울특별시 동작구 장승배기로 119 301호,정,서울특별시 동작구 장승배기로 119 (노량진동),126.93988686743202,37.50827800957024
마음iN 심리상담센터 광화문점,0507-1380-1510,http://mauminghm.modoo.at,서울 종로구 종로3길 34 8층,서울특별시 종로구 종로3길 34 8층,정,서울특별시 종로구 종로3길 34 (청진동),126.97948135774345,37.57187479118258
구로아동발달심리상담센터,0507-1492-7764,https://blog.naver.com/guro78,서울 구로구 경인로 237 우분투포레스트 지하 1층,서울특별시 구로구 경인로 237 우분투포레스트 지하 1층,정,서울특별시 구로구 경인로 237 (개봉동),126.84666727404687,37.49776139294377
안녕도담심리상담센터,0507-1463-7584,https://blog.naver.com/hiddclinic,서울 동대문구 전농로 24 계림빌딩 602호,서울특별시 동대문구 전농로 24 계림빌딩 602호,정,서울특별시 동대문구 전농로 24 (답십리동),127.05689855239258,37.56702678525103
허그맘허그인 심리상담센터 동대문구센터,0507-1465-3081,https://www.hugmom.co.kr/branch/main/main.html?jijummid=dongdaemun,서울 동대문구 답십리로 264,서울특별시 동대문구 답십리로 264,정,서울특별시 동대문구 답십리로 264 (장안동),127.06954025543322,37.5722204680508
헬로스마일심리상담센터 목동점,02-2647-5412,https://www.instagram.com/hellosmilemd,서울 양천구 목동동로 233 한국방송회관 12층 6호,서울특별시 양천구 목동동로 233 한국방송회관 12층 6호,정,서울특별시 양천구 목동동로 233 (목동),126.87141912064382,37.52700803593854
헬로스마일 심리상담센터 강동점,0507-1331-5412,https://blog.naver.com/hellosm5412,서울 강동구 양재대로 1619 3층,서울특별시 강동구 양재대로 1619 3층,정,서울특별시 강동구 양재대로 1619 (천호동),127.14350838294467,37.54997133661922
그루터기심리상담센터 마곡점,0507-1394-3456,https://blog.naver.com/nymphe,서울 강서구 마곡서로 158 센트럴타워2차 13층 1307호,서울특별시 강서구 마곡서로 158 센트럴타워2차 13층 1307호,정,서울특별시 강서구 마곡서로 158 (마곡동),126.82544509721276,37.56809248484749
마인드케어심리상담센터,0507-1321-8092,https://blog.naver.com/mindcare19,서울 마포구 마포대로 12 한신빌딩 416호,서울특별시 마포구 마포대로 12 한신빌딩 416호,정,서울특별시 마포구 마포대로 12 (마포동),126.94440354656881,37.53787631268867
화인 심리상담센터 서초,0507-1403-4569,http://fineclinic.kr/,서울 서초구 서초중앙로 99 3층,서울특별시 서초구 서초중앙로 99 3층,정,서울특별시 서초구 서초중앙로 99 (서초동),127.01392477653941,37.49063395771286
안녕마음 심리상담센터 신내점,010-2068-6775,https://blog.naver.com/shalommaum,서울 중랑구 신내역로3길 4 신내골드프라자 501호,서울특별시 중랑구 신내역로3길 4 신내골드프라자 501호,정,서울특별시 중랑구 신내역로3길 4 (신내동),127.1067070189675,37.619507819907575
진솔심리상담센터,0507-1368-5870,https://01026545870.modoo.at,"서울 양천구 목동동로 293 2205호(목동, 현대41타워)","서울특별시 양천구 목동동로 293 2205호(목동, 현대41타워)",정,서울특별시 양천구 목동동로 293 (목동),126.87575457785361,37.52817201867787
달과 바다 심리상담센터,0507-1350-4327,https://blog.naver.com/libera_kwak,서울 송파구 백제고분로 509 11층 1101호 달과 바다 심리상담센터,서울특별시 송파구 백제고분로 509 11층 1101호 달과 바다 심리상담센터,정,서울특별시 송파구 백제고분로 509 (방이동),127.11517170742721,37.51581946221236
헬로스마일 심리상담센터 잠실점,02-413-5412,http://www.hellosmile.kr/bbs/board.php?bo_table=b2,서울 송파구 오금로11길 7 제이타워빌딩 6층,서울특별시 송파구 오금로11길 7 제이타워빌딩 6층,정,서울특별시 송파구 오금로11길 7 (방이동),127.10796605813547,37.514557394769845
호시담심리상담센터 성북동점,02-745-1052,https://blog.naver.com/hosidamm,서울 성북구 성북로5길 8 2층,서울특별시 성북구 성북로5길 8 2층,정,서울특별시 성북구 성북로5길 8 (성북동1가),127.00448966812979,37.58913494777636
마음을만나다 심리상담센터 수서점,0507-1327-0675,https://meetmyheart.modoo.at/,서울 강남구 밤고개로1길 10 505호,서울특별시 강남구 밤고개로1길 10 505호,정,서울특별시 강남구 밤고개로1길 10 (수서동),127.10178451759938,37.488049129926644
마음터심리상담센터,0507-1479-5023,https://mindplace.co.kr/,서울 서초구 동작대로 58 남장빌딩 3층 302호,서울특별시 서초구 동작대로 58 남장빌딩 3층 302호,정,서울특별시 서초구 동작대로 58 (방배동),126.98228477572674,37.48165344196994
마음사랑상담센터,02-511-4410,http://www.maumsarang.or.kr/,서울 강남구 논현로168길 22 계진빌딩,서울특별시 강남구 논현로168길 22 계진빌딩,정,서울특별시 강남구 논현로168길 22 (신사동),127.03000904966187,37.523636756846464
해피미 아동청소년발달센터 성인심리상담센터,02-3446-7877,http://happyme.co.kr,서울 강남구 봉은사로 119 2층,서울특별시 강남구 봉은사로 119 2층,정,서울특별시 강남구 봉은사로 119 (논현동),127.0266830602614,37.50540761241885
라함 마르페 심리상담센터,010-9410-8999,http://www.gcppi.ac.kr/,서울 강서구 공항대로 186 로뎀타워 605호,서울특별시 강서구 공항대로 186 로뎀타워 605호,정,서울특별시 강서구 공항대로 186 (마곡동),126.82799566240456,37.55909967399187
나무와샘 심리상담센터,02-6403-2714,https://blog.naver.com/psycure7,서울 관악구 관악로12길 5 3층,서울특별시 관악구 관악로12길 5 3층,정,서울특별시 관악구 관악로12길 5 (봉천동),126.95276515767786,37.47825880299701
나사랑심리상담센터,0507-1491-2131,http://cafe.daum.net/nalove777,서울 성북구 삼선교로 39,서울특별시 성북구 삼선교로 39,정,서울특별시 성북구 삼선교로 39 (삼선동2가),127.01017304098471,37.58845927615992
한국 아동 청소년 심리상담센터,0507-1331-5080,http://www.kccp.kr/,서울 강남구 선릉로76길 7 4층,서울특별시 강남구 선릉로76길 7 4층,정,서울특별시 강남구 선릉로76길 7 (대치동),127.051136120283,37.5015269713963
케어마인 심리상담센터 강동점,02-472-3033,http://www.caremine.co.kr/,서울 강동구 올림픽로 659 210호,서울특별시 강동구 올림픽로 659 210호,정,서울특별시 강동구 올림픽로 659 (천호동),127.12355242750459,37.54033385992446
굿이너프 심리상담센터,02-525-1267,https://goodenoughmhc.modoo.at,서울 서초구 서초중앙로 125 로이어즈타워 705호,서울특별시 서초구 서초중앙로 125 로이어즈타워 705호,정,서울특별시 서초구 서초중앙로 125 (서초동),127.01340701311834,37.49302221805738
차주현심리상담센터 강남,0507-1409-8259,https://booking.naver.com/booking/6/bizes/586310?area=bmp,서울 강남구 강남대로78길 22 호야빌딩 3층,서울특별시 강남구 강남대로78길 22 호야빌딩 3층,정,서울특별시 강남구 강남대로78길 22 (역삼동),127.03116184822927,37.49516101395992
마이스토리 심리상담센터 동대문센터,02-6959-1352,http://www.mystoryis.kr,서울 동대문구 한천로46길 42 마루하우스 2층,서울특별시 동대문구 한천로46길 42 마루하우스 2층,정,서울특별시 동대문구 한천로46길 42 (장안동),127.07070625545533,37.58146418881925
위드제이 심리상담센터,02-6949-5090,https://withjcenter.modoo.at,서울 서대문구 수색로 56 509호,서울특별시 서대문구 수색로 56 509호,정,서울특별시 서대문구 수색로 56 (북가좌동),126.91224688013916,37.57091100533304
피어나다 언어심리상담센터,02-6949-6212,https://pieonada.creatorlink.net/,서울 서대문구 이화여대1안길 3 3층 피어나다 언어심리상담 센터,서울특별시 서대문구 이화여대1안길 3 3층 피어나다 언어심리상담 센터,정,서울특별시 서대문구 이화여대1안길 3 (대현동),126.94450500459824,37.557439761575004
안녕마음 심리상담센터 중화점,02-2038-6773,https://blog.naver.com/shalommaum,서울 중랑구 동일로 770 태능제일의원 3층,서울특별시 중랑구 동일로 770 태능제일의원 3층,정,서울특별시 중랑구 동일로 770 (중화동),127.080241532031,37.599224040522046
나우심리상담센터,02-976-9005,,서울 노원구 동일로192길 14,서울특별시 노원구 동일로192길 14,정,서울특별시 노원구 동일로192길 14 (공릉동),127.07395357521953,37.62576968255462
인앤인심리상담센터,0507-1379-1176,https://innincounseling.modoo.at,서울 송파구 법원로6길 7 유탑테크밸리 206호,서울특별시 송파구 법원로6길 7 유탑테크밸리 206호,정,서울특별시 송파구 법원로6길 7 (문정동),127.12177916108737,37.4835285597163
엠브레스마인드 심리상담센터 성북고대직영점,0507-1377-6255,http://www.em-mind.com/,서울 성북구 종암로 18 거산프라자 본관 5층,서울특별시 성북구 종암로 18 거산프라자 본관 5층,정,서울특별시 성북구 종암로 18 (종암동),127.03689948034209,37.591899146455475
열린마음심리상담센터,02-585-3007,http://openmind12.com/,서울 서초구 서초대로78길 42 현대기림오피스1209호,서울특별시 서초구 서초대로78길 42 현대기림오피스1209호,정,서울특별시 서초구 서초대로78길 42 (서초동),127.02822435570984,37.49402597184934
심리상담센터오늘은,010-9537-3354,https://mindtodayis.modoo.at/,서울 금천구 벚꽃로 254 2층 203호,서울특별시 금천구 벚꽃로 254 2층 203호,정,서울특별시 금천구 벚꽃로 254 (가산동),126.88545323615489,37.47777210074487
강남심리상담센터,0507-1321-1138,https://gcounseling.co.kr/,서울 강남구 학동로 208 3층,서울특별시 강남구 학동로 208 3층,정,서울특별시 강남구 학동로 208 (논현동),127.03198688043328,37.51404515121601
서윤영 심리상담센터 강남점,010-8074-3632,https://www.instagram.com/cutngrow,서울 강남구 테헤란로 313 성지하이츠1 14층 13호,서울특별시 강남구 테헤란로 313 성지하이츠1 14층 13호,정,서울특별시 강남구 테헤란로 313 (역삼동),127.04526288784858,37.50379785695127
하늘심리상담센터,0507-1400-5661,https://blog.naver.com/skycounseling,서울 광진구 능동로 149 하늘심리상담센터,서울특별시 광진구 능동로 149 하늘심리상담센터,정,서울특별시 광진구 능동로 149 (화양동),127.0723152004744,37.54411560676366
마음사서함 심리상담센터,0507-1355-1784,https://blog.naver.com/postbox_hwp,서울 강서구 공항대로 220 우성에스비타워 2차 1216호,서울특별시 강서구 공항대로 220 우성에스비타워 2차 1216호,정,서울특별시 강서구 공항대로 220 (마곡동),126.83173569851635,37.55870268037245
희망나무심리상담센터,02-325-7275,http://www.xn--910bu8bo9itfp7dw7o70dp77c.com/,서울 마포구 연남로3길 39 2층,서울특별시 마포구 연남로3길 39 2층,정,서울특별시 마포구 연남로3길 39 (연남동),126.9206953080172,37.56046675114887
은빛심리상담센터,0507-1358-0626,http://www.eunbit.co.kr/,서울 강동구 올림픽로 664 316호,서울특별시 강동구 올림픽로 664 316호,정,서울특별시 강동구 올림픽로 664 (천호동),127.12497523025654,37.540559508713756
강남심리상담센터해맑음,0507-1354-2035,https://blog.naver.com/gnhme,서울 강남구 논현로95길 14 예양빌딩 2층 202호,서울특별시 강남구 논현로95길 14 예양빌딩 2층 202호,정,서울특별시 강남구 논현로95길 14 (역삼동),127.03464672054464,37.502379282063636
마음다음 트라우마 심리상담센터,0507-1376-1513,https://www.instagram.com/maum_daum,"서울 종로구 삼봉로 81 (수송동, 두산위브파빌리온 )","서울특별시 종로구 삼봉로 81 (수송동, 두산위브파빌리온 )",정,서울특별시 종로구 삼봉로 81 (수송동),126.98150612761332,37.57256190718401
호시담심리상담센터 선릉점,02-745-1052,http://hosidampsy.com,서울 강남구 테헤란로 322 서관 2층 212호,서울특별시 강남구 테헤란로 322 서관 2층 212호,정,서울특별시 강남구 테헤란로 322 (역삼동),127.04658239907364,37.50323557691957
헬로스마일 심리상담센터 노원점,02-936-5412,http://www.hellosmile.kr/bbs/board.php?bo_table=b5,서울 노원구 노해로75길 14-26 효림빌딩 7층,서울특별시 노원구 노해로75길 14-26 효림빌딩 7층,정,서울특별시 노원구 노해로75길 14-26 (상계동),127.05888778019414,37.654581727859
두리봄심리상담센터,0507-1355-4338,https://blog.naver.com/doori_bom,서울 구로구 경인로20가길 5 9층 901-7호,서울특별시 구로구 경인로20가길 5 9층 901-7호,정,서울특별시 구로구 경인로20가길 5 (오류동),126.84408141061024,37.49541575836453
심리상담센터 결,0507-1396-5507,https://flowmind.modoo.at,서울 마포구 월드컵북로 402 KGIT센터 9층 909호,서울특별시 마포구 월드컵북로 402 KGIT센터 9층 909호,정,서울특별시 마포구 월드컵북로 402 (상암동),126.88893329956336,37.58018963270006
기쁜우리심리상담센터,0507-1383-8576,https://m.booking.naver.com/booking/6/bizes/352552?area=bmp,서울 성동구 고산자로 253 다남매타워 905호,서울특별시 성동구 고산자로 253 다남매타워 905호,정,서울특별시 성동구 고산자로 253 (도선동),127.0355839538101,37.56240419155655
신은혜 심리상담센터,0507-1336-3512,https://blog.naver.com/counsel_s,"서울 강동구 천호대로167길 26 하이브2, 802호","서울특별시 강동구 천호대로167길 26 하이브2, 802호",정,서울특별시 강동구 천호대로167길 26 (천호동),127.1332688605535,37.53721122964659
더엘심리상담센터,0507-1342-6174,http://the-el.kr,서울 강남구 언주로 122 5층 508호,서울특별시 강남구 언주로 122 5층 508호,정,서울특별시 강남구 언주로 122 (도곡동),127.05100350841106,37.48708441381596
해와나무아동청소년심리상담센터,0507-1317-1275,http://www.isuntree.co.kr/,서울 은평구 통일로87길 19 3층,서울특별시 은평구 통일로87길 19 3층,정,서울특별시 은평구 통일로87길 19 (갈현동),126.91751473141497,37.623254618932435
온맘심리상담센터,0507-1358-2803,http://onmom.kr/,서울 관악구 관천로 44 지하 101호,서울특별시 관악구 관천로 44 지하 101호,정,서울특별시 관악구 관천로 44 (신림동),126.92726494369977,37.48356587956609
앤드심리상담센터,02-546-1190,https://blog.naver.com/andandcenter,서울 중구 다산로 56 남산정은스카이빌 오피스텔 210,서울특별시 중구 다산로 56 남산정은스카이빌 오피스텔 210,정,서울특별시 중구 다산로 56 (신당동),127.00775212435005,37.54905346389453
나로심리상담센터,010-7174-4088,https://blog.naver.com/narolab2020,서울 노원구 화랑로 425-3 진주오피스텔 702호,서울특별시 노원구 화랑로 425-3 진주오피스텔 702호,정,서울특별시 노원구 화랑로 425-3 (공릉동),127.07456755968761,37.61771225726335
마음편한 심리상담센터 상봉점,0507-1326-7190,https://blog.naver.com/counselorshim,서울 중랑구 면목로96길 28 이상부티끄타워 2층 204호,서울특별시 중랑구 면목로96길 28 이상부티끄타워 2층 204호,정,서울특별시 중랑구 면목로96길 28 (상봉동),127.08724652531367,37.59601286352406
꿈꾸는나무심리상담센터,0507-1347-2030,https://blog.naver.com/lovetree34,서울 양천구 목동중앙남로9길 32 201호,서울특별시 양천구 목동중앙남로9길 32 201호,정,서울특별시 양천구 목동중앙남로9길 32 (목동),126.86467810260378,37.538062536808454
지와감심리상담센터,02-2252-9004,http://www.seoulpsy.co.kr/,서울 종로구 종로 19 B동 2031호,서울특별시 종로구 종로 19 B동 2031호,정,서울특별시 종로구 종로 19 (종로1가),126.97992355393073,37.570846355322224
은봄심리상담센터,0507-1350-2572,https://blog.naver.com/eunbomcounseling,서울 구로구 경인로 302,서울특별시 구로구 경인로 302,정,서울특별시 구로구 경인로 302 (개봉동),126.85522655933931,37.4958339287029
마인드트리 심리상담센터,0507-1374-7988,https://blog.naver.com/mindtree1004,서울 동대문구 하정로 54 보육사 2층 다음세대 에듀센터,서울특별시 동대문구 하정로 54 보육사 2층 다음세대 에듀센터,정,서울특별시 동대문구 하정로 54 (신설동),127.02695248464119,37.575783503344155
가온누리아동심리상담센터,0507-1344-0330,https://kaonnuri13.modoo.at,서울 송파구 새말로 125 어은회관 502호,서울특별시 송파구 새말로 125 어은회관 502호,정,서울특별시 송파구 새말로 125 (문정동),127.12789163671479,37.4831025554438
시선심리상담센터,0507-1444-4422,https://ssccmapo.modoo.at,서울 마포구 마포대로 53 비동 603호,서울특별시 마포구 마포대로 53 비동 603호,정,서울특별시 마포구 마포대로 53 (도화동),126.94705469012446,37.54143185517815
청림심리상담센터,0507-1438-7275,http://www.clcoun.com,서울 송파구 석촌호수로 58 3층 301호,서울특별시 송파구 석촌호수로 58 3층 301호,정,서울특별시 송파구 석촌호수로 58 (잠실동),127.0854505282489,37.51109315290195
누리심리상담센터 아동청소년성인,0507-1302-3910,https://blog.naver.com/oksu_nuri,서울 은평구 통일로 801 2층,서울특별시 은평구 통일로 801 2층,정,서울특별시 은평구 통일로 801 (대조동),126.92454440685029,37.61559920720997
허그맘허그인 심리상담센터 신도림센터,02-6956-7915,http://www.hugmom.co.kr/branch/main/main.html?jijummid=guro,서울 구로구 경인로 590 2층,서울특별시 구로구 경인로 590 2층,정,서울특별시 구로구 경인로 590 (신도림동),126.8823756189762,37.504413503376796
봄빛심리상담센터,0507-0177-8215,https://blog.naver.com/hibommind,서울 광진구 천호대로 619 2층 204호,서울특별시 광진구 천호대로 619 2층 204호,정,서울특별시 광진구 천호대로 619 (중곡동),127.08655927920687,37.5547987417401
치유심리상담센터,02-855-9926,https://blog.naver.com/unkk76,"서울 구로구 디지털로32길 79 2층 일부(구로동, 조영빌딩)","서울특별시 구로구 디지털로32길 79 2층 일부(구로동, 조영빌딩)",정,서울특별시 구로구 디지털로32길 79 (구로동),126.89973280935713,37.48357485673891
심리상담센터 숨,0507-1429-3123,https://blog.naver.com/soom_5,서울 은평구 은평로 192 2층,서울특별시 은평구 은평로 192 2층,정,서울특별시 은평구 은평로 192 (응암동),126.92896138992174,37.60121597194696
정담길심리상담센터,0507-1352-9553,https://blog.naver.com/jungdamgil,서울 서초구 효령로66길 10 1층 102호,서울특별시 서초구 효령로66길 10 1층 102호,정,서울특별시 서초구 효령로66길 10 (서초동),127.02245710453754,37.486196323833305
온길심리상담센터,0507-1331-0476,https://blog.naver.com/on_gil,서울 관악구 남부순환로 1802 관악캠퍼스타워,서울특별시 관악구 남부순환로 1802 관악캠퍼스타워,정,서울특별시 관악구 남부순환로 1802 (봉천동),126.95031704594675,37.48107393128586
심리상담센터보듬과아우름,02-2642-3375,http://bodm.quv.kr,서울 양천구 오목로 345 슬로우스퀘어 318호,서울특별시 양천구 오목로 345 슬로우스퀘어 318호,정,서울특별시 양천구 오목로 345 (목동),126.8757884144057,37.52476603407709
노원아이심리상담센터,0507-1321-0362,https://blog.naver.com/nowon_kids,서울 노원구 동일로 1393 일신프라자 302호,서울특별시 노원구 동일로 1393 일신프라자 302호,정,서울특별시 노원구 동일로 1393 (상계동),127.06055089762846,37.65294458453804
힐다임심리상담센터 강남센터,02-6953-3636,http://sl.healdigm.co.kr/index.php?idx=c61c35d5d699ae/c61c35d69699b5/c61d491c7eacd9,서울 강남구 논현로85길 23 5층 503호,서울특별시 강남구 논현로85길 23 5층 503호,정,서울특별시 강남구 논현로85길 23 (역삼동),127.03610997153966,37.498781177306526
힐다임심리상담센터 마포센터,010-6582-5258,http://mp.healdigm.co.kr/index.php?idx=c61c35d5d699ae/c61c35d69699b5/c61f28b2b4b7fc,서울 마포구 만리재로 15 6층 608호,서울특별시 마포구 만리재로 15 6층 608호,정,서울특별시 마포구 만리재로 15 (공덕동),126.95276804175248,37.54458438938148
호시담심리상담센터 연희동점,02-745-1052,https://blog.naver.com/hosidamm,서울 서대문구 연희로8길 18 스페이스독 3층 301호,서울특별시 서대문구 연희로8길 18 스페이스독 3층 301호,정,서울특별시 서대문구 연희로8길 18 (연희동),126.93093556665009,37.565179031112606
이상화 심리상담센터,0507-1435-5412,http://12914love.imweb.me/,서울 서초구 남부순환로 2632 5층,서울특별시 서초구 남부순환로 2632 5층,정,서울특별시 서초구 남부순환로 2632 (양재동),127.03841761928541,37.48489753602524
한결심리상담센터,02-2690-9413,http://www.mindclick.co.kr/,서울 양천구 신월로 387 유앤미법조빌딩 6층,서울특별시 양천구 신월로 387 유앤미법조빌딩 6층,정,서울특별시 양천구 신월로 387 (신정동),126.86400656972422,37.52262107707813
허그맘허그인심리상담센터 보라매센터,02-2138-2911,https://blog.naver.com/hugmombora1,서울 동작구 보라매로5가길 16 보라매아카데미타워 609호,서울특별시 동작구 보라매로5가길 16 보라매아카데미타워 609호,정,서울특별시 동작구 보라매로5가길 16 (신대방동),126.92408910693995,37.49123228625951
한국인간관계심리연구소 휴먼마음클리닉심리상담센터,02-2226-3827,https://www.instagram.com/p/B7rVQ5Ll_0c/?igshid=YmMyMTA2M2Y=,서울 강남구 광평로 280 1537호,서울특별시 강남구 광평로 280 1537호,정,서울특별시 강남구 광평로 280 (수서동),127.10307871209781,37.487309156695375
한양아이소리 목동심리상담센터,0507-1428-3179,http://www.hanyangisori.com/,서울 양천구 오목로 197 이스트만빌딩 2층 한양아이소리 목동심리상담센터,서울특별시 양천구 오목로 197 이스트만빌딩 2층 한양아이소리 목동심리상담센터,정,서울특별시 양천구 오목로 197 (신정동),126.85941206479598,37.525617519008264
수심리상담센터,0507-1446-3479,https://blog.naver.com/buti5,서울 도봉구 도봉로110마길 42 북한산드림시티오피스텔,서울특별시 도봉구 도봉로110마길 42 북한산드림시티오피스텔,정,서울특별시 도봉구 도봉로110마길 42 (창동),127.03620495392862,37.64452445920093
마음행복심리상담센터,02-461-3010,http://www.xn--jk1bm3kyxcd9ei6j4iw.kr,서울 광진구 뚝섬로 742 광성빌딩 501호,서울특별시 광진구 뚝섬로 742 광성빌딩 501호,정,서울특별시 광진구 뚝섬로 742 (구의동),127.09142495980855,37.534225852881846
마음햇살 심리상담센터,0507-1327-4678,https://mind119.modoo.at,서울 마포구 서강로 144,서울특별시 마포구 서강로 144,정,서울특별시 마포구 서강로 144 (노고산동),126.93662592407098,37.554467947176285
리베심리상담센터,010-4689-5577,https://www.instagram.com/liebecounsel?igsh=ZGhtcmgxcncxMXRq,서울 마포구 동교로 72-1 301호,서울특별시 마포구 동교로 72-1 301호,정,서울특별시 마포구 동교로 72-1 (합정동),126.9101734649479,37.55360133369069
이음세움 심리상담센터,02-3481-2030,http://www.eeumseum.co.kr/,서울 서초구 서초대로 3-4 방배디오슈페리움1차 404호,서울특별시 서초구 서초대로 3-4 방배디오슈페리움1차 404호,정,서울특별시 서초구 서초대로 3-4 (방배동),126.98312340144071,37.486042601951304
헬로스마일 심리상담센터 강서점,02-2698-5412,http://hellosmile.kr/,서울 강서구 마곡중앙6로 93 1102호,서울특별시 강서구 마곡중앙6로 93 1102호,정,서울특별시 강서구 마곡중앙6로 93 (마곡동),126.8376959661304,37.56017727277003
드림심리상담센터 드림ABA연구소,02-407-8088,https://dreamcenter2017.modoo.at,서울 송파구 중대로 144 4층,서울특별시 송파구 중대로 144 4층,정,서울특별시 송파구 중대로 144 (가락동),127.1238361815847,37.49502580377404
마음숨결심리상담센터,0507-1494-1040,https://blog.naver.com/momsoom1002,서울 용산구 효창원로 111 4층,서울특별시 용산구 효창원로 111 4층,정,서울특별시 용산구 효창원로 111 (용문동),126.96058574927417,37.538162993191655
사이와너머 심리상담센터,010-2704-4205,http://bwbypsy.modoo.at,서울 종로구 삼봉로 81 903호,서울특별시 종로구 삼봉로 81 903호,정,서울특별시 종로구 삼봉로 81 (수송동),126.98150612761332,37.57256190718401
몸마음치유심리상담센터,0507-1306-6441,https://bodymindhealing.modoo.at,서울 동대문구 왕산로 200 청량리역 롯데캐슬 SKY-L65 섹션오피스 1212호,서울특별시 동대문구 왕산로 200 청량리역 롯데캐슬 SKY-L65 섹션오피스 1212호,정,서울특별시 동대문구 왕산로 200 (전농동),127.04616113089502,37.57989015428791
심리상담센터 마음의방,0507-1361-3016,https://blog.naver.com/maum_room,서울 강남구 테헤란로51길 23 3층,서울특별시 강남구 테헤란로51길 23 3층,정,서울특별시 강남구 테헤란로51길 23 (역삼동),127.04574760591815,37.50519057559909
위드심리상담센터,0507-1377-5478,,서울 동작구 상도로 399 상가 2동 3층,서울특별시 동작구 상도로 399 상가 2동 3층,정,서울특별시 동작구 상도로 399 (상도동),126.95623769688945,37.49382722473563
내마음N심리상담센터,0507-1452-8021,https://www.instagram.com/mindn_center,서울 중랑구 중랑역로 184 3층,서울특별시 중랑구 중랑역로 184 3층,정,서울특별시 중랑구 중랑역로 184 (묵동),127.07634516075122,37.609887760422666
힐링유 심리상담센터,0507-1404-2668,http://www.healing-u.co.kr/,서울 강남구 선릉로 608 선진빌딩,서울특별시 강남구 선릉로 608 선진빌딩,정,서울특별시 강남구 선릉로 608 (삼성동),127.04382799794229,37.51123819283803
마음편한 심리상담센터 창동점,0507-1392-2524,https://mindcozy.modoo.at/,서울 도봉구 노해로 341 신원리베르텔 마음편한심리상담센터,서울특별시 도봉구 노해로 341 신원리베르텔 마음편한심리상담센터,정,서울특별시 도봉구 노해로 341 (창동),127.04591230027002,37.65145226163816
도봉우리심리상담센터,02-998-0721,http://dobongwoori.creatorlink.net/,서울 도봉구 해등로 190 신원상가 2차 205호,서울특별시 도봉구 해등로 190 신원상가 2차 205호,정,서울특별시 도봉구 해등로 190 (쌍문동),127.03575001416922,37.65820963786529
구로아동청소년심리상담센터,0507-1391-7764,,"서울 구로구 서해안로 2098 항동프라자 303, 304호","서울특별시 구로구 서해안로 2098 항동프라자 303, 304호",정,서울특별시 구로구 서해안로 2098 (항동),126.82320653862715,37.480060678187506
다움심리상담센터,0507-1422-1377,http://www.daumcc.com/,서울 영등포구 양평로 16 당산동 대정프라자,서울특별시 영등포구 양평로 16 당산동 대정프라자,정,서울특별시 영등포구 양평로 16 (당산동6가),126.9045053247334,37.532890341509614
그루터기심리상담센터 목동점,02-2061-3337,,서울 양천구 목동동로 293 현대41타워 20층 2006호,서울특별시 양천구 목동동로 293 현대41타워 20층 2006호,정,서울특별시 양천구 목동동로 293 (목동),126.87575457785361,37.52817201867787
푸른숲심리상담센터,0507-1444-2005,https://youtube.com/@studiooasis7,서울 서초구 서초중앙로8길 17 광염빌딩 3층,서울특별시 서초구 서초중앙로8길 17 광염빌딩 3층,정,서울특별시 서초구 서초중앙로8길 17 (서초동),127.016338771468,37.48678776510883
행복심리상담센터 밝음,02-516-9060,http://www.bhappy.co.kr/,서울 서초구 사평대로 371 3층,서울특별시 서초구 사평대로 371 3층,정,서울특별시 서초구 사평대로 371 (반포동),127.02357716413559,37.50457470453771
양소영 심리상담센터,02-557-9701,http://www.healeryung.kr,서울 강남구 테헤란로87길 17 .6층 609호 (삼성동 마젤란21아스테리움),서울특별시 강남구 테헤란로87길 17 .6층 609호 (삼성동 마젤란21아스테리움),정,서울특별시 강남구 테헤란로87길 17 (삼성동),127.05832178910876,37.50872810127264
모노심리상담센터,0505-302-5170,https://blog.naver.com/mono521,서울 마포구 마포대로 63-8 삼창프라자빌딩 12층 1245호,서울특별시 마포구 마포대로 63-8 삼창프라자빌딩 12층 1245호,정,서울특별시 마포구 마포대로 63-8 (도화동),126.94781510712752,37.542259806202196
마이스토리 심리상담센터 강동센터,02-404-5412,https://blog.naver.com/andshanghai,"서울 송파구 양재대로72길 12 2층, 3층","서울특별시 송파구 양재대로72길 12 2층, 3층",정,서울특별시 송파구 양재대로72길 12 (오금동),127.12803212994277,37.509406640050486
다담심리상담센터 사당,0507-1308-7255,http://dadamcoun.modoo.at,서울 관악구 남부순환로272길 17 3층,서울특별시 관악구 남부순환로272길 17 3층,정,서울특별시 관악구 남부순환로272길 17 (남현동),126.97848332828603,37.475705654664516
공간과공감 심리상담센터,010-2238-1217,https://brunch.co.kr/@gonggan-gonggam,서울 강서구 강서로12길 5-9 2층,서울특별시 강서구 강서로12길 5-9 2층,정,서울특별시 강서구 강서로12길 5-9 (화곡동),126.84716799010583,37.53190520143109
휴레스트 심리상담센터,010-3402-2023,https://open.kakao.com/o/sc7HdPag,서울 은평구 서오릉로 139 주영빌딩 4층,서울특별시 은평구 서오릉로 139 주영빌딩 4층,정,서울특별시 은평구 서오릉로 139 (역촌동),126.91749283859484,37.61084560843363
연두심리상담센터,0507-1339-1430,,서울 동대문구 고산자로34길 70 B동 4층 430호,서울특별시 동대문구 고산자로34길 70 B동 4층 430호,정,서울특별시 동대문구 고산자로34길 70 (용두동),127.04219676658713,37.578292267992666
나무그늘발달및심리상담센터,070-8733-4328,http://namugn.org/,서울 노원구 화랑로 421 한일휴니스빌 401호,서울특별시 노원구 화랑로 421 한일휴니스빌 401호,정,서울특별시 노원구 화랑로 421 (공릉동),127.07432944887985,37.61749954045829
한양심리상담센터,0507-1337-7734,http://hyucc.kr,서울 성동구 고산자로 253 705호,서울특별시 성동구 고산자로 253 705호,정,서울특별시 성동구 고산자로 253 (도선동),127.0355839538101,37.56240419155655
여의도심리상담센터,02-6274-0030,http://여의도심리상담.com/,서울 영등포구 여의나루로 71 동화빌딩 6층 605호,서울특별시 영등포구 여의나루로 71 동화빌딩 6층 605호,정,서울특별시 영등포구 여의나루로 71 (여의도동),126.92687746115428,37.523777197427584
빛그림심리상담센터,0507-1334-2269,http://bitgrimpsy.co.kr/gnuboard5/,서울 마포구 양화로 133 1712호,서울특별시 마포구 양화로 133 1712호,정,서울특별시 마포구 양화로 133 (서교동),126.92100921787946,37.555224227451006
디어마인드 심리상담센터,,https://dearmind.kr,서울 은평구 응암로21가길 30 3층 1호,서울특별시 은평구 응암로21가길 30 3층 1호,정,서울특별시 은평구 응암로21가길 30 (응암동),126.91842438821811,37.596210714186334
오늘엔심리상담센터,010-7338-8300,https://blog.naver.com/todayandpsy_,서울 강동구 고덕로 399 지하1층 111호,서울특별시 강동구 고덕로 399 지하1층 111호,정,서울특별시 강동구 고덕로 399 (고덕동),127.16960354263465,37.55787296176473
심리상담센터 사이공간,0507-1395-1088,https://blog.naver.com/42space_center,서울 금천구 범안로12가길 52 옥토하이츠빌,서울특별시 금천구 범안로12가길 52 옥토하이츠빌,정,서울특별시 금천구 범안로12가길 52 (독산동),126.89407385256922,37.46470567886833
진심리상담센터,010-2403-9124,https://jinsimry.modoo.at,서울 노원구 상계로 32 보미더클래스 912호,서울특별시 노원구 상계로 32 보미더클래스 912호,정,서울특별시 노원구 상계로 32 (상계동),127.0587339098233,37.655030166779696
마음 in 심리상담센터,010-9469-0911,http://maumin.modoo.at,서울 영등포구 당산로49길 9 골드라인C동,서울특별시 영등포구 당산로49길 9 골드라인C동,정,"서울특별시 영등포구 당산로49길 9, C동 (당산동6가)",126.90163571906025,37.53550687809971
심리상담센터 연음,0507-1415-2832,http://yeonum.com,서울 광진구 능동로 283 진성빌딩 4층,서울특별시 광진구 능동로 283 진성빌딩 4층,정,서울특별시 광진구 능동로 283 (군자동),127.07813510577957,37.55535869355502
나무마음심리상담센터,02-555-7948,http://namumaum.kr,서울 강남구 봉은사로 474 쌍용플래티넘상가 208호,서울특별시 강남구 봉은사로 474 쌍용플래티넘상가 208호,정,서울특별시 강남구 봉은사로 474 (삼성동),127.05202892442884,37.512364812580564
강남 라온드림 심리상담센터,0507-1416-2068,https://blog.naver.com/raondream2004,서울 강남구 남부순환로377길 3 신관 2층,서울특별시 강남구 남부순환로377길 3 신관 2층,정,서울특별시 강남구 남부순환로377길 3 (도곡동),127.04501732803305,37.48658015313918
코리안민트심리상담센터,0507-1497-1096,https://blog.naver.com/koreanmint230417,서울 영등포구 양평로 46 4층,서울특별시 영등포구 양평로 46 4층,정,서울특별시 영등포구 양평로 46 (당산동6가),126.90164586605727,37.53446718791326
소열심리상담센터,02-725-1050,http://www.soyul.org/,서울 종로구 자하문로17길 27 우남빌딩,서울특별시 종로구 자하문로17길 27 우남빌딩,정,서울특별시 종로구 자하문로17길 27 (통인동),126.9692310129045,37.5812863154075
레나심리상담센터,0507-1318-4891,https://xn--jk1bk1korgdoam1eg59a.kr/,서울 성북구 화랑로 210-6 503호 레나심리상담센터,서울특별시 성북구 화랑로 210-6 503호 레나심리상담센터,정,서울특별시 성북구 화랑로 210-6 (석관동),127.0532828026656,37.60845609461175
오 후 3 시 심리상담센터,0507-1467-1078,https://blog.naver.com/pm_3cafe,서울 강동구 천호대로 1116 라이저빌딩,서울특별시 강동구 천호대로 1116 라이저빌딩,정,서울특별시 강동구 천호대로 1116 (성내동),127.13518189104902,37.53461559006713
채움 심리상담센터,0507-1347-6963,https://blog.naver.com/chaeum_fill,"서울 서초구 서초대로51길 30 3층, 4층","서울특별시 서초구 서초대로51길 30 3층, 4층",정,서울특별시 서초구 서초대로51길 30 (서초동),127.0139090519153,37.4965485370179
보듬살이심리상담센터,0507-1408-3055,https://blog.naver.com/oncounseling,서울 노원구 덕릉로 669 세양빌딩 306호,서울특별시 노원구 덕릉로 669 세양빌딩 306호,정,서울특별시 노원구 덕릉로 669 (중계동),127.07466988871623,37.65743563236947
마인드웰 심리상담센터,0507-1311-2301,https://mindwellcenter.modoo.at,서울 서초구 방배로10길 10-8 포에버빌딩 3층,서울특별시 서초구 방배로10길 10-8 포에버빌딩 3층,정,서울특별시 서초구 방배로10길 10-8 (방배동),126.9987354799697,37.48073890027935
마음숲심리상담센터,0507-1385-9968,,서울 강동구 동남로67길 41 202호,서울특별시 강동구 동남로67길 41 202호,정,서울특별시 강동구 동남로67길 41 (명일동),127.15352567352069,37.548668974626956
투윈스심리상담센터,02-6952-8285,https://blog.naver.com/twowins23,"서울 강서구 마곡중앙로 161-8 두산더랜드파크 A동 10층 1004호, 1005호","서울특별시 강서구 마곡중앙로 161-8 두산더랜드파크 A동 10층 1004호, 1005호",정,서울특별시 강서구 마곡중앙로 161-8 (마곡동),126.82733864079789,37.568851417256994
서울포레스트 심리상담센터,0507-1457-8784,https://www.instagram.com/seoulforest_counseling,서울 강남구 도산대로 420 청담스퀘어 2층 212호,서울특별시 강남구 도산대로 420 청담스퀘어 2층 212호,정,서울특별시 강남구 도산대로 420 (청담동),127.04220131363184,37.52302158160581
혜담심리상담센터,0507-1367-2166,https://blog.naver.com/haedam_mind,서울 강남구 논현로 507 1807호,서울특별시 강남구 논현로 507 1807호,정,서울특별시 강남구 논현로 507 (역삼동),127.0361564586523,37.50157994978632
마미심리상담센터,0507-1450-2348,http://mommy-mind.com/,서울 구로구 공원로 3 선경오피스 1109호,서울특별시 구로구 공원로 3 선경오피스 1109호,정,서울특별시 구로구 공원로 3 (구로동),126.89226183654917,37.49769776123777
고요한 순간 심리상담센터 은평,010-4825-9042,,서울 은평구 진관3로 32 B동 3층 314호,서울특별시 은평구 진관3로 32 B동 3층 314호,정,서울특별시 은평구 진관3로 32 (진관동),126.92061478216219,37.639359570802185
희망나무심리상담센터 광나루점,02-447-0179,http://instagram.com/fullyunderstanding,서울 광진구 아차산로 634 대오빌딩 3층 308호,서울특별시 광진구 아차산로 634 대오빌딩 3층 308호,정,서울특별시 광진구 아차산로 634 (광장동),127.10829971920353,37.54899365163168
이엘 심리상담센터,0507-1449-2419,,서울 서대문구 세검정로3길 56-9 2층,서울특별시 서대문구 세검정로3길 56-9 2층,정,서울특별시 서대문구 세검정로3길 56-9 (홍제동),126.94741835312811,37.59336695463957
별하언어심리상담센터,02-2686-7942,https://blog.naver.com/byulha2016,서울 구로구 경인로 373 문화골든타워 301호,서울특별시 구로구 경인로 373 문화골든타워 301호,정,서울특별시 구로구 경인로 373 (고척동),126.86191487971986,37.49692146310345
마음엘심리상담센터,02-3471-2211,http://mindel.webflow.io/,서울 서초구 효령로 117 보리빌딩 3층,서울특별시 서초구 효령로 117 보리빌딩 3층,정,서울특별시 서초구 효령로 117 (방배동),126.99694133146448,37.481464042587795
한마음 심리상담센터,0507-1408-6360,http://www.maumcenter.com/,서울 강남구 영동대로 216,서울특별시 강남구 영동대로 216,정,서울특별시 강남구 영동대로 216 (대치동),127.06946217843515,37.49840195694632
안신동심리상담센터,010-9381-1298,https://www.instagram.com/ansin_dong,서울 은평구 진관3로 32 은평뉴타운파크앤타워 B동 414호,서울특별시 은평구 진관3로 32 은평뉴타운파크앤타워 B동 414호,정,서울특별시 은평구 진관3로 32 (진관동),126.92061478216219,37.639359570802185
새벽별심리상담센터,0507-1478-7502,https://www.instagram.com/dawnstar_mindtherapy,서울 성동구 왕십리로 410 센트라스 아이동 144호,서울특별시 성동구 왕십리로 410 센트라스 아이동 144호,정,서울특별시 성동구 왕십리로 410 (하왕십리동),127.02498118769569,37.567115081505975
공감심리상담센터,0507-1395-5769,https://blog.naver.com/yycheol7,서울 강북구 도봉로 328 가든타워빌딩 1318호 (4호선수유역 4번출구와 연결),서울특별시 강북구 도봉로 328 가든타워빌딩 1318호 (4호선수유역 4번출구와 연결),정,서울특별시 강북구 도봉로 328 (번동),127.02519083641275,37.637127223045404
서울부부가족치료연구소 서가연심리상담센터,0507-1420-9915,https://systherapy.modoo.at,서울 서초구 사임당로17길 48 1층,서울특별시 서초구 사임당로17길 48 1층,정,서울특별시 서초구 사임당로17길 48 (서초동),127.0173868344386,37.49128952767829
아리심리상담센터,070-7792-5135,http://www.aricenter.co.kr/,서울 송파구 오금로 519,서울특별시 송파구 오금로 519,정,서울특별시 송파구 오금로 519 (거여동),127.14652257983411,37.49309241146209
스며듬심리상담센터,0507-1356-1879,https://permeatepsy.modoo.at/,서울 강서구 화곡로31다길 20,서울특별시 강서구 화곡로31다길 20,정,서울특별시 강서구 화곡로31다길 20 (화곡동),126.839891342416,37.54479288229773
이화심리상담센터,02-2614-7222,http://www.ewhahealing.kr,서울 구로구 고척로 237 302호,서울특별시 구로구 고척로 237 302호,정,서울특별시 구로구 고척로 237 (고척동),126.85929580074327,37.50662643914095
맘앤마음 심리상담센터,02-433-6252,http://www.momnmaum.co.kr,서울 중랑구 양원역로16길 103-49 1~2층,서울특별시 중랑구 양원역로16길 103-49 1~2층,정,서울특별시 중랑구 양원역로16길 103-49 (망우동),127.11350999144682,37.60872944506346
치유심리상담센터,02-3280-7572,https://healingfull.modoo.at,서울 동작구 상도로 60 9층,서울특별시 동작구 상도로 60 9층,정,서울특별시 동작구 상도로 60 (대방동),126.92715315938025,37.49956143506976
심리상담센터 공간,010-7176-2232,,서울 금천구 시흥대로 189 인피니움타워 912호,서울특별시 금천구 시흥대로 189 인피니움타워 912호,정,서울특별시 금천구 시흥대로 189 (시흥동),126.90146271245212,37.45063874550677
정심리상담센터,0507-1478-7570,,서울 마포구 백범로 90 7층 정심리상담센터,서울특별시 마포구 백범로 90 7층 정심리상담센터,정,서울특별시 마포구 백범로 90 (대흥동),126.94152500514178,37.54784255740877
행복디자인심리상담센터,02-6232-2080,http://www.hdcc.kr/,서울 서초구 강남대로 381 1206호,서울특별시 서초구 강남대로 381 1206호,정,서울특별시 서초구 강남대로 381 (서초동),127.02769948121013,37.49667509027929
서울심리상담센터,02-6964-7026,http://www.ymcounseling.co.kr/,서울 종로구 율곡로 154 서울상담심리대학원대학교 2층,서울특별시 종로구 율곡로 154 서울상담심리대학원대학교 2층,정,서울특별시 종로구 율곡로 154 (원남동),126.99592885628445,37.57607689015584
심지아심리상담센터,0507-1354-3589,http://pf.kakao.com/_YsLzK,서울 종로구 종로 1 교보빌딩 15층,서울특별시 종로구 종로 1 교보빌딩 15층,정,서울특별시 종로구 종로 1 (종로1가),126.97798332356757,37.57098570199635
바움심리상담센터,0507-1407-8275,https://blog.naver.com/arttherapy82,서울 강서구 공항대로 519 309호,서울특별시 강서구 공항대로 519 309호,정,서울특별시 강서구 공항대로 519 (등촌동),126.86414696558701,37.55174606162771
해늘 심리상담센터,0507-1431-7542,http://www.haeneul.co.kr,서울 송파구 백제고분로41길 10 해븐빌딩 401호,서울특별시 송파구 백제고분로41길 10 해븐빌딩 401호,정,서울특별시 송파구 백제고분로41길 10 (송파동),127.10839683116494,37.50714901025562
이아당 심리상담센터,02-555-6743,http://blog.naver.com/okokcenter,서울 중구 퇴계로18길 33 M+ SPACE 305호,서울특별시 중구 퇴계로18길 33 M+ SPACE 305호,정,서울특별시 중구 퇴계로18길 33 (남산동2가),126.98515556980605,37.559328649027385
샤인심리상담센터,0507-1327-4810,https://smartstore.naver.com/shinecenter,서울 동대문구 외대역동로 101 비바체 스터디카페 스터디룸 대여 후 진행,서울특별시 동대문구 외대역동로 101 비바체 스터디카페 스터디룸 대여 후 진행,정,서울특별시 동대문구 외대역동로 101 (이문동),127.06417765029846,37.59616291198216
더숲언어심리상담센터,02-556-0199,https://blog.naver.com/thesoopcenter,서울 강남구 남부순환로 2912 그랑프리엔상가 204호,서울특별시 강남구 남부순환로 2912 그랑프리엔상가 204호,정,서울특별시 강남구 남부순환로 2912 (대치동),127.05612645346812,37.49071626552579
마음의숲 심리상담센터,0507-1369-7499,http://www.mindforest24.com/,서울 강남구 언주로30길 13 대림아크로텔 2510호,서울특별시 강남구 언주로30길 13 대림아크로텔 2510호,정,서울특별시 강남구 언주로30길 13 (도곡동),127.05141497362047,37.48852586245378
봄날의 햇살 심리상담센터,02-2135-5536,https://27bomnal.modoo.at,서울 구로구 경인로 661 101동 14층 1401호,서울특별시 구로구 경인로 661 101동 14층 1401호,정,서울특별시 구로구 경인로 661 (신도림동),126.88798648216394,37.50966197301616
SRC언어심리상담센터,02-871-8201,http://www.srcmind.com,서울 관악구 보라매로 44 3층 SRC언어심리상담센터,서울특별시 관악구 보라매로 44 3층 SRC언어심리상담센터,정,서울특별시 관악구 보라매로 44 (봉천동),126.92739654175207,37.493174221413526
헤르츠 심리상담센터 잠실점,0507-1355-1634,http://www.hzcenter.co.kr/,서울 송파구 올림픽로 240 롯데마트 제타플렉스점 5층,서울특별시 송파구 올림픽로 240 롯데마트 제타플렉스점 5층,정,서울특별시 송파구 올림픽로 240 (잠실동),127.09822418437354,37.51148171731483
아동청소년심리상담센터 아이,02-922-7907,http://www.center-i.co.kr/,서울 성북구 개운사길 12,서울특별시 성북구 개운사길 12,정,서울특별시 성북구 개운사길 12 (안암동5가),127.02946256665871,37.586890317267496
움트심리상담센터,0507-1488-2780,https://ummmt.modoo.at,서울 구로구 디지털로32가길 18 910호,서울특별시 구로구 디지털로32가길 18 910호,정,서울특별시 구로구 디지털로32가길 18 (구로동),126.89846340568779,37.482680559049925
연세오푸스심리상담센터,02-2678-8880,https://opuscounsel.modoo.at,서울 영등포구 양평로 24-1 OK빌딩 4층,서울특별시 영등포구 양평로 24-1 OK빌딩 4층,정,서울특별시 영등포구 양평로 24-1 (당산동6가),126.90356638549343,37.53331309643572
마음상봉심리상담센터,0507-1445-5006,https://open.kakao.com/o/slR0K5pg,서울 중랑구 망우로 305 5층 503호,서울특별시 중랑구 망우로 305 5층 503호,정,서울특별시 중랑구 망우로 305 (상봉동),127.08612581631168,37.59692290843946
용기와회복 심리상담센터,0507-1411-2831,https://blog.naver.com/harinjeong_,"서울 은평구 통일로 739 301호(사무실, 상담실주소는 공지)","서울특별시 은평구 통일로 739 301호(사무실, 상담실주소는 공지)",정,서울특별시 은평구 통일로 739 (대조동),126.92873405168142,37.61125128900654
올리브 언어심리상담센터,02-6487-5236,https://olivetherapycenter.modoo.at,서울 동대문구 답십리로 68 2층(전농동),서울특별시 동대문구 답십리로 68 2층(전농동),정,서울특별시 동대문구 답십리로 68 (전농동),127.04840540822899,37.575368205567194
마음&마음심리상담센터,010-5963-0035,,서울 송파구 마천로26길 14 2층 203호,서울특별시 송파구 마천로26길 14 2층 203호,정,서울특별시 송파구 마천로26길 14 (오금동),127.13835970918869,37.50211634690641
소솜심리상담센터,010-5275-0090,,서울 강서구 마곡중앙로 76 힐스테이트에코 마곡역 4층 435호,서울특별시 강서구 마곡중앙로 76 힐스테이트에코 마곡역 4층 435호,정,서울특별시 강서구 마곡중앙로 76 (마곡동),126.82748025135528,37.560347921492514
심리상담센터 다감,0507-1445-7724,http://www.dagam.co,서울 송파구 송파대로 409 3층,서울특별시 송파구 송파대로 409 3층,정,서울특별시 송파구 송파대로 409 (석촌동),127.10828480711271,37.503500521197225
마음과 공간 심리상담센터,0507-1364-3176,https://blog.naver.com/skyclo,서울 강동구 성내로6길 14-5 다모아빌딩 201호,서울특별시 강동구 성내로6길 14-5 다모아빌딩 201호,정,서울특별시 강동구 성내로6길 14-5 (성내동),127.12244959273568,37.52940495739702
이화심리상담센터,0507-1343-5232,,서울 도봉구 노해로65길 17 창동 중앙빌딩 4층 402호 이화심리상담센터,서울특별시 도봉구 노해로65길 17 창동 중앙빌딩 4층 402호 이화심리상담센터,정,서울특별시 도봉구 노해로65길 17 (창동),127.04610528068375,37.652035173016344
펫로스 심리상담 센터 안녕,0507-1322-2538,http://goodbyefriend.modoo.at,서울 강남구 삼성로 508 LG 트윈텔2 1405호,서울특별시 강남구 삼성로 508 LG 트윈텔2 1405호,정,서울특별시 강남구 삼성로 508 (삼성동),127.05663305280454,37.507773554024034
담아듣는 심리상담센터,0507-1495-0316,https://blog.naver.com/imalllears,서울 강북구 삼양로149길 16-6,서울특별시 강북구 삼양로149길 16-6,정,서울특별시 강북구 삼양로149길 16-6 (우이동),127.01208917725374,37.65434453546941
나의쉼심리상담센터,0507-1433-5337,https://myrest.modoo.at,서울 강서구 마곡서로 152 두산더랜드타워 B동 9층 911호,서울특별시 강서구 마곡서로 152 두산더랜드타워 B동 9층 911호,정,서울특별시 강서구 마곡서로 152 (마곡동),126.8259795641117,37.56768658586281
에이치심리상담센터,0507-1331-8251,http://www.hpsy.co.kr/,서울 성북구 화랑로 118 유성빌딩 4층,서울특별시 성북구 화랑로 118 유성빌딩 4층,정,서울특별시 성북구 화랑로 118 (하월곡동),127.04473065568268,37.60404886174325
청담 사이심리상담센터,02-514-4200,http://www.42.or.kr/,서울 강남구 학동로59길 39,서울특별시 강남구 학동로59길 39,정,서울특별시 강남구 학동로59길 39 (청담동),127.04447486379252,37.519933819711135
하음 심리 상담센터,02-6463-2872,http://haum-center.com,서울 광진구 능동로 296 3층 302호,서울특별시 광진구 능동로 296 3층 302호,정,서울특별시 광진구 능동로 296 (능동),127.07923084234076,37.5560333336975
라파심리상담센터,0507-1405-7534,http://www.rapacenter.com/,서울 송파구 백제고분로40길 16 서광빌딩 301호,서울특별시 송파구 백제고분로40길 16 서광빌딩 301호,정,서울특별시 송파구 백제고분로40길 16 (석촌동),127.10659145731833,37.50313610081678
심리상담센터 너는 꽃,0507-1363-6627,https://blog.naver.com/flower_original,서울 서초구 서운로 11 서초대우디오빌,서울특별시 서초구 서운로 11 서초대우디오빌,정,서울특별시 서초구 서운로 11 (서초동),127.02909128471346,37.48499587121746
소이 심리상담센터,0507-1418-8263,https://blog.naver.com/msh1251,서울 성북구 보문로38길 11 돈암동일하이빌 2층 229호,서울특별시 성북구 보문로38길 11 돈암동일하이빌 2층 229호,정,서울특별시 성북구 보문로38길 11 (동소문동5가),127.01483914143252,37.591683866470234
피카부언어심리상담센터,0507-1321-9134,https://peekaboomagok.modoo.at,서울 강서구 공항대로 168 747타워 8층 801호,서울특별시 강서구 공항대로 168 747타워 8층 801호,유,서울특별시 강서구 공항대로 168 (마곡동),126.82613914447718,37.559249589273136
웰트리심리상담센터,02-6335-6331,http://welltree.itpage.kr,서울 양천구 신월로 164,서울특별시 양천구 신월로 164,정,서울특별시 양천구 신월로 164 (신월동),126.84201533459374,37.51778698329578
마음온기심리상담센터,010-2313-7659,https://warmhearted.modoo.at,서울 성동구 고산자로 253 1303호,서울특별시 성동구 고산자로 253 1303호,정,서울특별시 성동구 고산자로 253 (도선동),127.0355839538101,37.56240419155655
심리상담센터 공감,02-6949-4994,http://gonggamspace.com,서울 양천구 목동중앙본로 37 2층,서울특별시 양천구 목동중앙본로 37 2층,정,서울특별시 양천구 목동중앙본로 37 (목동),126.86900972006411,37.53941719853875
숨비소리 심리상담센터,0507-1326-4187,https://sumbisori.modoo.at/,서울 송파구 백제고분로51길 23 902호,서울특별시 송파구 백제고분로51길 23 902호,정,서울특별시 송파구 백제고분로51길 23 (방이동),127.11287274114775,37.516508372291575
홀트서울심리상담센터,02-331-7192,https://www.holt.or.kr/heal,"서울 마포구 양화로1길 22 4층, 5층","서울특별시 마포구 양화로1길 22 4층, 5층",정,서울특별시 마포구 양화로1길 22 (합정동),126.91072701903457,37.5496863207078
좋은관계심리상담센터,0507-1348-5481,https://joeungwangye.modoo.at,서울 서초구 강남대로61길 19 대우벨라채 오피스텔,서울특별시 서초구 강남대로61길 19 대우벨라채 오피스텔,정,서울특별시 서초구 강남대로61길 19 (서초동),127.02470201557986,37.49853467666764
숨비소리심리상담센터,0507-1341-0427,https://sumbisoricounseling.modoo.at,서울 강서구 마곡중앙6로 66 퀸즈파크텐,서울특별시 강서구 마곡중앙6로 66 퀸즈파크텐,정,서울특별시 강서구 마곡중앙6로 66 (마곡동),126.83436723463834,37.55989816881982
강남맘편한심리상담센터,02-573-5955,https://www.simnisangdam.co.kr,서울 강남구 논현로14길 18 5층,서울특별시 강남구 논현로14길 18 5층,정,서울특별시 강남구 논현로14길 18 (개포동),127.04873803067399,37.475674119730925
맘앤이지심리상담센터,0507-1356-2795,https://blog.naver.com/momneasy,서울 성북구 종암로 107 광성빌딩 4층,서울특별시 성북구 종암로 107 광성빌딩 4층,정,서울특별시 성북구 종암로 107 (종암동),127.03389718722312,37.59968966274745
이화아동청소년상담센터,0507-1387-7222,http://www.ewhahealing.kr/,서울 양천구 목동동로 10,서울특별시 양천구 목동동로 10,정,서울특별시 양천구 목동동로 10 (신정동),126.85769229843253,37.51330259419496
로뎀나무 진로설계 & 심리상담센터,0507-1459-5701,https://blog.naver.com/rodemtree_2c,서울 영등포구 가마산로 404 2층,서울특별시 영등포구 가마산로 404 2층,정,서울특별시 영등포구 가마산로 404 (신길동),126.90176931927732,37.50343729774062
마인드앤소울 심리상담센터,02-6928-3511,http://www.mindnsoul.co.kr,서울 강남구 선릉로 570 정진빌딩 2층,서울특별시 강남구 선릉로 570 정진빌딩 2층,정,서울특별시 강남구 선릉로 570 (삼성동),127.04443771974456,37.509417182613475
리더스브레인DMC심리상담센터,1800-1137,http://www.dmcbrain.com,서울 은평구 수색로 285 2층,서울특별시 은평구 수색로 285 2층,정,서울특별시 은평구 수색로 285 (수색동),126.89273464997069,37.58328748234098
"슬기로운 부부, 가족 심리상담센터",010-6834-8884,https://wisecounsel.modoo.at,서울 강남구 강남대로 256 대우양재디오빌 1507호,서울특별시 강남구 강남대로 256 대우양재디오빌 1507호,정,서울특별시 강남구 강남대로 256 (도곡동),127.03355302307331,37.48643227839819
마음시 심리상담센터,0507-1380-9081,https://blog.naver.com/maumtime,서울 광진구 능동로37길 6 AZ0213오피스텔 203호,서울특별시 광진구 능동로37길 6 AZ0213오피스텔 203호,정,서울특별시 광진구 능동로37길 6 (중곡동),127.07959142722432,37.55819470445486
좋은향기 왕성심리상담센터,02-871-8733,http://wscounsel.org,서울 관악구 신림로58가길 6,서울특별시 관악구 신림로58가길 6,정,서울특별시 관악구 신림로58가길 6 (신림동),126.93093381890503,37.48201083201336
신촌EFT심리상담센터,0507-1358-7853,https://blog.naver.com/k-eft,서울 마포구 서강로 102 유니시티 402호,서울특별시 마포구 서강로 102 유니시티 402호,정,서울특별시 마포구 서강로 102 (신수동),126.9333555572002,37.55200327238265
연세서울로심리상담센터,0507-1350-5394,https://litt.ly/seoullocounsel,서울 중구 중림로 50-1 SKY1004빌딩 1동 비201호,서울특별시 중구 중림로 50-1 SKY1004빌딩 1동 비201호,정,서울특별시 중구 중림로 50-1 (만리동1가),126.96818988212512,37.55706701871572
애린발달심리상담센터,02-979-7770,,서울 노원구 노원로18길 41 동천재활체육센터 지하2층,서울특별시 노원구 노원로18길 41 동천재활체육센터 지하2층,정,서울특별시 노원구 노원로18길 41 (하계동),127.07285167189181,37.64450691921862
심리상담센터 하늘숲,02-445-7778,https://sky-forest.co.kr/,서울 광진구 아차산로 431 강변에스케이뷰상가 제2동 106호,서울특별시 광진구 아차산로 431 강변에스케이뷰상가 제2동 106호,정,서울특별시 광진구 아차산로 431 (구의동),127.09016331810632,37.53864652602675
닥터스전화심리상담센터,0507-1474-9750,https://comdactyoung.com,서울 강남구 테헤란로 327 빅토리아빌딩 1115호,서울특별시 강남구 테헤란로 327 빅토리아빌딩 1115호,정,서울특별시 강남구 테헤란로 327 (역삼동),127.04724489085963,37.504419095123446
넉넉한품 심리상담센터,0507-1374-0817,https://blog.naver.com/nuknukumm,서울 구로구 부일로1길 30 3층 302호,서울특별시 구로구 부일로1길 30 3층 302호,정,서울특별시 구로구 부일로1길 30 (온수동),126.8204396606276,37.492384506684374
열린언어심리상담센터,010-2468-7816,http://www.xn--jk1bk1kla153eizcb1f1a29b.kr/,서울 관악구 난곡로 297 2층,서울특별시 관악구 난곡로 297 2층,정,서울특별시 관악구 난곡로 297 (신림동),126.9144973848154,37.48052152560235
더좋은심리상담센터,02-935-1005,,서울 노원구 상계로 51 6층,서울특별시 노원구 상계로 51 6층,정,서울특별시 노원구 상계로 51 (상계동),127.06083372566701,37.65598391977231
봄 심리상담센터,010-7657-5149,https://blog.naver.com/bom-center,"서울 강북구 인수봉로 313 대얼빌딩, 1층","서울특별시 강북구 인수봉로 313 대얼빌딩, 1층",정,서울특별시 강북구 인수봉로 313 (수유동),127.01034706234972,37.646749478222354
마음소통 심리상담센터,010-7663-5246,https://blog.naver.com/pkhope,서울 송파구 올림픽로35가길 11 한신코아오피스텔 217호,서울특별시 송파구 올림픽로35가길 11 한신코아오피스텔 217호,정,서울특별시 송파구 올림픽로35가길 11 (신천동),127.10402168087066,37.51640160604788
힐링최면심리상담센터,010-5457-5768,https://blog.naver.com/healinghypnosis,서울 강서구 마곡서로 152 두산더랜드타워 B동 918호,서울특별시 강서구 마곡서로 152 두산더랜드타워 B동 918호,정,서울특별시 강서구 마곡서로 152 (마곡동),126.8259795641117,37.56768658586281
모드니심리상담센터,010-5750-9138,https://counselormodny.modoo.at,서울 마포구 양화로 56 11층 1108호,서울특별시 마포구 양화로 56 11층 1108호,정,서울특별시 마포구 양화로 56 (서교동),126.91506091978985,37.54974390670666
자작나무숲 심리상담센터,02-939-6175,https://birchwood.modoo.at,서울 노원구 동일로237길 46 2층,서울특별시 노원구 동일로237길 46 2층,정,서울특별시 노원구 동일로237길 46 (상계동),127.05284828023672,37.67367018822504
진심리상담센터,0507-1347-9120,https://jinsimry.modoo.at,서울 중랑구 동일로 952 로프트원 3층 305호,서울특별시 중랑구 동일로 952 로프트원 3층 305호,정,서울특별시 중랑구 동일로 952 (묵동),127.07688966186566,37.61535597107902
새롬심리상담센터,02-493-4493,http://saerom1.modoo.at,서울 중랑구 면목로28길 7 2층,서울특별시 중랑구 면목로28길 7 2층,정,서울특별시 중랑구 면목로28길 7 (면목동),127.08576854554288,37.57493780130595
마이스토리심리상담센터 강남본점,02-557-1275,http://www.mystoryis.kr/,서울 강남구 강남대로 310 유니온센터 802호 마이스토리,서울특별시 강남구 강남대로 310 유니온센터 802호 마이스토리,정,서울특별시 강남구 강남대로 310 (역삼동),127.03148571079113,37.49098329300037
본심리상담센터,010-2531-4793,http://www.naturepsychotherapy.com/,서울 용산구 한강대로 205 용산파크자이 D동 1009호,서울특별시 용산구 한강대로 205 용산파크자이 D동 1009호,정,서울특별시 용산구 한강대로 205 (한강로1가),126.97203715697033,37.53698220191922
마음편한 심리상담센터,0507-1478-3117,http://easyheart.net,서울 강서구 화곡로 246,서울특별시 강서구 화곡로 246,정,서울특별시 강서구 화곡로 246 (화곡동),126.84584246502335,37.54694871214497
곁에함께 심리상담센터,0507-1376-5221,https://withyoupsy.modoo.at/,서울 강남구 테헤란로 113 1709호,서울특별시 강남구 테헤란로 113 1709호,정,서울특별시 강남구 테헤란로 113 (역삼동),127.02953329297542,37.49897767493022
온라인 심리상담센터 쉼,0507-1371-8531,https://www.counselingshim.com,서울 서대문구 통일로 397 . 1004호,서울특별시 서대문구 통일로 397 . 1004호,정,서울특별시 서대문구 통일로 397 (홍제동),126.94744683297941,37.585134420392365
한국임상정신분석심리상담센터ICP,0507-1342-4313,https://blog.naver.com/icp-korea,서울 서초구 강남대로 525-3 3층,서울특별시 서초구 강남대로 525-3 3층,정,서울특별시 서초구 강남대로 525-3 (반포동),127.02192076483676,37.508765785519365
번지심리상담센터,0507-1316-6917,http://mindbungee.co.kr,서울 구로구 디지털로27가길 17 오닉스타워 701호,서울특별시 구로구 디지털로27가길 17 오닉스타워 701호,정,서울특별시 구로구 디지털로27가길 17 (구로동),126.89231723415762,37.4843366238006
마음의 정원 최면심리상담센터,010-2420-5977,https://jwon3977.modoo.at,서울 영등포구 선유로 27,서울특별시 영등포구 선유로 27,정,서울특별시 영등포구 선유로 27 (문래동5가),126.88798750461049,37.516603438740525
오늘심리상담센터,0507-1458-6695,https://oneulpsychology.imweb.me/,서울 용산구 한강대로 69 2층 상가동 221-2호,서울특별시 용산구 한강대로 69 2층 상가동 221-2호,정,서울특별시 용산구 한강대로 69 (한강로2가),126.9653382577769,37.527560663111935
서장 심리상담센터,0507-1331-5078,,서울 강서구 화곡로26가길 43-9,서울특별시 강서구 화곡로26가길 43-9,정,서울특별시 강서구 화곡로26가길 43-9 (화곡동),126.83803734794373,37.53990997675107
아동청소년발달심리상담센터 믿음,02-6219-7575,http://cafe.naver.com/midum62197575,서울 양천구 중앙로32길 61 현대프라자 507호,서울특별시 양천구 중앙로32길 61 현대프라자 507호,정,서울특별시 양천구 중앙로32길 61 (신정동),126.86023656430761,37.52001386196022
혜화숨심리상담센터,0507-1412-2565,,서울 종로구 창경궁로 256 5층,서울특별시 종로구 창경궁로 256 5층,정,서울특별시 종로구 창경궁로 256 (명륜2가),127.00021239379294,37.58407376727565
마음벗심리상담센터,0507-1325-3495,https://mindmate.modoo.at,서울 강서구 양천로 738 한강G트리타워 810호,서울특별시 강서구 양천로 738 한강G트리타워 810호,정,서울특별시 강서구 양천로 738 (염창동),126.87767103108631,37.54868177929981
동행 심리상담센터,0507-1326-7868,,서울 강북구 도봉로73길 9 스마트명가 1동 401호,서울특별시 강북구 도봉로73길 9 스마트명가 1동 401호,정,서울특별시 강북구 도봉로73길 9 (수유동),127.0232907520781,37.63203671262186
인정심리상담센터,0507-1424-8045,https://blog.naver.com/injung-counseling,서울 용산구 회나무로21길 15-15 1층,서울특별시 용산구 회나무로21길 15-15 1층,정,서울특별시 용산구 회나무로21길 15-15 (이태원동),126.99091919864821,37.540691207504906
한국심리상담센터 목동지점,0507-1406-7080,http://maeunforest,서울 양천구 신월로 209 운남빌딩 3층,서울특별시 양천구 신월로 209 운남빌딩 3층,정,서울특별시 양천구 신월로 209 (신월동),126.84518650040216,37.521036143931724
같이심리상담센터,02-2679-1911,https://blog.naver.com/together1911,서울 영등포구 양산로 128 백양빌딩 501호,서울특별시 영등포구 양산로 128 백양빌딩 501호,정,서울특별시 영등포구 양산로 128 (당산동1가),126.89720052270235,37.52378467330023
수아람심리상담센터,02-3667-4207,https://suaram.uriweb.kr/,서울 영등포구 영등포로5길 19 동아프라임밸리 8층 812호,서울특별시 영등포구 영등포로5길 19 동아프라임밸리 8층 812호,정,서울특별시 영등포구 영등포로5길 19 (양평동2가),126.88422202739898,37.52411714387318
영호심리상담센터,0507-1375-7247,https://blog.naver.com/younghosimri,서울 성동구 무학로6길 50 성동삼성쉐르빌 101동 221호,서울특별시 성동구 무학로6길 50 성동삼성쉐르빌 101동 221호,정,"서울특별시 성동구 무학로6길 50, 101동 (도선동)",127.03462339110955,37.56429516602257
한양아이소리심리상담센터 분당심리상담센터,031-717-2111,https://blog.naver.com/woomi1104,경기 성남시 분당구 백현로101번길 25 수내프라자 5층 한양아이소리 분당심리상담센터,경기도 성남시 분당구 백현로101번길 25 수내프라자 5층 한양아이소리 분당심리상담센터,정,경기도 성남시 분당구 백현로101번길 25 (수내동),127.11329347849906,37.37807358641227
힐마인드언어심리상담센터,02-2655-1048,http://www.healmind.co.kr/,서울 영등포구 당산로44길 3 삼성타운 701호,서울특별시 영등포구 당산로44길 3 삼성타운 701호,정,서울특별시 영등포구 당산로44길 3 (당산동5가),126.90107745207224,37.531914398687576
허그맘허그인 심리상담센터 동탄센터,031-378-3866,http://www.hugmom.co.kr/index.php?b_idx=center&b_type=center_1&ctList=7,경기 화성시 동탄대로 537 라스플로레스 412호,경기도 화성시 동탄대로 537 라스플로레스 412호,정,경기도 화성시 동탄대로 537 (오산동),127.09792362169983,37.20222202979927
연세드림심리상담센터,031-410-3272,https://blog.naver.com/nicolein,경기 안산시 단원구 광덕대로 161 웅신아트프라자 401호,경기도 안산시 단원구 광덕대로 161 웅신아트프라자 401호,정,경기도 안산시 단원구 광덕대로 161 (고잔동),126.82910884665152,37.310978040088244
몸과 마음 심리상담센터,010-4598-5977,https://blog.naver.com/umgeegim,서울 서초구 서초중앙로 18 2층 210호,서울특별시 서초구 서초중앙로 18 2층 210호,정,서울특별시 서초구 서초중앙로 18 (서초동),127.01735349735128,37.48403624218083
마음회관심리상담센터,0507-1387-9192,https://open.kakao.com/o/sMy4X6Nc,경기 수원시 영통구 광교중앙로248번길 7-2 원희캐슬 A동 605호,경기도 수원시 영통구 광교중앙로248번길 7-2 원희캐슬 A동 605호,정,경기도 수원시 영통구 광교중앙로248번길 7-2 (하동),127.06667073217872,37.29103334749268
나무심리상담센터,0507-1313-3629,http://namoocounseling.co.kr,서울 강남구 밤고개로1길 10 수서현대벤처빌 807호,서울특별시 강남구 밤고개로1길 10 수서현대벤처빌 807호,정,서울특별시 강남구 밤고개로1길 10 (수서동),127.10178451759938,37.488049129926644
다움심리상담센터,0507-1327-7906,,서울 동대문구 전농로10길 20 상가동 3층 310호,서울특별시 동대문구 전농로10길 20 상가동 3층 310호,정,서울특별시 동대문구 전농로10길 20 (답십리동),127.0583435014779,37.574688295175164
일산심리상담센터 win,0507-1480-2265,https://blog.naver.com/wincounselingcenter,경기 고양시 일산서구 중앙로 1406 6층,경기도 고양시 일산서구 중앙로 1406 6층,정,경기도 고양시 일산서구 중앙로 1406 (주엽동),126.76387452281007,37.66936619800861
닥터오심리상담센터,0507-1351-8508,http://doctoroh.co.kr,경기 화성시 동탄역로 124 윤정프라자 901호,경기도 화성시 동탄역로 124 윤정프라자 901호,정,경기도 화성시 동탄역로 124 (오산동),127.0965858117237,37.197595535108796
치유심리상담센터,1811-7642,http://www.cheeu.co.kr/,서울 강남구 테헤란로25길 40 2층,서울특별시 강남구 테헤란로25길 40 2층,정,서울특별시 강남구 테헤란로25길 40 (역삼동),127.03503924511058,37.50311332867004
마음산책심리상담센터,02-821-5953,http://mesc.co.kr/,서울 중구 퇴계로32길 22 1층,서울특별시 중구 퇴계로32길 22 1층,정,서울특별시 중구 퇴계로32길 22 (예장동),126.9922484982748,37.55990271583056
마인드카페 심리상담센터 분당점,031-711-3275,https://center.mindcafe.co.kr,경기 성남시 분당구 황새울로214번길 8 MS프라자 10층,경기도 성남시 분당구 황새울로214번길 8 MS프라자 10층,정,경기도 성남시 분당구 황새울로214번길 8 (수내동),127.11232568039814,37.378120513404845
유해피 아동청소년성인 심리상담센터 동탄점,0507-1318-0134,https://www.you-happy.co.kr/sub/sub00_01.php?br_idx=6,경기 화성시 동탄대로 557-9 우성르보아시티 에이동 204호,경기도 화성시 동탄대로 557-9 우성르보아시티 에이동 204호,정,경기도 화성시 동탄대로 557-9 (오산동),127.09795358865055,37.20318765501886
유해피 심리상담센터 하남점,031-793-1060,https://www.you-happy.co.kr/sub/sub00_01.php?br_idx=9,경기 하남시 미사강변동로 85 힐스테이트 에코 미사 4층 405호,경기도 하남시 미사강변동로 85 힐스테이트 에코 미사 4층 405호,정,경기도 하남시 미사강변동로 85 (망월동),127.1918814270237,37.562532045215725
유해피 아동청소년성인 심리상담센터 일산본점,031-901-0011,https://www.you-happy.co.kr/sub/sub00_01.php?br_idx=1,경기 고양시 일산동구 중앙로 1130 강촌마을 올리브상가 C동 3층,경기도 고양시 일산동구 중앙로 1130 강촌마을 올리브상가 C동 3층,정,경기도 고양시 일산동구 중앙로 1130 (마두동),126.7800925911013,37.64959755857867
헬로스마일 심리상담센터 평택점,0507-1316-5412,http://www.hellosmile.kr/bbs/board.php?bo_table=b_pt/,경기 평택시 비전5로 33 스타타워 403호,경기도 평택시 비전5로 33 스타타워 403호,정,경기도 평택시 비전5로 33 (비전동),127.11414662359996,37.001693078369435
테이크10 심리상담센터,0507-1351-5441,https://blog.naver.com/take10_mind,경기 양주시 회천남로 92 센타프라자 7층 707호,경기도 양주시 회천남로 92 센타프라자 7층 707호,정,경기도 양주시 회천남로 92 (옥정동),127.09220874679185,37.81857956320715
마음의 정원 심리상담센터 안산본점,031-402-1350,https://mindgardenpsy.modoo.at,경기 안산시 단원구 당곡로 33 프라움씨티오피스텔 101동 1204호,경기도 안산시 단원구 당곡로 33 프라움씨티오피스텔 101동 1204호,정,경기도 안산시 단원구 당곡로 33 (고잔동),126.83314800857748,37.32025055411807
어바웃 심리상담센터,010-2497-8708,https://feelingcoun.modoo.at/,경기 안양시 동안구 시민대로 187 안양건설타워 12층 1202호,경기도 안양시 동안구 시민대로 187 안양건설타워 12층 1202호,정,경기도 안양시 동안구 시민대로 187 (비산동),126.95177088813251,37.39181614683622
허그맘허그인 심리상담센터 수원영통센터,031-204-4275,https://www.hugmom.co.kr/branch/main/main.html?jijummid=suwon,경기 수원시 영통구 덕영대로 1470 망포역 플래티넘베이스 5층,경기도 수원시 영통구 덕영대로 1470 망포역 플래티넘베이스 5층,정,경기도 수원시 영통구 덕영대로 1470 (망포동),127.05103835612447,37.24505032686341
안산파크심리상담센터,0507-1459-8264,https://blog.naver.com/hbs8286,경기 안산시 단원구 예술대학로 17 중앙노블레스 6층 파크심리상담센터,경기도 안산시 단원구 예술대학로 17 중앙노블레스 6층 파크심리상담센터,정,경기도 안산시 단원구 예술대학로 17 (고잔동),126.83650208695218,37.31872217429794
다올심리상담센터,031-997-5546,http://www.xn--2j1b6ay90bh6hvra24fn7hztz.kr,경기 김포시 김포한강1로 247 김포운양 헤리움타운 4층 410호,경기도 김포시 김포한강1로 247 김포운양 헤리움타운 4층 410호,정,경기도 김포시 김포한강1로 247 (운양동),126.68479553513185,37.65427798164064
부천심리상담센터 마음소풍,0507-1413-1753,https://www.maum-sopoong.or.kr,"경기 부천시 원미구 길주로 137 (상동, 상록그린힐빌딩) 5층","경기도 부천시 원미구 길주로 137 (상동, 상록그린힐빌딩) 5층",정,경기도 부천시 원미구 길주로 137 (상동),126.7576895622379,37.50613499685891
유해피 아동청소년성인 심리상담센터 수원점,031-226-1002,https://www.you-happy.co.kr/sub/sub00_01.php?br_idx=5,경기 수원시 영통구 봉영로 1612 711호,경기도 수원시 영통구 봉영로 1612 711호,정,경기도 수원시 영통구 봉영로 1612 (영통동),127.07495564265622,37.25452476676349
마음오름심리상담센터,0507-1474-3633,https://blog.naver.com/mindoreum,경기 안양시 동안구 시민대로 214 다운타운건물 602호,경기도 안양시 동안구 시민대로 214 다운타운건물 602호,정,경기도 안양시 동안구 시민대로 214 (호계동),126.95490886408675,37.39191713633729
마인드카페 심리상담센터 일산점,031-994-8094,https://center.mindcafe.co.kr,경기 고양시 일산동구 정발산로 15 드림월드빌딩 4층,경기도 고양시 일산동구 정발산로 15 드림월드빌딩 4층,정,경기도 고양시 일산동구 정발산로 15 (장항동),126.77067946392117,37.656435234686825
유해피 아동청소년성인 심리상담센터 부천점,032-324-8555,https://www.you-happy.co.kr/sub/sub00_01.php?br_idx=7,경기 부천시 원미구 길주로 276 무광 오피스 9층 902호,경기도 부천시 원미구 길주로 276 무광 오피스 9층 902호,정,경기도 부천시 원미구 길주로 276 (중동),126.77285074266901,37.50295806678686
마인드원 심리상담센터 부천본사,032-324-5998,http://www.mindone.kr,경기 부천시 원미구 길주로 307 로얄프라자 402호,경기도 부천시 원미구 길주로 307 로얄프라자 402호,정,경기도 부천시 원미구 길주로 307 (중동),126.7768090690312,37.50344970517985
마음톡심리상담센터,0507-1438-3711,http://newmaumtalk.modoo.at,경기 고양시 일산서구 중앙로 1406 한솔코아 3층,경기도 고양시 일산서구 중앙로 1406 한솔코아 3층,정,경기도 고양시 일산서구 중앙로 1406 (주엽동),126.76387452281007,37.66936619800861
허그맘 허그인 심리상담센터 평택점,031-994-5922,http://www.hugmom.co.kr/index.php?b_idx=center&b_type=center_1&ctList=44,경기 평택시 비전5로 20-38 에이치탑 5 빌딩 602호,경기도 평택시 비전5로 20-38 에이치탑 5 빌딩 602호,정,경기도 평택시 비전5로 20-38 (비전동),127.11565830231581,36.99965796019629
공감심리상담센터,031-499-4004,https://ggmind.modoo.at,경기 시흥시 서울대학로264번길 26-32 5층 504~5호,경기도 시흥시 서울대학로264번길 26-32 5층 504~5호,정,경기도 시흥시 서울대학로264번길 26-32 (배곧동),126.72772338088525,37.36660801250968
마음달심리상담센터,0507-1341-1140,https://blog.naver.com/maumdal_,경기 수원시 팔달구 권광로 204,경기도 수원시 팔달구 권광로 204,정,경기도 수원시 팔달구 권광로 204 (인계동),127.03382948520478,37.26563012072245
로은심리상담센터,0507-1377-6377,https://loeun.modoo.at,경기 남양주시 다산중앙로146번길 12-1 거성프라자 901호,경기도 남양주시 다산중앙로146번길 12-1 거성프라자 901호,정,경기도 남양주시 다산중앙로146번길 12-1 (다산동),127.15402931627887,37.625794815818466
오르빛심리상담센터,031-944-7953,https://orbitwith.modoo.at/,경기 파주시 후곡로 1 2층 206호,경기도 파주시 후곡로 1 2층 206호,정,경기도 파주시 후곡로 1 (금촌동),126.77402471088739,37.75741429865088
헬로스마일 심리상담센터 남양주점,0507-1373-5412,https://blog.naver.com/hellosmile_nyj,경기 남양주시 다산중앙로145번길 17 903호,경기도 남양주시 다산중앙로145번길 17 903호,정,경기도 남양주시 다산중앙로145번길 17 (다산동),127.15046718451786,37.625258765738835
분당심리상담센터 마주하기,0507-1423-1519,https://blog.naver.com/doing_maju,경기 성남시 분당구 황새울로 234 464호,경기도 성남시 분당구 황새울로 234 464호,정,경기도 성남시 분당구 황새울로 234 (수내동),127.1142361649777,37.37953203862727
마이스토리 심리상담센터 분당센터,031-714-1255,http://www.mystoryis.kr/,경기 성남시 분당구 성남대로331번길 3-9 백궁프라자3,경기도 성남시 분당구 성남대로331번길 3-9 백궁프라자3,정,경기도 성남시 분당구 성남대로331번길 3-9 (정자동),127.10769468985694,37.36484614892157
봄볕심리상담센터,010-7636-3450,https://springsun.modoo.at,경기 수원시 장안구 대평로 27 화서역파크푸르지오 오피스텔 201동 1416호,경기도 수원시 장안구 대평로 27 화서역파크푸르지오 오피스텔 201동 1416호,정,"경기도 수원시 장안구 대평로 27, 201동 (정자동)",126.99586656438521,37.28866183828477
위드유심리상담센터,0507-1398-2001,http://wymind.com,경기 남양주시 다산중앙로146번길 12-14 다산메트토타워 801호,경기도 남양주시 다산중앙로146번길 12-14 다산메트토타워 801호,정,경기도 남양주시 다산중앙로146번길 12-14 (다산동),127.15467832434167,37.62525054649748
이화봄심리상담센터,0507-1418-2202,https://ewhabom.modoo.at,경기 남양주시 다산중앙로 113 라페온빌 408호,경기도 남양주시 다산중앙로 113 라페온빌 408호,정,경기도 남양주시 다산중앙로 113 (다산동),127.15330717578438,37.62322729753086
헬로스마일 심리상담센터 수원점,0507-1400-5412,http://www.hellosmile.kr/,경기 수원시 영통구 반달로7번길 16 e-폴리스,경기도 수원시 영통구 반달로7번길 16 e-폴리스,정,"경기도 수원시 영통구 반달로7번길 16, E동 (영통동)",127.07438366902447,37.252649785060726
조에심리상담센터 수원광교점,0507-1444-5649,https://blog.naver.com/zoemindfulness,경기 수원시 영통구 광교중앙로248번길 40 광교스마트법조프라자 316호,경기도 수원시 영통구 광교중앙로248번길 40 광교스마트법조프라자 316호,정,경기도 수원시 영통구 광교중앙로248번길 40 (하동),127.06597519271816,37.29108360541443
한양아이소리 용인심리상담센터,031-898-1500,http://www.hanyangisori.com/theme/theme_v1/isori_center_yongin.html,경기 용인시 수지구 수지로 119 데이파크 C동 3층 한양아이소리,경기도 용인시 수지구 수지로 119 데이파크 C동 3층 한양아이소리,정,"경기도 용인시 수지구 수지로 119, C동 (성복동)",127.07901446788718,37.313048733822455
헬로스마일 심리상담센터 위례점,0507-1380-5412,https://blog.naver.com/hellowereyy,경기 성남시 수정구 위례광장로 5 위례우남역 아이파크 3층,경기도 성남시 수정구 위례광장로 5 위례우남역 아이파크 3층,정,경기도 성남시 수정구 위례광장로 5 (창곡동),127.14160736052767,37.465028007862784
마음이야기 심리상담센터,0507-1370-1603,https://maeumstory1004.modoo.at,경기 의정부시 오목로 196 민락 제일풍경채센텀 2층 56호,경기도 의정부시 오목로 196 민락 제일풍경채센텀 2층 56호,정,경기도 의정부시 오목로 196 (민락동),127.09842263809024,37.74320858557528
마음힐링심리상담센터,0507-1423-3553,https://blog.naver.com/shmaumhealing,경기 시흥시 수인로 3366 5층,경기도 시흥시 수인로 3366 5층,정,경기도 시흥시 수인로 3366 (신천동),126.78496181419045,37.44086899216787
있는그대로 심리상담센터,0507-1432-2054,http://pf.kakao.com/_kJANxj,"경기 수원시 영통구 법조로 25 SK뷰 레이크, 오피스 A동 2914호","경기도 수원시 영통구 법조로 25 SK뷰 레이크, 오피스 A동 2914호",정,"경기도 수원시 영통구 법조로 25, A동 (하동)",127.05994839545716,37.28749118089962
마음뜰언어심리상담센터,010-6367-1195,http://xn--ig2b52cu0s.com/,"경기 광주시 광주대로129번길 15 송광빌딩 2층,3층","경기도 광주시 광주대로129번길 15 송광빌딩 2층,3층",정,경기도 광주시 광주대로129번길 15 (송정동),127.2571867175276,37.41792295312798
대화와치유 심리상담센터,031-783-7040,https://blog.naver.com/talknheal,경기 성남시 분당구 서현로 170 분당풍림아이원플러스 T동 1401호,경기도 성남시 분당구 서현로 170 분당풍림아이원플러스 T동 1401호,정,경기도 성남시 분당구 서현로 170 (서현동),127.12255331448719,37.38895157980768
마음언덕심리상담센터 놀이관,0507-1490-5528,https://maeumhills.modoo.at,경기 수원시 영통구 덕영대로 1478 4층 402호,경기도 수원시 영통구 덕영대로 1478 4층 402호,정,경기도 수원시 영통구 덕영대로 1478 (망포동),127.0526115692696,37.245170169908334
마음쉼터심리상담센터,0507-1354-1279,http://1279.co.kr/,경기 이천시 서희로 91 마음쉼터 심리상담센터,경기도 이천시 서희로 91 마음쉼터 심리상담센터,정,경기도 이천시 서희로 91 (창전동),127.44344723639261,37.28375819653523
마인드펀치 심리상담센터,031-886-8711,http://xn--hy1b96gmuogvgt0g.com,경기 여주시 세종로 254-8 (교동),경기도 여주시 세종로 254-8 (교동),정,경기도 여주시 세종로 254-8 (교동),127.63632418942719,37.275081543685275
빅아트심리상담센터,031-354-5538,https://blog.naver.com/bigartgood,"경기 화성시 향남읍 하길로 9 부영 11단지 상가동 2층 201호, 202호","경기도 화성시 향남읍 하길로 9 부영 11단지 상가동 2층 201호, 202호",정,경기도 화성시 하길로 9 (향남읍),126.91671531617162,37.109327647934606
더하임심리상담센터,031-762-2683,https://theheimcounseling.modoo.at,경기 광주시 벼루개로 20 9층 901호,경기도 광주시 벼루개로 20 9층 901호,정,경기도 광주시 벼루개로 20 (태전동),127.23040377826564,37.38250235267922
헬로스마일 심리상담센터 광명점,02-899-5422,http://www.hellosmile.kr/bbs/board.php?bo_table=b_gm,경기 광명시 소하로109번길 14 6층,경기도 광명시 소하로109번길 14 6층,정,경기도 광명시 소하로109번길 14 (소하동),126.88549139568701,37.44715100302801
마음도담 심리상담센터 분당본점,0507-1408-0715,https://blog.naver.com/new9411,경기 성남시 분당구 돌마로 478 효자촌프라자 4층 402호,경기도 성남시 분당구 돌마로 478 효자촌프라자 4층 402호,정,경기도 성남시 분당구 돌마로 478 (서현동),127.13347681170725,37.37694890914721
구름온심리상담센터,0507-1495-6545,https://groomon.modoo.at,경기 화성시 동탄감배산로 143 202동 2310호,경기도 화성시 동탄감배산로 143 202동 2310호,정,"경기도 화성시 동탄감배산로 143, 202동 (오산동)",127.08931906573888,37.19880366950845
위드어스심리상담센터,031-884-4848,http://www.withussd.com,경기 여주시 여흥로4번길 15-2 위드어스심리상담센터,경기도 여주시 여흥로4번길 15-2 위드어스심리상담센터,정,경기도 여주시 여흥로4번길 15-2 (하동),127.6245359431113,37.30060532653881
허그맘허그인 심리상담센터 오산센터,0507-1343-6255,https://blog.naver.com/hugmom365,경기 오산시 청학로 230 재이클래스 202호,경기도 오산시 청학로 230 재이클래스 202호,정,경기도 오산시 청학로 230 (수청동),127.06198969420777,37.16929146015277
조은하루 심리상담센터,0507-1437-0392,https://blog.naver.com/happy-haroo,"경기 화성시 동탄반석로 160 1층 106호(반송동, 동탄 지웰 에스테이트)","경기도 화성시 동탄반석로 160 1층 106호(반송동, 동탄 지웰 에스테이트)",정,경기도 화성시 동탄반석로 160 (반송동),127.07162118818603,37.20289351749945
다온심리상담센터,031-634-9412,https://blog.naver.com/daonsimri,경기 이천시 영창로 243 AU 타워 3층,경기도 이천시 영창로 243 AU 타워 3층,정,경기도 이천시 영창로 243 (창전동),127.4496710948487,37.280795023239946
마음꼭 차심리상담센터,0507-1364-5437,https://www.instagram.com/mind.cha.ac.kr,경기 성남시 분당구 야탑로69번길 8 한주코아 3층,경기도 성남시 분당구 야탑로69번길 8 한주코아 3층,정,경기도 성남시 분당구 야탑로69번길 8 (야탑동),127.12682770950221,37.41052567950462
허그맘허그인심리상담센터 과천센터,02-6956-7153,https://www.hugmom.co.kr/branch/main/main.html?jijummid=gwacheon,경기 과천시 별양로 28 슈르상가 A동 3층,경기도 과천시 별양로 28 슈르상가 A동 3층,정,경기도 과천시 별양로 28 (원문동),126.99147441440128,37.42123021487451
마이페르소나 심리상담센터,0507-1447-8487,https://blog.naver.com/mypersona00,경기 파주시 회동길 480 아트팩토리엔제이에프 B동 404호,경기도 파주시 회동길 480 아트팩토리엔제이에프 B동 404호,정,"경기도 파주시 회동길 480, B동 (문발동)",126.6947730245373,37.721570853767
마이스토리 심리상담센터 일산센터,031-924-1271,http://www.mystoryis.kr/,경기 고양시 일산서구 주화로 70 우신프라자 7층 702호,경기도 고양시 일산서구 주화로 70 우신프라자 7층 702호,정,경기도 고양시 일산서구 주화로 70 (주엽동),126.76028511536613,37.669749238984544
한양아이소리 수원심리상담센터,031-224-4654,https://blog.naver.com/hysuwon0408,경기 수원시 팔달구 권광로 146 벽산그랜드코아 2층 201-3호 수원심리상담센터,경기도 수원시 팔달구 권광로 146 벽산그랜드코아 2층 201-3호 수원심리상담센터,정,경기도 수원시 팔달구 권광로 146 (인계동),127.03186164957215,37.260482909041755
포근한방심리상담센터,0507-1431-4490,https://blog.naver.com/warmandcozyroom,경기 양주시 옥정동로7다길 74 6층 6224호,경기도 양주시 옥정동로7다길 74 6층 6224호,정,경기도 양주시 옥정동로7다길 74 (옥정동),127.09281699498818,37.820708929393184
심리상담센터폭신폭신,0507-1324-0728,https://pogsinpogsin.modoo.at,"경기 고양시 일산서구 킨텍스로 255 디엠시티스카이뷰 오피스동 사무동 1709호, 237호","경기도 고양시 일산서구 킨텍스로 255 디엠시티스카이뷰 오피스동 사무동 1709호, 237호",정,경기도 고양시 일산서구 킨텍스로 255 (대화동),126.74957842512504,37.669130717145755
헬로스마일 심리상담센터 안산점,0507-1304-5422,https://blog.naver.com/hellosmileansan,경기 안산시 단원구 당곡로 33 안산프라움시티오피스텔 2층,경기도 안산시 단원구 당곡로 33 안산프라움시티오피스텔 2층,정,경기도 안산시 단원구 당곡로 33 (고잔동),126.83314800857748,37.32025055411807
고덕늘봄심리상담센터,0507-1348-0722,https://nb1015.modoo.at,경기 평택시 고덕중앙로 200-4 710호,경기도 평택시 고덕중앙로 200-4 710호,정,경기도 평택시 고덕중앙로 200-4 (고덕동),127.04420925116757,37.0477504767611
마음나무심리상담센터,031-963-2865,http://heart-tree.kr,경기 고양시 덕양구 권율대로 685 SIB타워 4층 403호,경기도 고양시 덕양구 권율대로 685 SIB타워 4층 403호,정,경기도 고양시 덕양구 권율대로 685 (원흥동),126.87403705711948,37.65120116795424
헬로스마일 심리상담센터 분당점,0507-1414-5412,https://blog.naver.com/hellosmilebd,경기 성남시 분당구 느티로 16 젤존타워1관 702호,경기도 성남시 분당구 느티로 16 젤존타워1관 702호,정,경기도 성남시 분당구 느티로 16 (정자동),127.1063113600611,37.36816431578252
민트심리상담센터,0507-1378-6715,https://www.instagram.com/mintpsy,경기 성남시 분당구 돌마로 80 현대벤쳐빌 오피스텔 640호,경기도 성남시 분당구 돌마로 80 현대벤쳐빌 오피스텔 640호,정,경기도 성남시 분당구 돌마로 80 (구미동),127.11040628124503,37.34970133486139
우리들의정서 심리상담센터,0507-1344-5193,https://woojungcounselling.modoo.at,경기 용인시 수지구 용구대로 2794 대하빌딩 401호,경기도 용인시 수지구 용구대로 2794 대하빌딩 401호,정,경기도 용인시 수지구 용구대로 2794 (죽전동),127.10935671095851,37.335140060136865
모두의심리상담센터,010-7577-7314,http://modoohealing.com/,"경기 고양시 덕양구 화정로 53-1 글로리아프라자 306호, 704호(초진상담장소)","경기도 고양시 덕양구 화정로 53-1 글로리아프라자 306호, 704호(초진상담장소)",정,경기도 고양시 덕양구 화정로 53-1 (화정동),126.8323907793171,37.635466274712705
행복한 마음 심리상담센터,031-372-7567,https://happymind.modoo.at,경기 오산시 원동로 41 임마누엘빌딩 3층,경기도 오산시 원동로 41 임마누엘빌딩 3층,정,경기도 오산시 원동로 41 (원동),127.07301553619448,37.14290424862917
베이스캠프심리상담센터,010-2837-3612,https://basecampcounseling.modoo.at/,경기 군포시 엘에스로 143 힐스테이트금정역 201동 2715호,경기도 군포시 엘에스로 143 힐스테이트금정역 201동 2715호,정,경기도 군포시 엘에스로 143 (금정동),126.94417449993323,37.37281752893792
김혜경언어심리상담센터,0507-1339-7428,http://www.speechcure.com/,경기 구리시 건원대로34번길 11 8층,경기도 구리시 건원대로34번길 11 8층,정,경기도 구리시 건원대로34번길 11 (인창동),127.14078516089916,37.604640829275596
이윤영심리상담센터,031-392-3939,http://bombit54.modoo.at,경기 군포시 산본로323번길 20-21 거성3차빌딩 5층,경기도 군포시 산본로323번길 20-21 거성3차빌딩 5층,정,경기도 군포시 산본로323번길 20-21 (산본동),126.93096231119,37.35946277687595
숨 심리상담센터,0507-1366-5266,https://blog.naver.com/soumcenter,경기 수원시 팔달구 경수대로 597 302호 숨심리상담센터,경기도 수원시 팔달구 경수대로 597 302호 숨심리상담센터,정,경기도 수원시 팔달구 경수대로 597 (지동),127.03045385493543,37.279019123934106
데이원심리상담센터,0507-1385-7169,https://blog.naver.com/dayone14,경기 김포시 김포한강9로 73 1동 7층 704-1호,경기도 김포시 김포한강9로 73 1동 7층 704-1호,정,경기도 김포시 김포한강9로 73 (구래동),126.62550164213616,37.64333072332687
구리언어심리상담센터,031-555-5527,https://guriaba.co.kr,경기 구리시 경춘로248번길 17 성지빌딩 5층,경기도 구리시 경춘로248번길 17 성지빌딩 5층,정,경기도 구리시 경춘로248번길 17 (수택동),127.14392155830596,37.60163448538752
연세봄과단비 언어심리상담센터,0507-1331-9063,,경기 양주시 회천중앙로 248 8층,경기도 양주시 회천중앙로 248 8층,정,경기도 양주시 회천중앙로 248 (덕계동),127.05355021014289,37.81966506937848
스마일언어심리상담센터,0507-1374-0925,https://blog.naver.com/smile_mind23,경기 시흥시 배곧4로 32-17 배곧 로자벨 2층 204호,경기도 시흥시 배곧4로 32-17 배곧 로자벨 2층 204호,정,경기도 시흥시 배곧4로 32-17 (배곧동),126.72657675951943,37.37715614304596
라함심리상담센터 부천역곡점,010-7134-7002,http://pf.kakao.com/_wxffGxj/,경기 부천시 원미구 부일로 727,경기도 부천시 원미구 부일로 727,정,경기도 부천시 원미구 부일로 727 (역곡동),126.81054304536775,37.48577090342814
광교 온마음심리상담센터,0507-1407-8795,http://onmaum.modoo.at/,경기 수원시 영통구 센트럴타운로 107 광교푸르지오월드마크 상가 1층 112호,경기도 수원시 영통구 센트럴타운로 107 광교푸르지오월드마크 상가 1층 112호,정,경기도 수원시 영통구 센트럴타운로 107 (이의동),127.04838987235394,37.29215319424121
허그맘허그인 심리상담센터 안양평촌점,0507-1310-8188,https://blog.naver.com/hugmom28,경기 안양시 동안구 부림로 188 청용빌딩 다동 3층 303호,경기도 안양시 동안구 부림로 188 청용빌딩 다동 3층 303호,정,경기도 안양시 동안구 부림로 188 (관양동),126.96161829233603,37.39971428791405
허그맘허그인 심리상담센터 산본센터,0507-1419-7982,https://blog.naver.com/hugme2024,경기 군포시 산본로 329 경원빌딩 9층,경기도 군포시 산본로 329 경원빌딩 9층,정,경기도 군포시 산본로 329 (산본동),126.93311093895733,37.36000592700513
수원소아청소년발달센터 성인&부부 심리상담센터,0507-1352-3113,http://swchild.modoo.at,경기 수원시 영통구 덕영대로1556번길 16 디지털엠파이어빌딩1 F동 171호,경기도 수원시 영통구 덕영대로1556번길 16 디지털엠파이어빌딩1 F동 171호,정,"경기도 수원시 영통구 덕영대로1556번길 16, F동 (영통동)",127.06068721661661,37.244972345908764
힐다임심리상담센터,010-5475-6193,https://blog.naver.com/ashe7255,경기 수원시 권선구 효원로 90 305호,경기도 수원시 권선구 효원로 90 305호,정,경기도 수원시 권선구 효원로 90 (세류동),127.0116653232958,37.26629055908462
유아굿심리상담센터,0507-1482-7781,https://urgood.modoo.at,경기 의정부시 의정로32번길 6-33 2층,경기도 의정부시 의정로32번길 6-33 2층,정,경기도 의정부시 의정로32번길 6-33 (의정부동),127.03698472436125,37.735391556804814
한강발달심리상담센터,0507-1480-8040,http://hangangcenter.co.kr/,경기 김포시 태장로 800,경기도 김포시 태장로 800,정,경기도 김포시 태장로 800 (장기동),126.67846423878512,37.63809373642345
다솜힐링심리상담센터,0507-1441-3002,https://blog.naver.com/dasomhealing,경기 용인시 수지구 광교중앙로 304 미즈프라자 802호,경기도 용인시 수지구 광교중앙로 304 미즈프라자 802호,정,경기도 용인시 수지구 광교중앙로 304 (상현동),127.06960628432533,37.29710041507477
말소리샘 아동청소년 발달센터,031-654-4275,,"경기 평택시 평남로 937 704호 (비전동, 폴리프라자)","경기도 평택시 평남로 937 704호 (비전동, 폴리프라자)",정,경기도 평택시 평남로 937 (비전동),127.10445263813025,37.00439067688184
김포다명 아동발달심리상담센터,031-987-3177,https://blog.naver.com/dgj1010,경기 김포시 김포한강9로76번길 47 폴리프라자 801호,경기도 김포시 김포한강9로76번길 47 폴리프라자 801호,정,경기도 김포시 김포한강9로76번길 47 (구래동),126.62712566934368,37.64485382626851
우리심리상담센터,0507-1343-0954,http://www.xn--jk1bk1ka663evra24f0vjuqx.xn--3e0b707e/,경기 포천시 소흘읍 태봉로 138 희성리치프라자 5층 506호,경기도 포천시 소흘읍 태봉로 138 희성리치프라자 5층 506호,정,경기도 포천시 태봉로 138 (소흘읍),127.13989586711423,37.82998213247898
허그하트 심리상담센터 하남미사본점,031-792-4298,https://www.hugheart.co.kr,경기 하남시 미사강변동로 127 경서타워 9층 902호,경기도 하남시 미사강변동로 127 경서타워 9층 902호,정,경기도 하남시 미사강변동로 127 (망월동),127.19105198749264,37.56615266011786
바라봄심리상담센터 본점,0507-1491-2415,https://barabom22.modoo.at,경기 포천시 소흘읍 태봉로 138 희성리치프라자 602호,경기도 포천시 소흘읍 태봉로 138 희성리치프라자 602호,정,경기도 포천시 태봉로 138 (소흘읍),127.13989586711423,37.82998213247898
보담힐링심리상담센터,010-9239-1022,https://blog.naver.com/bodamclinic,경기 용인시 기흥구 기흥역로58번길 78 기흥역더샵 오피스텔 201동 1104호,경기도 용인시 기흥구 기흥역로58번길 78 기흥역더샵 오피스텔 201동 1104호,정,"경기도 용인시 기흥구 기흥역로58번길 78, 201동 (구갈동)",127.11801740279206,37.27347322300612
아이빌립심리상담센터,031-523-2456,https://ibilip.imweb.me,경기 남양주시 덕송1로55번길 14 3동 5층 501호,경기도 남양주시 덕송1로55번길 14 3동 5층 501호,정,경기도 남양주시 덕송1로55번길 14 (별내동),127.11780778882188,37.66687206083182
오산심리상담센터,031-373-8853,http://pf.kakao.com/_uKGqxj,경기 오산시 내삼미로79번길 19,경기도 오산시 내삼미로79번길 19,정,경기도 오산시 내삼미로79번길 19 (수청동),127.06437483560647,37.16946530684491
동그라미아동심리상담센터,031-559-9323,http://www.tcpcc.co.kr,경기 남양주시 호평로46번길 8 홍조프라자 10층 1001호,경기도 남양주시 호평로46번길 8 홍조프라자 10층 1001호,정,경기도 남양주시 호평로46번길 8 (호평동),127.24458652099403,37.655242761704876
마음산책심리상담센터,0507-1424-1258,https://blog.naver.com/mindheal00/222845985890,경기 남양주시 화도읍 경춘보학1길 8 503동 303호 (남양주 라온프 라이빗 5단지),경기도 남양주시 화도읍 경춘보학1길 8 503동 303호 (남양주 라온프 라이빗 5단지),정,"경기도 남양주시 경춘보학1길 8, 503동 (화도읍)",127.29712869601381,37.64908405679703
빛오름심리상담센터,0507-1343-7351,https://www.instagram.com/beyourselfbora_,경기 평택시 비전5로 10 가로수센트럴돔 2층 2025호,경기도 평택시 비전5로 10 가로수센트럴돔 2층 2025호,정,경기도 평택시 비전5로 10 (비전동),127.1125332046762,36.99909749271656
경성심리상담센터,031-353-0933,,"경기 화성시 향남읍 발안남로15번길 2 4층 401, 402 호","경기도 화성시 향남읍 발안남로15번길 2 4층 401, 402 호",정,경기도 화성시 발안남로15번길 2 (향남읍),126.90031224771217,37.132354664658
제뉴인심리상담센터,0507-1304-2738,https://blog.naver.com/stargiveme,경기 남양주시 미금로 24 803동,경기도 남양주시 미금로 24 803동,정,"경기도 남양주시 미금로 24, 803동 (다산동)",127.15302238196965,37.608165504722
엠브레스마인드 심리상담센터 시흥직영점,0507-1434-1018,http://yegrin2015.modoo.at/,경기 시흥시 승지로60번길 25 센터프라자 4층,경기도 시흥시 승지로60번길 25 센터프라자 4층,정,경기도 시흥시 승지로60번길 25 (능곡동),126.81225849619545,37.3680091080266
마음을만나다심리상담센터 모란점,0507-1367-5048,https://blog.naver.com/meetmyheart,경기 성남시 중원구 성남대로 1132 2층 202호,경기도 성남시 중원구 성남대로 1132 2층 202호,정,경기도 성남시 중원구 성남대로 1132 (성남동),127.12982094474978,37.43088514721591
헬로스마일심리상담센터 고양점,031-967-5412,http://www.hellosmile.kr/bbs/board.php?bo_table=b_goyang,경기 고양시 덕양구 삼송로 12 반도유스퀘어 4층 410호,경기도 고양시 덕양구 삼송로 12 반도유스퀘어 4층 410호,정,경기도 고양시 덕양구 삼송로 12 (원흥동),126.87552531876784,37.64961244747376
행복아이심리상담센터,0507-1390-2650,https://blog.naver.com/ocp10,경기 용인시 수지구 수풍로 38 상가동 203호,경기도 용인시 수지구 수풍로 38 상가동 203호,정,경기도 용인시 수지구 수풍로 38 (풍덕천동),127.09186374475725,37.32674521378292
행복한심리상담센터,0507-1348-8668,https://blog.naver.com/wehappy8668,경기 부천시 원미구 길주로 243,경기도 부천시 원미구 길주로 243,정,경기도 부천시 원미구 길주로 243 (중동),126.76954895621532,37.50440935504276
아름다운사람들 심리상담센터,0507-1427-3436,https://blog.naver.com/bteens3436,경기 화성시 동탄신리천로 254 양지 프라자 3층,경기도 화성시 동탄신리천로 254 양지 프라자 3층,정,경기도 화성시 동탄신리천로 254 (오산동),127.1062313866157,37.184046793189786
미래로 최면심리상담센터,0507-1470-3436,https://miraerohypnosis.modoo.at,경기 안양시 만안구 장내로139번길 28 4층 1호,경기도 안양시 만안구 장내로139번길 28 4층 1호,정,경기도 안양시 만안구 장내로139번길 28 (안양동),126.92238621712093,37.39894826371415
한양아이소리 동탄심리상담센터,0507-1356-9691,https://blog.naver.com/dongtanisori,경기 화성시 동탄대로 469-12 2층 2047호,경기도 화성시 동탄대로 469-12 2층 2047호,정,경기도 화성시 동탄대로 469-12 (오산동),127.09780074736697,37.19628497621405
헬로스마일 심리상담센터 부천점,0507-1389-5412,https://blog.naver.com/hellosmile_bc,경기 부천시 원미구 상동로 90 3층 321호,경기도 부천시 원미구 상동로 90 3층 321호,정,경기도 부천시 원미구 상동로 90 (상동),126.75372053018877,37.505126492816935
어른아이심리상담센터,0507-1335-0953,,경기 수원시 영통구 도청로 103 e편안세상 시티광교 B번 출입구 13층 1310호,경기도 수원시 영통구 도청로 103 e편안세상 시티광교 B번 출입구 13층 1310호,정,경기도 수원시 영통구 도청로 103 (이의동),127.04728697946298,37.291338743607206
봄이의 숲 심리상담센터,0507-1301-5004,https://springforest2013.modoo.at,"경기 성남시 분당구 성남대로926번길 10 , 탑빌딩 5층 R514","경기도 성남시 분당구 성남대로926번길 10 , 탑빌딩 5층 R514",정,경기도 성남시 분당구 성남대로926번길 10 (야탑동),127.12989255747003,37.41257299062701
허그맘허그인심리상담센터 동두천센터,031-928-5575,https://www.hugmom.co.kr/branch/main/main.html?jijummid=dongducheon,경기 동두천시 중앙로 165 은혜빌딩 5층 허그맘허그인,경기도 동두천시 중앙로 165 은혜빌딩 5층 허그맘허그인,정,경기도 동두천시 중앙로 165 (생연동),127.05210559639704,37.89628663902653
마음나무심리상담센터,0507-1424-7014,http://maeumnamu.itpage.kr,경기 시흥시 서울대학로264번길 44-4,경기도 시흥시 서울대학로264번길 44-4,정,경기도 시흥시 서울대학로264번길 44-4 (배곧동),126.72822204399426,37.36715835236088
리엘심리상담센터,010-8078-1479,https://blog.naver.com/3721477,경기 화성시 동탄순환대로 127-5 우성센트럴타워 8층,경기도 화성시 동탄순환대로 127-5 우성센트럴타워 8층,정,경기도 화성시 동탄순환대로 127-5 (산척동),127.10728681784663,37.16608412884083
라함 심리상담센터,0507-1469-2352,https://pf.kakao.com/_zNGxeK,경기 안양시 만안구 경수대로 1207 삼원빌딩 2층,경기도 안양시 만안구 경수대로 1207 삼원빌딩 2층,정,경기도 안양시 만안구 경수대로 1207 (석수동),126.91376877017366,37.416514667213384
로이심리상담센터,031-824-5400,,경기 양주시 고읍남로 24 레드프라자 2층 203-1호,경기도 양주시 고읍남로 24 레드프라자 2층 203-1호,정,경기도 양주시 고읍남로 24 (광사동),127.07895369061299,37.79445654057032
멀티심리상담센터,0507-1361-6381,https://blog.naver.com/cs8825,경기 용인시 기흥구 한보라1로 14 5층 502호,경기도 용인시 기흥구 한보라1로 14 5층 502호,정,경기도 용인시 기흥구 한보라1로 14 (보라동),127.10967059723893,37.253570280725576
호연심리상담센터,0507-1342-6406,,경기 안성시 중앙2길 35 202호,경기도 안성시 중앙2길 35 202호,정,경기도 안성시 중앙2길 35 (동본동),127.27173215561828,37.00810867565504
심리상담센터마음,031-572-3426,https://maeumcenter.itpage.kr/,경기 남양주시 진접읍 해밀예당3로 134 . 5층 503호,경기도 남양주시 진접읍 해밀예당3로 134 . 5층 503호,정,경기도 남양주시 해밀예당3로 134 (진접읍),127.19543486685657,37.72123204899684
심리상담센터숨,0507-1386-7057,https://soom143.modoo.at,경기 평택시 고덕갈평6길 25 로자벨시티1차 512호,경기도 평택시 고덕갈평6길 25 로자벨시티1차 512호,정,경기도 평택시 고덕갈평6길 25 (고덕동),127.04823964095982,37.057304303050444
혜인아트심리상담센터,0507-1337-3139,https://blog.naver.com/hyeinartcenter,경기 안성시 삼죽면 진촌진말길 82-3,경기도 안성시 삼죽면 진촌진말길 82-3,정,경기도 안성시 진촌진말길 82-3 (삼죽면),127.35721733956647,37.051457538043266
마음풍경 심리상담센터,031-305-7415,http://pf.kakao.com/_xldvhxb,경기 수원시 영통구 봉영로 1620 대우월드마크 오피스텔,경기도 수원시 영통구 봉영로 1620 대우월드마크 오피스텔,정,경기도 수원시 영통구 봉영로 1620 (영통동),127.07567694605322,37.255030523902995
한사랑심리상담센터,0507-1430-7507,https://blog.naver.com/hanlove000,경기 성남시 수정구 위례광장로 310 B동 605호,경기도 성남시 수정구 위례광장로 310 B동 605호,정,경기도 성남시 수정구 위례광장로 310 (창곡동),127.14243941080463,37.47273011094535
마음의온도심리상담센터,0507-1343-1704,https://blog.naver.com/maum_ondo,경기 남양주시 경춘로 508-8 안강프라이빗 403호,경기도 남양주시 경춘로 508-8 안강프라이빗 403호,정,경기도 남양주시 경춘로 508-8 (다산동),127.16900309191129,37.61057342010609
한국심리상담센터 병점점,031-221-4494,https://blog.naver.com/kpcc7080,경기 화성시 병점1로 218 B동 505호,경기도 화성시 병점1로 218 B동 505호,정,"경기도 화성시 병점1로 218, B동 (병점동)",127.0427017797957,37.213656411063525
마음고요 심리상담센터,0507-1388-3016,https://maumgoyo.com,경기 화성시 동탄광역환승로 62 동탄역삼정그린코아 더시티 12층 1201호,경기도 화성시 동탄광역환승로 62 동탄역삼정그린코아 더시티 12층 1201호,정,경기도 화성시 동탄광역환승로 62 (오산동),127.08935425660547,37.201007995848656
온율심리상담센터,031-862-7235,https://www.instagram.com/onyulsimri,경기 양주시 옥정동로7길 91 KB타워 2층 205호,경기도 양주시 옥정동로7길 91 KB타워 2층 205호,정,경기도 양주시 옥정동로7길 91 (옥정동),127.0941664290137,37.821764217981276
세움심리상담센터,0507-1316-3812,https://blog.naver.com/seummind,경기 수원시 영통구 권선로882번길 107-32 202호,경기도 수원시 영통구 권선로882번길 107-32 202호,정,경기도 수원시 영통구 권선로882번길 107-32 (신동),127.04227596463302,37.24636008005412
심리상담센터 마음을 걷는 동반자,010-2308-6256,https://heartaround.modoo.at,경기 용인시 처인구 명지로40번길 35-16,경기도 용인시 처인구 명지로40번길 35-16,정,경기도 용인시 처인구 명지로40번길 35-16 (역북동),127.18340973854953,37.23083870131387
심리상담센터 자연스럽게,031-603-6854,https://naturally.modoo.at,경기 성남시 분당구 분당내곡로 155 KCC웰츠타워 B동 6층 608호,경기도 성남시 분당구 분당내곡로 155 KCC웰츠타워 B동 6층 608호,정,경기도 성남시 분당구 분당내곡로 155 (삼평동),127.11252290227247,37.39763997588855
심리상담센터 위딤,0507-1395-1907,https://blog.naver.com/withim1907,경기 김포시 태장로795번길 23 209호,경기도 김포시 태장로795번길 23 209호,정,경기도 김포시 태장로795번길 23 (장기동),126.6808133582058,37.637734019733045
나를위해 심리상담센터,010-2069-8759,http://mindforme.modoo.at/,경기 광명시 오리로975번길 7 태산하우징 202호,경기도 광명시 오리로975번길 7 태산하우징 202호,정,경기도 광명시 오리로975번길 7 (광명동),126.8547138280397,37.47854791467072
심설 심리상담센터,010-3154-2469,https://simssul.modoo.at,경기 부천시 원미구 길주로 284,경기도 부천시 원미구 길주로 284,정,경기도 부천시 원미구 길주로 284 (중동),126.77374009679248,37.50279180852359
더공감심리상담센터,031-482-3006,,경기 안산시 단원구 광덕1로 62 아트프라자,경기도 안산시 단원구 광덕1로 62 아트프라자,정,경기도 안산시 단원구 광덕1로 62 (초지동),126.81626150887696,37.308150669482906
서울위드 심리상담센터,0507-1426-2265,https://blog.naver.com/seoul_with,경기 고양시 일산동구 중앙로1275번길 38-10 208-1호,경기도 고양시 일산동구 중앙로1275번길 38-10 208-1호,정,경기도 고양시 일산동구 중앙로1275번길 38-10 (장항동),126.77077835259212,37.65991192544055
마마라 심리상담센터 수원본점,0507-1471-1275,http://www.mamara.co.kr,경기 수원시 팔달구 아주로 3 대학빌딩 3층,경기도 수원시 팔달구 아주로 3 대학빌딩 3층,정,경기도 수원시 팔달구 아주로 3 (우만동),127.04382662451081,37.27509927992158
하온심리상담센터,0507-1495-2274,http://xn--zk5bt1z.com,경기 수원시 권선구 금곡로 205 4층 409호,경기도 수원시 권선구 금곡로 205 4층 409호,정,경기도 수원시 권선구 금곡로 205 (금곡동),126.95296426511082,37.274336078330556
게슈탈트하일렌 심리상담센터,0507-1494-6123,http://gestalt.co.kr,경기 남양주시 늘을1로16번길 29 늘봄타워 4F,경기도 남양주시 늘을1로16번길 29 늘봄타워 4F,정,경기도 남양주시 늘을1로16번길 29 (호평동),127.24333469147223,37.65410642387799
소통과 공감 언어심리상담센터,0507-1313-2116,https://blog.naver.com/sotong_gonggam,경기 고양시 일산서구 중앙로 1426 일송노블레스 707호,경기도 고양시 일산서구 중앙로 1426 일송노블레스 707호,정,경기도 고양시 일산서구 중앙로 1426 (주엽동),126.76185654099193,37.67028389958662
조성아 심리상담센터,0507-1402-4479,https://blog.naver.com/gnrbon,경기 부천시 원미구 길주로 307,경기도 부천시 원미구 길주로 307,정,경기도 부천시 원미구 길주로 307 (중동),126.7768090690312,37.50344970517985
허그맘허그인심리상담센터 구리갈매직영센터,031-8079-8275,https://www.hugmom.co.kr/branch/main/main.html?jijummid=guri,경기 구리시 산마루로 6 301호,경기도 구리시 산마루로 6 301호,정,경기도 구리시 산마루로 6 (갈매동),127.11521681565746,37.6316940999365
파주운정심리상담센터,031-941-3303,,경기 파주시 동패로63번길 6-7 202호,경기도 파주시 동패로63번길 6-7 202호,정,경기도 파주시 동패로63번길 6-7 (동패동),126.73766702499793,37.70961099939795
에릭슨아동청소년심리상담센터,02-485-7999,https://blog.naver.com/erikson60,경기 하남시 감일중앙로 60 벨솔레파크 714호,경기도 하남시 감일중앙로 60 벨솔레파크 714호,정,경기도 하남시 감일중앙로 60 (감이동),127.15402444433063,37.5089265674048
대화와치유 동탄심리상담센터,070-4793-7040,http://www.talknheal.co.kr,경기 화성시 동탄대로 181 동탄린스트라우스더레이크오피스텔 201동 1405호,경기도 화성시 동탄대로 181 동탄린스트라우스더레이크오피스텔 201동 1405호,정,"경기도 화성시 동탄대로 181, 201동 (송동)",127.10595271462003,37.170496147556676
다빛언어심리상담센터,0507-1465-1453,http://www.dabit.co.kr/,경기 하남시 미사강변대로 228 메디프라자 303호,경기도 하남시 미사강변대로 228 메디프라자 303호,정,경기도 하남시 미사강변대로 228 (망월동),127.18400566412703,37.56988865079438
우리마음연구소학습심리상담센터,0507-1413-7976,https://blog.naver.com/ourmindlab,경기 용인시 기흥구 죽전로 23 8층 805-2호,경기도 용인시 기흥구 죽전로 23 8층 805-2호,정,경기도 용인시 기흥구 죽전로 23 (보정동),127.11123035939274,37.320747511861164
마음샘심리상담센터,031-894-8052,http://www.maumsaem.or.kr/,경기 의정부시 오목로225번길 161 마운틴프라자 502호,경기도 의정부시 오목로225번길 161 마운틴프라자 502호,정,경기도 의정부시 오목로225번길 161 (민락동),127.09648780470708,37.74499247474443
나다움심리상담센터,0507-1313-2756,http://www.nadaoum.co.kr/,경기 시흥시 진말로9번길 2 3층,경기도 시흥시 진말로9번길 2 3층,정,경기도 시흥시 진말로9번길 2 (장곡동),126.78526930718313,37.37846424472137
지음심리상담센터,010-9707-1306,https://blog.naver.com/jieumsenter,경기 하남시 미사강변중앙로 212 306호,경기도 하남시 미사강변중앙로 212 306호,정,경기도 하남시 미사강변중앙로 212 (망월동),127.18946377302566,37.5655111412375
한울심리상담센터,0507-1348-4740,https://blog.naver.com/hanulcounseling,경기 부천시 원미구 길주로 276,경기도 부천시 원미구 길주로 276,정,경기도 부천시 원미구 길주로 276 (중동),126.77285074266901,37.50295806678686
본언어심리상담센터,031-987-7377,https://bonartworks.modoo.at,경기 김포시 북변중로 135 미송빌딩 1층 106호,경기도 김포시 북변중로 135 미송빌딩 1층 106호,정,경기도 김포시 북변중로 135 (북변동),126.70349209634638,37.63046230311966
구리아동청소년심리상담센터,0507-1418-2343,,경기 구리시 갈매중앙로 83 아름터프라자 402호,경기도 구리시 갈매중앙로 83 아름터프라자 402호,정,경기도 구리시 갈매중앙로 83 (갈매동),127.11725042088102,37.632060988994745
힐메이트 심리상담센터,031-831-3779,https://blog.naver.com/healmate0713,경기 화성시 동탄대로 489 동탄역 우성타워 904호,경기도 화성시 동탄대로 489 동탄역 우성타워 904호,정,경기도 화성시 동탄대로 489 (오산동),127.09827064393399,37.19740544859298
아이2아이 심리상담센터,0507-1395-5121,http://i2i.modoo.at/,경기 남양주시 다산순환로 118-17 다산폴리프라자 501호,경기도 남양주시 다산순환로 118-17 다산폴리프라자 501호,정,경기도 남양주시 다산순환로 118-17 (다산동),127.14763154685808,37.62126160736419
이선아언어심리상담센터 광주점,0507-1334-5358,http://www.sunslp.co.kr/,경기 광주시 중앙로 83 제일빌딩 4층,경기도 광주시 중앙로 83 제일빌딩 4층,정,경기도 광주시 중앙로 83 (역동),127.2595657449203,37.40725226318644
로고스심리상담센터,0507-1407-1078,http://logos.itpage.kr/,경기 안산시 단원구 광덕2로 193-19 썬라이즈빌딩 4층 417호,경기도 안산시 단원구 광덕2로 193-19 썬라이즈빌딩 4층 417호,정,경기도 안산시 단원구 광덕2로 193-19 (고잔동),126.83196716523963,37.31170665357861
엘로이심리상담센터,0507-1421-2058,https://elroi.modoo.at,경기 용인시 처인구 포곡읍 포곡로 220 포곡제일빌딩,경기도 용인시 처인구 포곡읍 포곡로 220 포곡제일빌딩,정,경기도 용인시 처인구 포곡로 220 (포곡읍),127.22755222345644,37.275828384170964
심리상담센터 진담소,010-9893-3459,https://www.instagram.com/jindam.so,경기 수원시 영통구 도청로 95 베타동 2층 218호,경기도 수원시 영통구 도청로 95 베타동 2층 218호,정,경기도 수원시 영통구 도청로 95 (이의동),127.04778865596145,37.29091455599868
산마루심리상담센터,031-572-0715,https://sanmarucenter.modoo.at,경기 구리시 경춘북로 252 에비뉴상가 C동 302호,경기도 구리시 경춘북로 252 에비뉴상가 C동 302호,정,경기도 구리시 경춘북로 252 (갈매동),127.1164220070628,37.633778067911884
위례새론 언어 심리 상담센터,0507-1379-1206,http://www.xn--9n2bic953aknas2vsoq.com,경기 성남시 수정구 위례동로 147 위례건아타워 903호,경기도 성남시 수정구 위례동로 147 위례건아타워 903호,정,경기도 성남시 수정구 위례동로 147 (창곡동),127.1501075152525,37.47308262670885
헤리움 인지심리상담센터,031-357-0279,https://blog.naver.com/light0279,경기 화성시 남양읍 시청로160번길 46 현대메디플라자 202호,경기도 화성시 남양읍 시청로160번길 46 현대메디플라자 202호,정,경기도 화성시 시청로160번길 46 (남양읍),126.8256431225816,37.198823658818284
언어심리상담센터 위드,0507-1442-9959,http://clinicwith.modoo.at/,경기 고양시 일산동구 장백로 194 위너스21,경기도 고양시 일산동구 장백로 194 위너스21,정,경기도 고양시 일산동구 장백로 194 (장항동),126.77658801531364,37.65213164249448
민수연심리상담센터,0507-1381-6570,https://blog.naver.com/symincs,경기 용인시 기흥구 동백4로 26 성산마을 서해그랑블 3105-1104(외부인 동문입차),경기도 용인시 기흥구 동백4로 26 성산마을 서해그랑블 3105-1104(외부인 동문입차),정,"경기도 용인시 기흥구 동백4로 26, 3105동 (중동)",127.15464427243909,37.27141933195407
희망나무 심리상담센터 경기지부,0507-1322-7504,https://blog.naver.com/hopetreecounseling,경기 화성시 동탄기흥로 447-16 어반스톤 1120호,경기도 화성시 동탄기흥로 447-16 어반스톤 1120호,정,경기도 화성시 동탄기흥로 447-16 (오산동),127.09187129354274,37.201178612366704
푸른숨 심리상담센터,0507-1468-1326,https://www.instagram.com/pureun64,경기 고양시 일산서구 중앙로 1425 삼부르네상스 가동 549호,경기도 고양시 일산서구 중앙로 1425 삼부르네상스 가동 549호,정,"경기도 고양시 일산서구 중앙로 1425, 가동 (주엽동)",126.76137962123326,37.66946985766432
허그맘 허그인 심리상담센터 광명점,02-2135-5454,http://www.hugmom.co.kr/index.php?b_idx=center&b_type=center_1&ctList=25,경기 광명시 소하로75번길 10 하나로빌딩 303호,경기도 광명시 소하로75번길 10 하나로빌딩 303호,정,경기도 광명시 소하로75번길 10 (소하동),126.88498066650111,37.447917071547536
행복심리상담센터,0507-1441-0415,https://wvhappycenter.modoo.at,경기 구리시 체육관로80번길 35 보령빌딩 4층,경기도 구리시 체육관로80번길 35 보령빌딩 4층,정,경기도 구리시 체육관로80번길 35 (수택동),127.1399517104656,37.59188524030825
별심은나무 심리상담센터,0507-1361-3065,https://www.instagram.com/startree3065/,경기 안양시 동안구 시민대로 175 동안프라자빌딩 4층,경기도 안양시 동안구 시민대로 175 동안프라자빌딩 4층,정,경기도 안양시 동안구 시민대로 175 (비산동),126.9504222154621,37.39135166911318
마음셈 심리상담센터,032-326-9879,,경기 부천시 원미구 부일로 203,경기도 부천시 원미구 부일로 203,정,경기도 부천시 원미구 부일로 203 (상동),126.75245425965548,37.489111953285786
라함심리상담센터 화성동탄점,0507-1381-3461,https://blog.naver.com/wds0208,경기 화성시 동탄중심상가1길 33 동탄미래도프라자 5층 501호,경기도 화성시 동탄중심상가1길 33 동탄미래도프라자 5층 501호,정,경기도 화성시 동탄중심상가1길 33 (반송동),127.07194981311629,37.20110991903622
마인드크래프트 심리상담센터,010-2340-2687,http://xn--hy1bx5c76bq6xqrk3kdu7e.itpage.kr,경기 하남시 위례학암로14번길 35 경서타워1 605호,경기도 하남시 위례학암로14번길 35 경서타워1 605호,정,경기도 하남시 위례학암로14번길 35 (학암동),127.15811007797937,37.487695942668886
아이케어 심리상담센터,031-656-2273,http://www.icarecounseling.co,경기 평택시 팽성읍 안정로 6 스타프라자 3층 아이케어 심리상담센터,경기도 평택시 팽성읍 안정로 6 스타프라자 3층 아이케어 심리상담센터,정,경기도 평택시 안정로 6 (팽성읍),127.04560846970443,36.95784324319164
공도 마음나무 심리상담센터,0507-1336-0245,https://blog.naver.com/hhsmsm,경기 안성시 공도읍 공도4로 3 2층 201호,경기도 안성시 공도읍 공도4로 3 2층 201호,정,경기도 안성시 공도4로 3 (공도읍),127.17210509014478,37.000518717381134
마음심터심리상담센터 고양점,0507-1367-5486,,경기 고양시 덕양구 백양로 27 1404동 805호,경기도 고양시 덕양구 백양로 27 1404동 805호,정,"경기도 고양시 덕양구 백양로 27, 1404동 (화정동)",126.8317157336719,37.62854752990122
사이애심리상담센터,010-3038-7140,http://www.sailove.co.kr,경기 고양시 덕양구 으뜸로 124 드림코어테라스 7층 714호,경기도 고양시 덕양구 으뜸로 124 드림코어테라스 7층 714호,정,경기도 고양시 덕양구 으뜸로 124 (덕은동),126.8697462214333,37.579114654644286
라이크마인드심리상담센터 부설 라마발달센터,031-308-5952,https://www.instagram.com/likemind78,경기 용인시 수지구 이현로 115 상록상현프라자 303호,경기도 용인시 수지구 이현로 115 상록상현프라자 303호,정,경기도 용인시 수지구 이현로 115 (상현동),127.09109705543793,37.31227420866959
조이어스심리상담센터,0507-1423-8007,https://blog.naver.com/ayaako,경기 화성시 동탄반석로 130 드림프라자 604호,경기도 화성시 동탄반석로 130 드림프라자 604호,정,경기도 화성시 동탄반석로 130 (반송동),127.0713994214101,37.20046939053775
별지음심리상담센터,0507-1319-6818,https://www.instagram.com/byeoljieum/?igshid=OGQ5ZDc2ODk2ZA%3D%3D,경기 동두천시 중앙로 134-30 302호,경기도 동두천시 중앙로 134-30 302호,정,경기도 동두천시 중앙로 134-30 (지행동),127.05434295106633,37.89315680839517
마음풍경 심리상담센터,031-908-7377,https://blog.naver.com/maum_2013,경기 고양시 일산서구 중앙로 1547 308호,경기도 고양시 일산서구 중앙로 1547 308호,정,경기도 고양시 일산서구 중앙로 1547 (대화동),126.74954831170655,37.67480917549378
상상심리상담센터,031-242-0933,http://cic111.alltheway.kr/,경기 수원시 장안구 대평로90번길 8 한빛프라자,경기도 수원시 장안구 대평로90번길 8 한빛프라자,정,경기도 수원시 장안구 대평로90번길 8 (정자동),126.99338265912263,37.296172011844725
헤세드정신분석심리상담센터,0507-1440-0551,https://blog.naver.com/hessedpt,경기 고양시 덕양구 삼송로 210 현대썬앤빌 1721호,경기도 고양시 덕양구 삼송로 210 현대썬앤빌 1721호,정,경기도 고양시 덕양구 삼송로 210 (삼송동),126.89744769176151,37.65301273917896
심리상담센터 마음정원,0507-1333-2239,https://jeongwonmaeum.modoo.at,경기 남양주시 경춘로 490 다산신도시 지금지구 힐스테이트 지금디포레 9094호,경기도 남양주시 경춘로 490 다산신도시 지금지구 힐스테이트 지금디포레 9094호,정,경기도 남양주시 경춘로 490 (다산동),127.16736285737743,37.61004073087092
단풍심리상담센터,0507-1361-4906,https://www.instagram.com/maple.psychological.counseling?igsh=MWZ2aGRwbWNzcjVpZw==,경기 하남시 미사강변한강로 295 2층 239호,경기도 하남시 미사강변한강로 295 2층 239호,정,경기도 하남시 미사강변한강로 295 (망월동),127.19839632056686,37.564285618158934
혜문심리상담센터,0507-1400-2318,https://hyemoon.modoo.at,경기 안산시 상록구 해양5로 11 그랑시티자이2차오피스텔 212동 1206호,경기도 안산시 상록구 해양5로 11 그랑시티자이2차오피스텔 212동 1206호,정,"경기도 안산시 상록구 해양5로 11, 212동 (사동)",126.83307522390778,37.28041504666936
위드심리상담센터,031-853-0759,http://instagram.com/withwith205,경기 의정부시 용민로 469 보광더존프라자 204호,경기도 의정부시 용민로 469 보광더존프라자 204호,정,경기도 의정부시 용민로 469 (민락동),127.11805712864393,37.75194525445632
새꿈마음 심리상담센터,032-677-0675,http://newdream.itpage.kr/,경기 부천시 오정구 성오로124번길 37,경기도 부천시 오정구 성오로124번길 37,정,경기도 부천시 오정구 성오로124번길 37 (원종동),126.80189217381663,37.52479656491654
아이보리아동심리상담센터,032-710-5006,https://blog.naver.com/ivory5006,경기 부천시 원미구 중동로248번길 44 205호,경기도 부천시 원미구 중동로248번길 44 205호,정,경기도 부천시 원미구 중동로248번길 44 (중동),126.77119698817089,37.50125635365037
구성심리상담센터 본점,032-205-8598,https://www.gusung.co.kr/,경기 부천시 원미구 소향로 31,경기도 부천시 원미구 소향로 31,정,경기도 부천시 원미구 소향로 31 (상동),126.75134761837597,37.50390416407791
성모사랑심리상담센터,031-928-6210,https://sungmosarangclinic.modoo.at,경기 의정부시 청사로 37 6층 604호,경기도 의정부시 청사로 37 6층 604호,정,경기도 의정부시 청사로 37 (금오동),127.06992221229936,37.75146203006505
"안녕,마음심리상담센터",010-8233-1388,https://blog.naver.com/hellogoodbye1388,경기 양주시 옥정동로 173 다올레이크프라자 3층,경기도 양주시 옥정동로 173 다올레이크프라자 3층,정,경기도 양주시 옥정동로 173 (옥정동),127.09901397364911,37.82256724353396
베네하임 심리상담센터,0507-1331-9575,https://blog.naver.com/beneheim9575,경기 수원시 영통구 대학로 47 광교스타인 201호,경기도 수원시 영통구 대학로 47 광교스타인 201호,정,경기도 수원시 영통구 대학로 47 (이의동),127.04406203563452,37.300537015670535
마음빛심리상담센터,031-8059-5069,http://www.maumbit.co.kr/,경기 화성시 향남읍 향남로 418-10 유진프라자 401호,경기도 화성시 향남읍 향남로 418-10 유진프라자 401호,정,경기도 화성시 향남로 418-10 (향남읍),126.92228649687233,37.132252265098586
아름들심리상담센터,02-2060-4300,http://arumdul.co.kr,경기 광명시 오리로 870 스타힐스빌딩 3층,경기도 광명시 오리로 870 스타힐스빌딩 3층,정,경기도 광명시 오리로 870 (철산동),126.86596568896282,37.47605287046607
김선영 마음터 심리상담센터,031-747-1125,http://xn--4k0bs2te0f0mflwbc31a.com,경기 성남시 수정구 수정로 290 용일빌딩,경기도 성남시 수정구 수정로 290 용일빌딩,정,경기도 성남시 수정구 수정로 290 (신흥동),127.14703131356141,37.45026098872902
나나빌 심리상담센터,0507-1409-6600,http://www.nanavill.co.kr,경기 남양주시 다산중앙로19번길 9 세움프라자 2층,경기도 남양주시 다산중앙로19번길 9 세움프라자 2층,정,경기도 남양주시 다산중앙로19번길 9 (다산동),127.15455076313921,37.61459336540434
세인심리상담센터,0507-1342-0325,https://seincounseling.co.kr/,경기 성남시 분당구 서현로 170 풍림아이원플러스 A동 509호,경기도 성남시 분당구 서현로 170 풍림아이원플러스 A동 509호,정,경기도 성남시 분당구 서현로 170 (서현동),127.12255331448719,37.38895157980768
조민희심리상담센터,010-4292-2206,https://blog.naver.com/minhee_counseling,경기 의정부시 경의로 108 한양수자인파크뷰 1818호,경기도 의정부시 경의로 108 한양수자인파크뷰 1818호,정,경기도 의정부시 경의로 108 (의정부동),127.04752057808416,37.73285232057517
마음자람 아동 가족 심리상담센터,0507-1431-2580,http://pf.kakao.com/_kxaexaG,경기 의정부시 평화로 635 미림프라자 305호,경기도 의정부시 평화로 635 미림프라자 305호,정,경기도 의정부시 평화로 635 (의정부동),127.0448586060573,37.74861621041215
심리상담센터 비움과채움,070-7756-3165,http://www.beumplus.com/,경기 파주시 청석로 268 미소시티 806호 심리상담센터 비움과채움,경기도 파주시 청석로 268 미소시티 806호 심리상담센터 비움과채움,정,경기도 파주시 청석로 268 (동패동),126.71772180920752,37.72586564561591
아보카도 심리상담센터 광명점,0507-1376-0629,http://pf.kakao.com/_EKxdUxj/chat,경기 광명시 일직로 28,경기도 광명시 일직로 28,정,경기도 광명시 일직로 28 (일직동),126.88473146224597,37.422067520104065
편안한 심리상담센터,0507-1432-1312,https://blog.naver.com/comfortpsy,경기 수원시 영통구 도청로18번길 26 힐스테이트광교중앙역 312호,경기도 수원시 영통구 도청로18번길 26 힐스테이트광교중앙역 312호,정,경기도 수원시 영통구 도청로18번길 26 (이의동),127.05700366367135,37.28761115989221
The봄 심리상담센터,0507-1323-1275,,경기 부천시 원미구 부천로3번길 48,경기도 부천시 원미구 부천로3번길 48,정,경기도 부천시 원미구 부천로3번길 48 (심곡동),126.78030845214784,37.485381687611785
양주심리상담센터,010-4074-1235,,경기 양주시 평화로 1462 2층,경기도 양주시 평화로 1462 2층,정,경기도 양주시 평화로 1462 (덕계동),127.04826258584212,37.820729509900744
하임 심리상담센터,031-427-2852,,경기 군포시 당정역로4번길 7 115호,경기도 군포시 당정역로4번길 7 115호,정,경기도 군포시 당정역로4번길 7 (당정동),126.94995700141868,37.34346069165355
박기령심리상담센터,031-634-1388,https://www.instagram.com/hoorijia0307,경기 이천시 애련정로87번길 3 한솔빌딩 4층,경기도 이천시 애련정로87번길 3 한솔빌딩 4층,정,경기도 이천시 애련정로87번길 3 (창전동),127.45012271286356,37.278229439114256
마음심터심리상담센터,0507-1339-5831,https://greenherbu.modoo.at,경기 군포시 산본천로 62 721호,경기도 군포시 산본천로 62 721호,정,경기도 군포시 산본천로 62 (산본동),126.93041292884811,37.360563957225956
마음시선 심리상담센터,010-5085-3266,https://blog.naver.com/bombicounseling,경기 군포시 군포첨단산업2로7번길 8 군포에이스더블유밸리 728호,경기도 군포시 군포첨단산업2로7번길 8 군포에이스더블유밸리 728호,정,경기도 군포시 군포첨단산업2로7번길 8 (부곡동),126.94104101502273,37.326822294516205
공감과이해 심리상담센터,032-341-2001,https://blog.naver.com/gonggame2,경기 부천시 소사구 범안로 49 다인빌딩 2층,경기도 부천시 소사구 범안로 49 다인빌딩 2층,정,경기도 부천시 소사구 범안로 49 (괴안동),126.80780674511817,37.47740575544057
한국인지발달연구소 플로어타임 및 심리상담센터,0507-1357-1312,http://kcog.modoo.at,경기 성남시 수정구 위례광장로 41 지엠프라자 304호,경기도 성남시 수정구 위례광장로 41 지엠프라자 304호,정,경기도 성남시 수정구 위례광장로 41 (창곡동),127.14019056317491,37.46796180449142
단단심리상담센터,0507-1381-8472,https://iminddandan.modoo.at,경기 고양시 덕양구 삼송로 222 삼송역 현대헤리엇 상가 101동 3층 307호,경기도 고양시 덕양구 삼송로 222 삼송역 현대헤리엇 상가 101동 3층 307호,정,경기도 고양시 덕양구 삼송로 222 (삼송동),126.8990462804458,37.652933178654706
지금마음 심리상담센터,0507-1352-4788,https://www.instagram.com/nowmind_,경기 수원시 장안구 장안로359번길 19 힐스테이트프라자 106호,경기도 수원시 장안구 장안로359번길 19 힐스테이트프라자 106호,정,경기도 수원시 장안구 장안로359번길 19 (정자동),126.98547804452568,37.312039884394316
아이알다 언어심리상담센터,0507-1476-1240,https://ialda.modoo.at,경기 하남시 미사강변동로84번길 39 에코타워 304호,경기도 하남시 미사강변동로84번길 39 에코타워 304호,정,경기도 하남시 미사강변동로84번길 39 (망월동),127.19533086126704,37.56336018050805
늘품상담사회적협동조합 늘품심리상담센터,031-241-1595,http://www.npcc.kr,경기 수원시 팔달구 고등로 8 수원고등 LH2단지 201동 1층,경기도 수원시 팔달구 고등로 8 수원고등 LH2단지 201동 1층,정,"경기도 수원시 팔달구 고등로 8, 201동 (고등동)",126.9987325745509,37.272540985650174
마음과마음 심리상담센터,0507-1351-2355,https://mmtwo.modoo.at,경기 수원시 영통구 반달로7번길 6 센타프라자,경기도 수원시 영통구 반달로7번길 6 센타프라자,정,경기도 수원시 영통구 반달로7번길 6 (영통동),127.07400716863545,37.25228970262877
온심리상담센터,031-8035-7023,https://blog.naver.com/onsangdam79,경기 파주시 경의로 1204 312호,경기도 파주시 경의로 1204 312호,정,경기도 파주시 경의로 1204 (와동동),126.76151980114321,37.725045185746296
심리상담센터빚음,0507-1359-4514,http://www.bizeum.co.kr,경기 파주시 탄현면 헤이리마을길 18-64 2층 심리상담센터 빚음,경기도 파주시 탄현면 헤이리마을길 18-64 2층 심리상담센터 빚음,정,경기도 파주시 헤이리마을길 18-64 (탄현면),126.69444044830422,37.78780070403455
박경호가족심리상담센터,031-419-8640,http://parkspeech.com,경기 안산시 상록구 용신로 393 504호,경기도 안산시 상록구 용신로 393 504호,정,경기도 안산시 상록구 용신로 393 (본오동),126.86591569817249,37.30188571807865
늘헤아림심리상담센터,0507-1360-3779,http://www.nlhearim.kr/,경기 안성시 공도읍 진건중길 43 1층 104호,경기도 안성시 공도읍 진건중길 43 1층 104호,정,경기도 안성시 진건중길 43 (공도읍),127.14149463539081,36.99164911635631
지음심리상담센터,0507-1405-1287,https://blog.naver.com/jieum53,경기 화성시 남양읍 홍난파길79번길 92 지음심리상담센터,경기도 화성시 남양읍 홍난파길79번길 92 지음심리상담센터,정,경기도 화성시 홍난파길79번길 92 (남양읍),126.84220801405652,37.18749156534941
해아심리상담센터,02-3159-0123,https://blog.naver.com/haea2023,경기 고양시 덕양구 꽃내음2길 54 1층,경기도 고양시 덕양구 꽃내음2길 54 1층,정,경기도 고양시 덕양구 꽃내음2길 54 (향동동),126.89209885991878,37.60279201158137
온앤온 심리상담센터,031-937-8485,https://blog.naver.com/onandon_counseling,경기 파주시 경의로1240번길 14-31 월드플러스 710호,경기도 파주시 경의로1240번길 14-31 월드플러스 710호,정,경기도 파주시 경의로1240번길 14-31 (와동동),126.76203691052277,37.72650371725862
다인언어심리상담센터 김포운양점,0507-1461-7273,https://daolincenter.modoo.at/,"경기 김포시 전원로 1 4층, 403호","경기도 김포시 전원로 1 4층, 403호",정,경기도 김포시 전원로 1 (운양동),126.68044568091601,37.64495464034127
브레인통합심리상담센터 동탄점,031-8015-1950,http://brain-totalhealth.co.kr,경기 화성시 동탄반송길 20 301호,경기도 화성시 동탄반송길 20 301호,정,경기도 화성시 동탄반송길 20 (반송동),127.06425604444647,37.20979627696288
심리상담센터 봄,031-722-6150,https://blog.naver.com/bomcare018,경기 성남시 중원구 산성대로 574 3층,경기도 성남시 중원구 산성대로 574 3층,정,경기도 성남시 중원구 산성대로 574 (은행동),127.16761883623009,37.46104574229414
맑은맘심리상담센터,0507-1433-1388,http://www.clearmind.co.kr/,"경기 용인시 수지구 진산로 106 훼미리빌딩 508, 509호","경기도 용인시 수지구 진산로 106 훼미리빌딩 508, 509호",정,경기도 용인시 수지구 진산로 106 (풍덕천동),127.09808311644348,37.32015323348184
민정원 심리상담센터,010-9039-6833,,경기 군포시 산본천로 56 1312호,경기도 군포시 산본천로 56 1312호,정,경기도 군포시 산본천로 56 (산본동),126.92999563562151,37.360398435929305
야호야 아동청소년심리상담센터,010-7512-7314,http://yahoyah.co.kr,경기 고양시 덕양구 화정로 53-1 704호,경기도 고양시 덕양구 화정로 53-1 704호,정,경기도 고양시 덕양구 화정로 53-1 (화정동),126.8323907793171,37.635466274712705
마음숲 심리상담센터,0507-1407-4309,https://www.youtube.com/channel/UCrf0Lcyl8KdJmNIkjp1vsLw,강원 원주시 만대로 175 2층 203호,강원도 원주시 만대로 175 2층 203호,정,강원특별자치도 원주시 만대로 175 (무실동),127.92361282387881,37.333324268279654
마음성장 심리 상담센터,031-859-4992,http://www.instagram.com/youn_soo_6025,경기 양주시 고덕로139번길 54-6 마음성장심리상담센터,경기도 양주시 고덕로139번길 54-6 마음성장심리상담센터,정,경기도 양주시 고덕로139번길 54-6 (덕계동),127.06116112076847,37.809407438202115
마음더하기심리상담센터,0507-1411-2179,http://www.maumplus.com/,경기 남양주시 와부읍 덕소로 73 세양아르비채리버 3층 310호,경기도 남양주시 와부읍 덕소로 73 세양아르비채리버 3층 310호,정,경기도 남양주시 덕소로 73 (와부읍),127.21149004122064,37.587326386171895
등대심리상담센터,031-935-6466,https://deungdaesangdam.modoo.at/?link=4sjegb8g,경기 파주시 경의로 1092 8층 812호,경기도 파주시 경의로 1092 8층 812호,정,경기도 파주시 경의로 1092 (야당동),126.76010141852056,37.7149074988269
위드유심리상담센터,0507-1320-2504,,강원 강릉시 율곡초교길 27 201호,강원도 강릉시 율곡초교길 27 201호,정,강원특별자치도 강릉시 율곡초교길 27 (교동),128.8790126656098,37.766722141236265
마음솔심리상담센터,0507-1320-8743,https://mindssol.modoo.at,강원 강릉시 운정길11번길 80-9 보금채 가동 203호,강원도 강릉시 운정길11번길 80-9 보금채 가동 203호,정,강원특별자치도 강릉시 운정길11번길 80-9 (난곡동),128.8735348799848,37.78751440103479
"봄,심리상담센터",010-6220-1850,https://www.bom-counseling.com/home,경기 수원시 영통구 영통로 498 145동 101호,경기도 수원시 영통구 영통로 498 145동 101호,정,"경기도 수원시 영통구 영통로 498, 145동 (영통동)",127.07976155445085,37.26254025011973
누리봄심리상담센터,031-656-5213,,경기 평택시 서동대로 3879 제이플러스빌딩 4층 401A호,경기도 평택시 서동대로 3879 제이플러스빌딩 4층 401A호,정,경기도 평택시 서동대로 3879 (용이동),127.13785355254699,36.99428198933606
풀이음언어심리상담센터,010-9216-7662,,강원 속초시 엑스포로 133 3층,강원도 속초시 엑스포로 133 3층,정,강원특별자치도 속초시 엑스포로 133 (교동),128.58151490153747,38.1960150342117
오즈심리상담센터,0507-1329-5378,https://ozpcc.modoo.at/,강원 원주시 능라동길 27 SK타워 5층 501호,강원도 원주시 능라동길 27 SK타워 5층 501호,정,강원특별자치도 원주시 능라동길 27 (무실동),127.9280502872145,37.33330665712663
J심리상담센터,0507-1361-7002,https://booking.naver.com/booking/13/bizes/962433/items/5254567?area=bmp,강원 원주시 원일로115번길 5 홍제빌딩 송내과 5층,강원도 원주시 원일로115번길 5 홍제빌딩 송내과 5층,정,강원특별자치도 원주시 원일로115번길 5 (일산동),127.94800848742808,37.349569410318026
공감심리상담센터,031-919-5575,https://pf.kakao.com/_MZNRG,경기 고양시 일산서구 일산로 555 뉴타운상가 4층,경기도 고양시 일산서구 일산로 555 뉴타운상가 4층,정,경기도 고양시 일산서구 일산로 555 (일산동),126.76622283893488,37.67806641320494
비채 심리상담 센터,033-243-1527,https://blog.naver.com/hee320910,강원 춘천시 춘주로 60 2층 201호,강원도 춘천시 춘주로 60 2층 201호,정,강원특별자치도 춘천시 춘주로 60 (온의동),127.71681275445259,37.863542669967146
동탄드림심리상담센터,031-375-6755,https://www.instagram.com/dongtandreamcenter,경기 화성시 동탄역로 156 롯데캐슬오피스텔 B동 1111호,경기도 화성시 동탄역로 156 롯데캐슬오피스텔 B동 1111호,정,"경기도 화성시 동탄역로 156, B동 (오산동)",127.09704775495936,37.20096908703674
지우심리상담센터,0507-1421-1579,http://www.wisefriend.co.kr/,강원 원주시 서원대로 380 301호,강원도 원주시 서원대로 380 301호,정,강원특별자치도 원주시 서원대로 380 (단구동),127.94751476848356,37.33168252085236
느티나무 심리상담센터,031-889-8473,http://www.nttree.kr/,경기 용인시 수지구 현암로 82 대명제스트빌딩,경기도 용인시 수지구 현암로 82 대명제스트빌딩,정,경기도 용인시 수지구 현암로 82 (죽전동),127.1183992812393,37.33128277288523
초록발달심리상담센터,031-717-0075,http://www.green-child.co.kr/,경기 성남시 분당구 돌마로 47 이코로 샤르망 410호,경기도 성남시 분당구 돌마로 47 이코로 샤르망 410호,정,경기도 성남시 분당구 돌마로 47 (금곡동),127.1071882772599,37.350388191759016
강원진심리상담센터,033-745-3275,https://blog.naver.com/sweetykej,강원 원주시 황금로 23 204호,강원도 원주시 황금로 23 204호,정,강원특별자치도 원주시 황금로 23 (반곡동),127.98926845994208,37.32735803428366
브레인통합 심리상담센터 춘천점,033-243-4601,http://brain-totalhealth.co.kr/,강원 춘천시 동면 춘천로449번길 20-1 201호,강원도 춘천시 동면 춘천로449번길 20-1 201호,정,강원특별자치도 춘천시 춘천로449번길 20-1 (동면),127.75385215321243,37.89446816276861
춘천다온심리상담센터,0507-1489-5382,https://ccdaon.modoo.at,강원 춘천시 보안길 36 상가3동 2층 202호,강원도 춘천시 보안길 36 상가3동 2층 202호,정,강원특별자치도 춘천시 보안길 36 (후평동),127.75317635659627,37.877710938724654
WISE언어심리상담센터,0507-1419-7587,http://www.wisecenter.co.kr,경기 용인시 기흥구 흥덕2로87번길 18 A동 405호,경기도 용인시 기흥구 흥덕2로87번길 18 A동 405호,정,경기도 용인시 기흥구 흥덕2로87번길 18 (영덕동),127.07158949238232,37.27591226493302
허그맘허그인 심리상담센터 강원춘천센터,0507-1484-0040,,강원 춘천시 스무숲길 1 4층 허그맘 허그인,강원도 춘천시 스무숲길 1 4층 허그맘 허그인,정,강원특별자치도 춘천시 스무숲길 1 (석사동),127.74874655000309,37.85009411337567
노아심리상담센터,010-9469-9522,,강원 원주시 능라동길 51 6층 613호,강원도 원주시 능라동길 51 6층 613호,정,강원특별자치도 원주시 능라동길 51 (무실동),127.93015049147769,37.33483952100941
심리상담센터 아낌,033-263-1155,,강원 춘천시 소양강로 10 춘천지식산업센터 615호,강원도 춘천시 소양강로 10 춘천지식산업센터 615호,정,강원특별자치도 춘천시 소양강로 10 (후평동),127.74099611338553,37.8914343175529
심리상담센터 봄 그리고 마음,0507-1356-9722,https://blog.naver.com/mindfulmind_center,강원 춘천시 춘천로281번길 1 3층 심리상담센터 봄그리고마음,강원도 춘천시 춘천로281번길 1 3층 심리상담센터 봄그리고마음,정,강원특별자치도 춘천시 춘천로281번길 1 (후평동),127.74434555952949,37.880694991375684
온샘아동청소년심리상담센터,0507-1333-3077,https://blog.naver.com/5nsaem,경기 고양시 일산서구 주엽로 134 시대프라자 3층 307호,경기도 고양시 일산서구 주엽로 134 시대프라자 3층 307호,정,경기도 고양시 일산서구 주엽로 134 (주엽동),126.75810893198796,37.67070585407373
온마음심리상담센터,033-735-7942,https://onmaumcounsel.modoo.at,강원 원주시 봉황2길 17 해피플러스빌 4층 401호,강원도 원주시 봉황2길 17 해피플러스빌 4층 401호,정,강원특별자치도 원주시 봉황2길 17 (반곡동),127.9913143886125,37.33143401772975
허깅맘 심리상담센터,0507-1345-3871,http://cafe.naver.com/momilklove/,강원 강릉시 남부로17번길 28-1 205호,강원도 강릉시 남부로17번길 28-1 205호,정,강원특별자치도 강릉시 남부로17번길 28-1 (내곡동),128.88287689235963,37.74223111956029
심리상담센터 온새미마음공방,0507-1393-4105,https://onsaemimaum.modoo.at,강원 철원군 동송읍 금학로187번안길 15-17 2층 온새미마음공방,강원도 철원군 동송읍 금학로187번안길 15-17 2층 온새미마음공방,정,강원특별자치도 철원군 금학로187번안길 15-17 (동송읍),127.21812999401118,38.20482275805449
심리상담센터 이랑,,https://blog.naver.com/babyuniverse,강원 춘천시 동내면 외솔길19번길 61 102호,강원도 춘천시 동내면 외솔길19번길 61 102호,정,강원특별자치도 춘천시 외솔길19번길 61 (동내면),127.75652915048431,37.8579328987746
평내호평심리상담센터,031-591-0255,https://pyongnaehopyong.modoo.at,경기 남양주시 경춘로 1298 혜림빌딩 3층 314호,경기도 남양주시 경춘로 1298 혜림빌딩 3층 314호,정,경기도 남양주시 경춘로 1298 (평내동),127.23697360062772,37.64947630343198
마음샘 심리상담센터,033-256-1340,https://blog.naver.com/0218river,강원 춘천시 새롬공원길5번길 3 1층,강원도 춘천시 새롬공원길5번길 3 1층,정,강원특별자치도 춘천시 새롬공원길5번길 3 (석사동),127.74660174315166,37.852981284821944
김규나심리상담센터,0507-1382-0524,,강원 삼척시 새천년도로 507 2층,강원도 삼척시 새천년도로 507 2층,정,강원특별자치도 삼척시 새천년도로 507 (교동),129.17254115041771,37.4651730548433
동그라미심리상담센터,0507-1462-2858,https://blog.naver.com/ehdrmfkal2024,강원 춘천시 후석로228번길 5 1층,강원도 춘천시 후석로228번길 5 1층,정,강원특별자치도 춘천시 후석로228번길 5 (후평동),127.75327392941902,37.87192860301947
원주심리상담센터,033-762-7275,https://blog.naver.com/wjc7275,강원 원주시 단관길 102,강원도 원주시 단관길 102,정,강원특별자치도 원주시 단관길 102 (단구동),127.95783499691238,37.32070123367732
희망나무심리상담센터,0507-1308-8053,,강원 춘천시 후석로 247 후평프라자 3층,강원도 춘천시 후석로 247 후평프라자 3층,정,강원특별자치도 춘천시 후석로 247 (후평동),127.75235490555428,37.87357099145521
모래야놀자심리상담센터,,,강원 춘천시 만천로 51,강원도 춘천시 만천로 51,정,강원특별자치도 춘천시 만천로 51 (동면),127.76772632636072,37.8784631328552
심리상담센터 정원,0507-1407-5322,,강원 원주시 입춘로 45 C동 5층 510호,강원도 원주시 입춘로 45 C동 5층 510호,정,강원특별자치도 원주시 입춘로 45 (반곡동),127.97837955606488,37.327720750968986
마음숲심리상담센터,,,강원 춘천시 후만로 60,강원도 춘천시 후만로 60,정,강원특별자치도 춘천시 후만로 60 (후평동),127.75134692568402,37.875580562159826
허브심리상담센터,0507-1407-9203,https://naver.me/FS5sqRYw,강원 원주시 이화6길 84 2층,강원도 원주시 이화6길 84 2층,정,강원특별자치도 원주시 이화6길 84 (단계동),127.93070678034016,37.33932667999182
마음이음심리상담센터,0507-1456-7455,,강원 원주시 배울로 86 팰렉스골드 207호,강원도 원주시 배울로 86 팰렉스골드 207호,정,강원특별자치도 원주시 배울로 86 (반곡동),127.97823821394157,37.32462950870576
평화의 숲 통합심리상담센터,010-8674-3402,https://blog.naver.com/stmary9794,강원 원주시 평원초교길 32-1 201호,강원도 원주시 평원초교길 32-1 201호,정,강원특별자치도 원주시 평원초교길 32-1 (단계동),127.93268140899625,37.35042790783303
바울심리상담센터,0507-1340-7114,http://cafe.daum.net/paulpcc,강원 원주시 치악로 1803 남부시장 2층 바울심리상담센터,강원도 원주시 치악로 1803 남부시장 2층 바울심리상담센터,정,강원특별자치도 원주시 치악로 1803 (명륜동),127.95448026012083,37.343113527082146
이음과닿음심리상담센터,010-8673-0189,https://gnjoint.modoo.at,강원 강릉시 강릉대로 122 3층,강원도 강릉시 강릉대로 122 3층,정,강원특별자치도 강릉시 강릉대로 122 (교동),128.88439529839482,37.75588101537593
힐다임심리상담센터,010-2607-2312,http://cc.healdigm.co.kr/index.php?idx=c61c35d5d699ae/c61c35d69699b5/c61f28b2b4b7fc,강원 춘천시 퇴계농공로 16 2층 201호,강원도 춘천시 퇴계농공로 16 2층 201호,정,강원특별자치도 춘천시 퇴계농공로 16 (석사동),127.74434934943173,37.85188269932144
마음이심리상담센터,033-763-2255,http://maumecc.com/,강원 원주시 천매봉길 16-9,강원도 원주시 천매봉길 16-9,정,강원특별자치도 원주시 천매봉길 16-9 (단구동),127.94437849522882,37.32281563100677
마음챙김 심리상담센터,0507-1362-7954,,강원 화천군 사내면 하오재로 100-15 마음챙김심리상담센터,강원도 화천군 사내면 하오재로 100-15 마음챙김심리상담센터,정,강원특별자치도 화천군 하오재로 100-15 (사내면),127.47852537017148,38.08823292062401
바울심리상담센터횡성점,033-344-7114,,강원 횡성군 횡성읍 중앙로 14 3층,강원도 횡성군 횡성읍 중앙로 14 3층,정,강원특별자치도 횡성군 중앙로 14 (횡성읍),127.98442915549774,37.489112019910635
고센심리상담센터,0507-1356-6840,,강원 고성군 간성읍 쇠롱골길 5 1층,강원도 고성군 간성읍 쇠롱골길 5 1층,정,강원특별자치도 고성군 쇠롱골길 5 (간성읍),128.4646821781378,38.38135122561715
맘편한심리상담센터 원주점,0507-1370-1214,http://mindimagecare.co.kr/gnuboard4/,강원 원주시 솔우물2길 13-1 101호,강원도 원주시 솔우물2길 13-1 101호,정,강원특별자치도 원주시 솔우물2길 13-1 (무실동),127.92980537150345,37.32713794830443
서울심리상담센터,0507-1443-1154,,강원 원주시 한지공원길 25-21 서울심리상담센터 1층,강원도 원주시 한지공원길 25-21 서울심리상담센터 1층,정,강원특별자치도 원주시 한지공원길 25-21 (명륜동),127.942916587768,37.32865251051681
한마음심리상담센터,0507-1336-4483,https://blog.naver.com/chammokja,강원 원주시 남부시장길 2 해동A B동 상가 103호,강원도 원주시 남부시장길 2 해동A B동 상가 103호,정,"강원특별자치도 원주시 남부시장길 2, B동 (명륜동)",127.9544134003222,37.343923760566376
니하예술심리상담센터,010-9208-7884,https://blog.naver.com/sswan77,강원 정선군 정선읍 용담길 71 . 501호,강원도 정선군 정선읍 용담길 71 . 501호,정,강원특별자치도 정선군 용담길 71 (정선읍),128.64897488835751,37.37788679830359
횡성심리상담센터,0507-1302-4309,,강원 횡성군 횡성읍 어사매로 41,강원도 횡성군 횡성읍 어사매로 41,정,강원특별자치도 횡성군 어사매로 41 (횡성읍),127.99220016991202,37.489209964712416
봄뜨락 심리상담센터,010-7188-1549,https://xn--jk1bs3fkh60fh6ff0gwyaw2hhp8b.site,강원 춘천시 동내면 거두택지길 8 201호,강원도 춘천시 동내면 거두택지길 8 201호,정,강원특별자치도 춘천시 거두택지길 8 (동내면),127.75231320392119,37.85273654057308
아이마인드 심리상담센터,010-2645-1471,,강원 태백시 황지로 212-1 아이마인드심리상담센터,강원도 태백시 황지로 212-1 아이마인드심리상담센터,정,강원특별자치도 태백시 황지로 212-1 (황지동),128.98789397268345,37.17640494724046
아이비심리상담센터,0507-1323-1384,,강원 원주시 능라동길 42 3층 304호,강원도 원주시 능라동길 42 3층 304호,정,강원특별자치도 원주시 능라동길 42 (무실동),127.92922538185022,37.33383151008338
혁신 심리상담센터,,,강원 원주시 혁신로 19,강원도 원주시 혁신로 19,정,강원특별자치도 원주시 혁신로 19 (반곡동),127.97705168685414,37.32503859770724
숲아동발달클리닉,,,강원 원주시 서원대로 170 재영빌딩,강원도 원주시 서원대로 170 재영빌딩,정,강원특별자치도 원주시 서원대로 170 (단계동),127.93027763444444,37.3439198297587
원진심리상담센터,033-643-8911,,강원 강릉시 율곡로 2796 3층,강원도 강릉시 율곡로 2796 3층,정,강원특별자치도 강릉시 율곡로 2796 (성남동),128.90111208376572,37.75465860790339
심리상담센터 보다,0507-1316-3475,https://blog.naver.com/bodacommunity,강원 춘천시 칠전동2길 16-5 1층,강원도 춘천시 칠전동2길 16-5 1층,정,강원특별자치도 춘천시 칠전동2길 16-5 (칠전동),127.71467840650432,37.843543000226205
원주시청소년상담복지센터,033-744-1388,http://www.wonju1388.kr/,강원 원주시 서원대로 234 YMCA청소년수련장,강원도 원주시 서원대로 234 YMCA청소년수련장,정,강원특별자치도 원주시 서원대로 234 (단계동),127.93563690571511,37.34096075739041
춘천 최면심리상담센터,0507-1486-1311,https://soulguide.modoo.at/,강원 춘천시 효자로 104 2층 춘천 최면심리상담센터,강원도 춘천시 효자로 104 2층 춘천 최면심리상담센터,정,강원특별자치도 춘천시 효자로 104 (효자동),127.73369792692603,37.87187813399661
강릉율곡병원Wee센터,033-642-1137,http://ygwee.modoo.at,강원 강릉시 선수촌로 132 3층,강원도 강릉시 선수촌로 132 3층,정,강원특별자치도 강릉시 선수촌로 132 (유천동),128.87038359592017,37.76280983926011
강원특별자치도청소년상담복지센터,033-256-2000,http://www.gycc.org/,강원 춘천시 중앙로 14 2층,강원도 춘천시 중앙로 14 2층,정,강원특별자치도 춘천시 중앙로 14 (요선동),127.72880707782991,37.88360256957464
들꽃심리상담센터,0507-1406-3789,,강원 원주시 섭재길 82 2층,강원도 원주시 섭재길 82 2층,정,강원특별자치도 원주시 섭재길 82 (관설동),127.9852193915776,37.30345866736704
아동청소년발달센터 프롬아이,0507-1388-1179,https://blog.naver.com/fromi79,강원 원주시 늘품로 187-58 현대아카데미프라자 2층,강원도 원주시 늘품로 187-58 현대아카데미프라자 2층,정,강원특별자치도 원주시 늘품로 187-58 (단구동),127.96409220755179,37.33740887161837
브레인통합심리상담센터 원주점,033-742-7720,http://brain-totalhealth.co.kr,강원 원주시 봉바위길 13-1 202호,강원도 원주시 봉바위길 13-1 202호,정,강원특별자치도 원주시 봉바위길 13-1 (무실동),127.93223891268882,37.33244675234009
이소심리상담센터,0507-1346-6063,,강원 춘천시 소전길 33-1 2층,강원도 춘천시 소전길 33-1 2층,정,강원특별자치도 춘천시 소전길 33-1 (효자동),127.7335966373637,37.8714727959837
시야심리상담센터,010-9080-8318,,강원 원주시 고문골길 33-8,강원도 원주시 고문골길 33-8,정,강원특별자치도 원주시 고문골길 33-8 (행구동),128.00569934937454,37.34192632494016
세연아동발달연구소,033-765-0188,http://cafe.daum.net/sycenter/,강원 원주시 능라동길 75 2층 204호 휴먼시티,강원도 원주시 능라동길 75 2층 204호 휴먼시티,정,강원특별자치도 원주시 능라동길 75 (무실동),127.92993609641255,37.33285721479462
반갑다안녕 심리상담센터,0507-1453-4221,,강원 양양군 양양읍 남문로 19 2층,강원도 양양군 양양읍 남문로 19 2층,정,강원특별자치도 양양군 남문로 19 (양양읍),128.620202595024,38.073632854377735
김영아놀이치료센터,033-257-2313,https://blog.naver.com/lilip051,강원 춘천시 퇴계농공로 16 펠리즈프라자 2층 201호,강원도 춘천시 퇴계농공로 16 펠리즈프라자 2층 201호,정,강원특별자치도 춘천시 퇴계농공로 16 (석사동),127.74434934943173,37.85188269932144
나우심리상담센터,,,강원 철원군 동송읍 이평로131번길 1 금강산볼링장,강원도 철원군 동송읍 이평로131번길 1 금강산볼링장,정,강원특별자치도 철원군 이평로131번길 1 (동송읍),127.20994207589452,38.20728509464001
홍천군청소년상담복지센터,033-433-1386,http://www.hcyc1388.org/,강원 홍천군 홍천읍 산림공원2길 31,강원도 홍천군 홍천읍 산림공원2길 31,정,강원특별자치도 홍천군 산림공원2길 31 (홍천읍),127.89525200031838,37.68983984079353
한섬심리상담센터 부설 한국시니어정신건강센터,0507-1348-9026,,강원 동해시 감추6길 34-1 3층 서호,강원도 동해시 감추6길 34-1 3층 서호,정,강원특별자치도 동해시 감추6길 34-1 (천곡동),129.1215814160276,37.5189329186411
동해시시립노인심리상담센터,,,강원 동해시 감추7길 50,강원도 동해시 감추7길 50,정,강원특별자치도 동해시 감추7길 50 (천곡동),129.122785167429,37.51509322561146
시소 강릉시청소년성문화센터,033-655-1318,http://www.gnsay1318.or.kr/,강원 강릉시 종합운동장길 72-21 강릉시청소년수련관,강원도 강릉시 종합운동장길 72-21 강릉시청소년수련관,정,강원특별자치도 강릉시 종합운동장길 72-21 (교동),128.8937769782646,37.772044770999955
강원특별자치도학교밖청소년지원센터,0507-1345-9805,https://www.gwdream.or.kr/,강원 춘천시 중앙로 14 1층,강원도 춘천시 중앙로 14 1층,정,강원특별자치도 춘천시 중앙로 14 (요선동),127.72880707782991,37.88360256957464
권효정아동청소년발달연구소,033-735-0638,,강원 원주시 서원대로 121-1,강원도 원주시 서원대로 121-1,정,강원특별자치도 원주시 서원대로 121-1 (단계동),127.92688230966095,37.34687186744254
리쓴투다온상담소,033-631-2622,,강원 속초시 동해대로 4236 아남프라자 9층 902호,강원도 속초시 동해대로 4236 아남프라자 9층 902호,정,강원특별자치도 속초시 동해대로 4236 (교동),128.5777139417788,38.19727723014591
길심리상담센터,0507-1346-6063,,강원 춘천시 소전길 33-1 2층,강원도 춘천시 소전길 33-1 2층,정,강원특별자치도 춘천시 소전길 33-1 (효자동),127.7335966373637,37.8714727959837
나우리아동청소년상담센터,033-655-7533,https://nawoori.modoo.at/,강원 강릉시 강릉대로 537,강원도 강릉시 강릉대로 537,정,강원특별자치도 강릉시 강릉대로 537 (포남동),128.9182161514228,37.779846967090386
연세주니어상담센터,033-762-9964,https://blog.naver.com/soul_junior_,강원 원주시 능라동길 3,강원도 원주시 능라동길 3,정,강원특별자치도 원주시 능라동길 3 (무실동),127.92617862098211,37.33158423019905
원주Wee센터,033-760-5691,,강원 원주시 단구로 151 원주교육청,강원도 원주시 단구로 151 원주교육청,정,강원특별자치도 원주시 단구로 151 (명륜동),127.94631774727921,37.33832659986215
속초시청소년상담복지센터,033-638-1388,http://www.sokcho1388.org,강원 속초시 관광로 377,강원도 속초시 관광로 377,정,강원특별자치도 속초시 관광로 377 (노학동),128.53843417207352,38.19382778963815
새이웃심리상담센터,033-766-3525,https://blog.naver.com/kw731,강원 원주시 서원대로 500 원주프리미엄아울렛,강원도 원주시 서원대로 500 원주프리미엄아울렛,정,강원특별자치도 원주시 서원대로 500 (단구동),127.95777595319812,37.32517212391484
강원특별자치도청소년상담복지센터 봄내친구랑,033-243-8181,http://www.gycc.org/gycc2016/gycc/index.php,강원 춘천시 중앙로 14 강원특별자치도청소년상담복지센터 1층,강원도 춘천시 중앙로 14 강원특별자치도청소년상담복지센터 1층,정,강원특별자치도 춘천시 중앙로 14 (요선동),127.72880707782991,37.88360256957464
동산심리상담센터,0507-1315-0817,https://gracedongsan.modoo.at,강원 원주시 반곡길 77 301호,강원도 원주시 반곡길 77 301호,정,강원특별자치도 원주시 반곡길 77 (반곡동),127.9662526449215,37.33603299824159
춘천청소년비행예방센터,033-244-9890,,강원 춘천시 영서로2279번길 3,강원도 춘천시 영서로2279번길 3,정,강원특별자치도 춘천시 영서로2279번길 3 (온의동),127.72141459943701,37.864534521504375
맑은마음 아동발달센터,0507-1374-0656,https://blog.naver.com/jjeong606,강원 철원군 동송읍 이평2로 23,강원도 철원군 동송읍 이평2로 23,정,강원특별자치도 철원군 이평2로 23 (동송읍),127.22199199884774,38.20681634279477
마음나래,033-733-2469,,강원 원주시 우산공단길 23 상가 2층 201호,강원도 원주시 우산공단길 23 상가 2층 201호,정,강원특별자치도 원주시 우산공단길 23 (우산동),127.94105518049508,37.37261694054389
춘천시청년마음건강센터 청춘포레스트,,,강원 춘천시 퇴계로 95 3층,강원도 춘천시 퇴계로 95 3층,정,강원특별자치도 춘천시 퇴계로 95 (퇴계동),127.7310597233332,37.8622218787833
강원동부아동보호전문기관,033-644-1391,,강원 강릉시 솔올로5번길 33,강원도 강릉시 솔올로5번길 33,정,강원특별자치도 강릉시 솔올로5번길 33 (교동),128.8749562771936,37.76391602930698
참샘 심리상담 교육센터,033-762-6412,,"강원 원주시 개운로 30 2층 211호(개운동, 휴먼시아 원주개운1단 지)","강원도 원주시 개운로 30 2층 211호(개운동, 휴먼시아 원주개운1단 지)",정,강원특별자치도 원주시 개운로 30 (개운동),127.95429701113308,37.33818249135378
원주세브란스기독병원Wee센터,,http://www.wonjuseverancewee.co.kr/,강원 원주시 천사로 190 2층,강원도 원주시 천사로 190 2층,정,강원특별자치도 원주시 천사로 190 (일산동),127.945321731591,37.350303163372686
강원대학교병원 WEE센터,033-255-0819,https://blog.naver.com/knuhwee,강원 춘천시 춘천로204번길 53-1 2층,강원도 춘천시 춘천로204번길 53-1 2층,정,강원특별자치도 춘천시 춘천로204번길 53-1 (효자동),127.74196319814163,37.87455800113092
횡성Wee센터,033-340-0362,,강원 횡성군 횡성읍 한우로242번길 9 횡성교육청,강원도 횡성군 횡성읍 한우로242번길 9 횡성교육청,정,강원특별자치도 횡성군 한우로242번길 9 (횡성읍),127.98108943051595,37.491949181743315
강원특별자치도동해교육지원청 wee센터,033-530-3048,,강원 동해시 천곡로 117 3층,강원도 동해시 천곡로 117 3층,정,강원특별자치도 동해시 천곡로 117 (천곡동),129.11732174031832,37.52540197701754
강원특별자치도청소년성문화센터,033-255-6651,http://www.isay.or.kr/,강원 춘천시 신샘밭로 89 2층 강원특별자치도청소년성문화센터,강원도 춘천시 신샘밭로 89 2층 강원특별자치도청소년성문화센터,정,강원특별자치도 춘천시 신샘밭로 89 (사농동),127.72017656105845,37.92274927556727
봄마음상담소,0507-1310-1927,,강원 춘천시 퇴계로145번길 7-8 1층,강원도 춘천시 퇴계로145번길 7-8 1층,정,강원특별자치도 춘천시 퇴계로145번길 7-8 (퇴계동),127.73562945093204,37.860247653621975
인문치유심리상담연구소,0507-1317-2573,,강원 속초시 교동로 38 2층,강원도 속초시 교동로 38 2층,정,강원특별자치도 속초시 교동로 38 (교동),128.57877388807233,38.202676670366806
속초양양Wee센터,033-639-6054,,강원 속초시 미시령로 3336,강원도 속초시 미시령로 3336,정,강원특별자치도 속초시 미시령로 3336 (교동),128.57246421167596,38.204847832905216
강릉심리상담연구소,033-646-8897,,강원 강릉시 정원로 44,강원도 강릉시 정원로 44,정,강원특별자치도 강릉시 정원로 44 (교동),128.8768731338039,37.762317893701194
정선군청소년상담복지센터,033-591-1313,,강원 정선군 사북읍 사북6길 8,강원도 정선군 사북읍 사북6길 8,정,강원특별자치도 정선군 사북6길 8 (사북읍),128.8198198339068,37.228192068297474
서우언어학습심리연구소,0507-1307-2877,http://seowoopsy.modoo.at,강원 원주시 북원로 2660,강원도 원주시 북원로 2660,정,강원특별자치도 원주시 북원로 2660 (태장동),127.94712531937492,37.380980150967346
미소아동청소년발달센터,0507-1357-4824,https://blog.naver.com/misosicenter,강원 홍천군 홍천읍 갈마로8길 11 2층,강원도 홍천군 홍천읍 갈마로8길 11 2층,정,강원특별자치도 홍천군 갈마로8길 11 (홍천읍),127.90312163968741,37.69386234417757
해밀상담센터,033-372-5778,,강원 영월군 영월읍 중리1길 172-34,강원도 영월군 영월읍 중리1길 172-34,정,강원특별자치도 영월군 중리1길 172-34 (영월읍),128.48538457126014,37.18272533860418
영월군청소년상담복지센터,033-375-1318,http://www.kyw1318.or.kr/,강원 영월군 영월읍 제방안길 100 영월스포츠파크,강원도 영월군 영월읍 제방안길 100 영월스포츠파크,정,강원특별자치도 영월군 제방안길 100 (영월읍),128.46491520184878,37.17695091093048
강원도강릉교육지원청 wee센터,033-640-1280,http://wee.gwgned.go.kr/,강원 강릉시 노암등길 39 강원특별자치도강릉교육지원청 청사,강원도 강릉시 노암등길 39 강원특별자치도강릉교육지원청 청사,정,강원특별자치도 강릉시 노암등길 39 (노암동),128.9001915704048,37.745667758968054
홍천교육지원청Wee센터,033-430-1166,http://pf.kakao.com/_JClrxb,강원 홍천군 꽃뫼로 95,강원도 홍천군 꽃뫼로 95,정,강원특별자치도 홍천군 꽃뫼로 95 (홍천읍),127.88433915589849,37.69177734866447
세이 사회적협동조합,010-8112-1366,https://blog.naver.com/2018-say,강원 원주시 상지대길 83 대학원관1층,강원도 원주시 상지대길 83 대학원관1층,정,강원특별자치도 원주시 상지대길 83 (우산동),127.92991506185191,37.36911927321729
춘천Wee센터,033-259-1671,,강원 춘천시 춘천로145번길 18 춘천시교육청,강원도 춘천시 춘천로145번길 18 춘천시교육청,정,강원특별자치도 춘천시 춘천로145번길 18 (약사동),127.72933432534334,37.87714789053667
강원도고성교육지원청 Wee센터,033-680-6035,,강원 고성군 간성로 80,강원도 고성군 간성로 80,정,강원특별자치도 고성군 간성로 80 (간성읍),128.46618255823049,38.38004960116479
마음놀이터,0507-1377-1441,,강원 강릉시 임영로116번안길 10 3층,강원도 강릉시 임영로116번안길 10 3층,정,강원특별자치도 강릉시 임영로116번안길 10 (금학동),128.8942614584105,37.752987060991806
마음길,0507-1421-9102,http://maeumgil.org/,경북 경산시 압량읍 부적길 22 2층,경상북도 경산시 압량읍 부적길 22 2층,정,경상북도 경산시 부적길 22 (압량읍),128.7595282511348,35.84166505610884
화천WEE센터,,,강원 화천군 화천읍 상승로3길 22,강원도 화천군 화천읍 상승로3길 22,정,강원특별자치도 화천군 상승로3길 22 (화천읍),127.70418485030531,38.10677746728469
철원군청소년상담복지센터,033-452-1388,,강원 철원군 갈말읍 명성로179번길 26,강원도 철원군 갈말읍 명성로179번길 26,정,강원특별자치도 철원군 명성로179번길 26 (갈말읍),127.30474727323814,38.14795323131172
태백시청소년상담복지센터,033-582-1377,http://www.tb1388.kr,강원 태백시 태백로 1663,강원도 태백시 태백로 1663,정,강원특별자치도 태백시 태백로 1663 (문곡동),129.00500946906473,37.11951183648115
더감동심리상담센터,0507-1321-2663,,경북 경산시 성암로21길 4-13 105호,경상북도 경산시 성암로21길 4-13 105호,정,경상북도 경산시 성암로21길 4-13 (옥산동),128.72865669637582,35.82539442984444
아이들아청소년상담센터,0507-1364-9031,,강원 원주시 판부면 금대길 15-8 1층,강원도 원주시 판부면 금대길 15-8 1층,정,강원특별자치도 원주시 금대길 15-8 (판부면),127.99600104424204,37.289892363482814
평창군청소년상담복지센터,033-335-0924,http://www.pc1388.or.kr/aKor/index.php,강원 평창군 평창읍 종부로 61 사회복지센터 3층 평창군청소년상담복지센터,강원도 평창군 평창읍 종부로 61 사회복지센터 3층 평창군청소년상담복지센터,정,강원특별자치도 평창군 종부로 61 (평창읍),128.38911330744764,37.36061645862691
마음봄심리상담센터,0507-1415-7583,https://www.instagram.com/maeum.bom,경북 경산시 대학로 285 3층 마음봄 심리상담센터,경상북도 경산시 대학로 285 3층 마음봄 심리상담센터,정,경상북도 경산시 대학로 285 (대동),128.75350482460752,35.83692577186928
브렌하트 심리상담센터,054-283-5070,http://bh.webable.kr,경북 포항시 남구 효성로93번길 22-16 다온빌딩 3층,경상북도 포항시 남구 효성로93번길 22-16 다온빌딩 3층,정,경상북도 포항시 남구 효성로93번길 22-16 (효자동),129.3424882543269,36.0070597091366
재미난지역아동센터,033-631-4701,,강원 고성군 토성면 아야진길 55-3,강원도 고성군 토성면 아야진길 55-3,정,강원특별자치도 고성군 아야진길 55-3 (토성면),128.55426338251894,38.27389555658046
온마인드 심리상담센터,0507-1442-8938,http://onmind.kr,경북 경주시 황성로 27 3층,경상북도 경주시 황성로 27 3층,정,경상북도 경주시 황성로 27 (황성동),129.21426693336764,35.865591110635435
꼬꼬마아띠아동상담센터,033-746-7517,,강원 원주시 문막읍 동화택지길 3-4,강원도 원주시 문막읍 동화택지길 3-4,정,강원특별자치도 원주시 동화택지길 3-4 (문막읍),127.83047797392706,37.32348289901252
횡성가족상담센터,033-342-0676,,강원 횡성군 횡성읍 태기로 64 1층 횡성가족상담센터,강원도 횡성군 횡성읍 태기로 64 1층 횡성가족상담센터,정,강원특별자치도 횡성군 태기로 64 (횡성읍),127.99083582375677,37.490995137248284
이음심리상담센터,0507-1417-9559,https://blog.naver.com/toplay222,경북 안동시 경동로 526 3F,경상북도 안동시 경동로 526 3F,유,경상북도 안동시 경동로 526 (태화동),128.71511921341627,36.56346003571823
심리상담센터 잇다,054-285-2855,http://itda2.com,경북 포항시 남구 대이로1번길 10 정우빌딩 2층,경상북도 포항시 남구 대이로1번길 10 정우빌딩 2층,정,경상북도 포항시 남구 대이로1번길 10 (대잠동),129.34361699936787,36.0155143327961
라파엘아동발달센터,0507-1340-9474,https://blog.naver.com/raphael9474,경북 김천시 혁신3로 5 2층 204호,경상북도 김천시 혁신3로 5 2층 204호,정,경상북도 김천시 혁신3로 5 (율곡동),128.18331148547182,36.11787012870665
정선Wee센터,033-562-5877,,강원 정선군 정선읍 봉양4길 9 정선교육도서관 앞,강원도 정선군 정선읍 봉양4길 9 정선교육도서관 앞,정,강원특별자치도 정선군 봉양4길 9 (정선읍),128.66234062123795,37.37810879248409
횡성군청소년상담복지센터,033-344-1388,https://hsg1388.modoo.at/,강원 횡성군 횡성읍 문예로 75,강원도 횡성군 횡성읍 문예로 75,정,강원특별자치도 횡성군 문예로 75 (횡성읍),127.97426091453876,37.48837373885582
제나심리언어발달센터,0507-1307-1415,https://blog.naver.com/hkainm77,"경북 경산시 남매공원로1길 1 204호, 502호","경상북도 경산시 남매공원로1길 1 204호, 502호",정,경상북도 경산시 남매공원로1길 1 (계양동),128.74158921053225,35.83280384822346
한국학습클리닉센터,033-262-0923,http://www.isangdam-cc.org/,강원 춘천시 퇴계농공로 16,강원도 춘천시 퇴계농공로 16,정,강원특별자치도 춘천시 퇴계농공로 16 (석사동),127.74434934943173,37.85188269932144
허그맘허그인 심리상담센터 포항점,054-232-9660,https://www.hugmom.co.kr/branch/main/main.html?jijummid=pohang&src=viral&kw=000104,경북 포항시 북구 양덕남로 73 하주빌딩,경상북도 포항시 북구 양덕남로 73 하주빌딩,정,경상북도 포항시 북구 양덕남로 73 (양덕동),129.40031178017145,36.07870031261942
안동교육지원청학교교육지원센터,054-859-9520,http://www.kbade.kr/wee/,경북 안동시 영호6길 26,경상북도 안동시 영호6길 26,정,경상북도 안동시 영호6길 26 (옥야동),128.72342391022914,36.56237921620343
아란아동청소년발달센터,0507-1386-4216,https://blog.naver.com/bliss7010,경북 포항시 북구 장량로 55 한주빌딩 2층,경상북도 포항시 북구 장량로 55 한주빌딩 2층,정,경상북도 포항시 북구 장량로 55 (장성동),129.3864249994448,36.08279618045075
마음과마음 심리상담센터,0507-1424-9917,https://momwithmom.modoo.at,경북 포항시 남구 대이로41번길 4-1,경상북도 포항시 남구 대이로41번길 4-1,정,경상북도 포항시 남구 대이로41번길 4-1 (대잠동),129.34142591419985,36.019024482902914
심리상담연구소 내마음,0507-1358-1969,https://linkfly.to/41102Gl5az0,강원 춘천시 춘천로 312 춘천향군회관 1층,강원도 춘천시 춘천로 312 춘천향군회관 1층,정,강원특별자치도 춘천시 춘천로 312 (후평동),127.74772248569619,37.88174599927822
토리아동발달센터,054-653-5990,,경북 예천군 호명면 새움1로 9 6층 토리아동발달센터,경상북도 예천군 호명면 새움1로 9 6층 토리아동발달센터,정,경상북도 예천군 새움1로 9 (호명읍),128.4899499863838,36.575834526025815
마음온도심리상담센터,0507-1383-3146,https://www.instagram.com/mom_on_gumi,경북 구미시 산호대로33길 6-53 1층,경상북도 구미시 산호대로33길 6-53 1층,정,경상북도 구미시 산호대로33길 6-53 (옥계동),128.42458384582983,36.137169446198534
더 맑음 심리상담센터,054-435-8221,,경북 김천시 혁신로 185 메타폴리스 2층 211호,경상북도 김천시 혁신로 185 메타폴리스 2층 211호,정,경상북도 김천시 혁신로 185 (율곡동),128.18393742357958,36.11752213664974
들풀음악심리발달센터,0507-1354-1965,,경북 경산시 펜타힐즈2로 7 601호,경상북도 경산시 펜타힐즈2로 7 601호,정,경상북도 경산시 펜타힐즈2로 7 (중산동),128.7156628441282,35.82643731180973
칠곡Wee센터,054-800-8041,,경북 칠곡군 포망로 10 2동 교육지원센터 2층,경상북도 칠곡군 포망로 10 2동 교육지원센터 2층,정,경상북도 칠곡군 포망로 10 (석적읍),128.40991993022138,36.05085721710793
포항시청소년상담복지센터,054-252-0020,https://www.phyf.or.kr/,경북 포항시 북구 삼호로 533 청소년수련관 2층 청소년상담복지센터,경상북도 포항시 북구 삼호로 533 청소년수련관 2층 청소년상담복지센터,정,경상북도 포항시 북구 삼호로 533 (환호동),129.39598247448674,36.0753972838808
한국비비에스운동 강원도연맹,033-655-1400,,강원 강릉시 율곡로2874번길 6,강원도 강릉시 율곡로2874번길 6,정,강원특별자치도 강릉시 율곡로2874번길 6 (교동),128.89579583953795,37.76010613220058
구미시청소년상담복지센터,054-472-2000,http://www.youthcoc.org/,경북 구미시 구미중앙로11길 13,경상북도 구미시 구미중앙로11길 13,정,경상북도 구미시 구미중앙로11길 13 (원평동),128.33066294640102,36.1304557278801
경상북도청소년상담복지센터,054-850-1000,,경북 안동시 축제장길 20,경상북도 안동시 축제장길 20,정,경상북도 안동시 축제장길 20 (옥야동),128.72203074236245,36.55879704065366
K운동발달연구원,0507-1445-8906,https://kmotor.modoo.at,경북 포항시 북구 법원로97번길 24-9,경상북도 포항시 북구 법원로97번길 24-9,정,경상북도 포항시 북구 법원로97번길 24-9 (장성동),129.38259340152618,36.083947846560505
예은예술심리상담센터,010-2407-7401,,경북 구미시 임은길 57 대동타운상가동 2층,경상북도 구미시 임은길 57 대동타운상가동 2층,정,경상북도 구미시 임은길 57 (임은동),128.36883801748832,36.08907074680353
구미아동청소년상담센터,0507-1328-2292,https://gumicounseling.modoo.at,경북 구미시 옥계북로 26,경상북도 구미시 옥계북로 26,정,경상북도 구미시 옥계북로 26 (옥계동),128.42024362415484,36.138214674667026
우리교실웃는아이,054-282-5304,,경북 포항시 남구 대이로9번길 3,경상북도 포항시 남구 대이로9번길 3,정,경상북도 포항시 남구 대이로9번길 3 (대잠동),129.3434047305809,36.016289905592146
나래울 감각통합발달센터,0507-1367-4598,http://instagram.com/naraeul.si,경북 포항시 북구 장량중앙로 52 201호,경상북도 포항시 북구 장량중앙로 52 201호,정,경상북도 포항시 북구 장량중앙로 52 (양덕동),129.38749901764058,36.08990293773306
경주시청소년상담복지센터,054-742-1388,,경북 경주시 알천북로 131 경주시청소년수련관,경상북도 경주시 알천북로 131 경주시청소년수련관,정,경상북도 경주시 알천북로 131 (황성동),129.21589828423706,35.85512316273143
경산시청소년상담복지센터,053-819-6400,http://gbgs.go.kr/special/young/index.do,경북 경산시 서상길 75 경산문화원,경상북도 경산시 서상길 75 경산문화원,정,경상북도 경산시 서상길 75 (서상동),128.7341059579109,35.81841216592321
엘리스아동심리발달센터,0507-1336-9763,https://blog.naver.com/ellisyou,경북 영천시 시장로 106 고은스퀘어 401호,경상북도 영천시 시장로 106 고은스퀘어 401호,정,경상북도 영천시 시장로 106 (완산동),128.94184498395947,35.96340913846793
상주시청소년상담복지센터,054-535-3511,http://www.sj7942.org/,경북 상주시 왕산로 219-11,경상북도 상주시 왕산로 219-11,정,경상북도 상주시 왕산로 219-11 (남성동),128.16227014227414,36.41519385325121
봄날아동발달연구소,054-615-6115,https://blog.naver.com/yyy0jjj,경북 포항시 북구 장량로 38 3층,경상북도 포항시 북구 장량로 38 3층,정,경상북도 포항시 북구 장량로 38 (장성동),129.384528776301,36.082436872493275
우행시 심리상담 연구소,054-475-9869,https://blog.naver.com/wu_haengsi,경북 구미시 인동가산로 337-84 1층,경상북도 구미시 인동가산로 337-84 1층,정,경상북도 구미시 인동가산로 337-84 (구평동),128.447127652821,36.09353276976599
경산예술심리연구소,,,경북 경산시 중앙로14길 8-1,경상북도 경산시 중앙로14길 8-1,정,경상북도 경산시 중앙로14길 8-1 (중방동),128.73429873635732,35.821630511535346
포항Wee센터,054-726-0079,,경북 포항시 북구 서동로47번길 23 포항초등학교 내 4동 2층 Wee센터,경상북도 포항시 북구 서동로47번길 23 포항초등학교 내 4동 2층 Wee센터,정,경상북도 포항시 북구 서동로47번길 23 (덕산동),129.3639699434317,36.04278784192681
리틀마리에듀,0507-1424-6933,,경북 구미시 고아읍 문장로26길 11 104동 마을문고(리틀마리에듀),경상북도 구미시 고아읍 문장로26길 11 104동 마을문고(리틀마리에듀),정,"경상북도 구미시 문장로26길 11, 104동 (고아읍)",128.33101620902178,36.15327488885316
봉화군청청소년센터,054-679-6681,,경북 봉화군 봉화읍 내성로1길 17-20,경상북도 봉화군 봉화읍 내성로1길 17-20,정,경상북도 봉화군 내성로1길 17-20 (봉화읍),128.73904855732738,36.887869032770745
바움심리언어발달센터,054-655-5999,,경북 예천군 호명면 도청대로 201 5층,경상북도 예천군 호명면 도청대로 201 5층,정,경상북도 예천군 도청대로 201 (호명읍),128.48874055363277,36.57541060515297
마음채움,054-977-3650,,경북 칠곡군 왜관읍 중앙로6길 2,경상북도 칠곡군 왜관읍 중앙로6길 2,정,경상북도 칠곡군 중앙로6길 2 (왜관읍),128.39897435510906,35.992297160845936
운경심리상담센터,010-8533-4984,,경북 경산시 원효로32길 29 계양 종합상가 1층 106호,경상북도 경산시 원효로32길 29 계양 종합상가 1층 106호,정,경상북도 경산시 원효로32길 29 (사동),128.75279545506226,35.8181961571206
김천Wee센터,054-437-0994,,경북 김천시 원곡길 8 김천서부초등학교 4동 2층,경상북도 김천시 원곡길 8 김천서부초등학교 4동 2층,정,경상북도 김천시 원곡길 8 (부곡동),128.1061156899622,36.121870765828305
아이사랑아동청소년발달센터,054-555-7772,,경북 문경시 반쟁이4길 15,경상북도 문경시 반쟁이4길 15,정,경상북도 문경시 반쟁이4길 15 (모전동),128.18938777858207,36.59330739878314
크는아이 언어심리연구소,010-2561-1739,https://blog.naver.com/growup0420,경북 포항시 남구 효성로 81 2층 202호,경상북도 포항시 남구 효성로 81 2층 202호,정,경상북도 포항시 남구 효성로 81 (효자동),129.34279492338067,36.005950203095374
경산교육지원청Wee센터,,,경북 경산시 원효로 309-6 경산교육청,경상북도 경산시 원효로 309-6 경산교육청,정,경상북도 경산시 원효로 309-6 (갑제동),128.7698528144848,35.81588799656081
아이중심감각통합발달센터,054-773-7279,,경북 경주시 용황로 12,경상북도 경주시 용황로 12,정,경상북도 경주시 용황로 12 (황성동),129.2194799769703,35.88206243287955
김혜선심리발달상담센터,054-620-2989,https://blog.naver.com/kimplay2023,경북 경주시 금성로319번길 12-2 1층 101호,경상북도 경주시 금성로319번길 12-2 1층 101호,정,경상북도 경주시 금성로319번길 12-2 (성건동),129.20581825632814,35.84644095700041
구미교육지원청WEE센터,054-465-6280,,경북 구미시 신비로3길 37-8,경상북도 구미시 신비로3길 37-8,정,경상북도 구미시 신비로3길 37-8 (신평동),128.36475749343774,36.126182197657
경상북도 청소년성문화센터,054-436-0218,http://www.gbsay.com/,경북 김천시 아포읍 대성지1길 593-43 경상북도청소년수련관,경상북도 김천시 아포읍 대성지1길 593-43 경상북도청소년수련관,정,경상북도 김천시 대성지1길 593-43 (아포읍),128.2820164439153,36.12498603033523
우리아이발달상담센터,053-811-7501,,경북 경산시 장산로 263,경상북도 경산시 장산로 263,정,경상북도 경산시 장산로 263 (사동),128.7531726095227,35.817591350851416
울진Wee센터,054-782-9199,http://www.uljin-ed.go.kr/wee/,경북 울진군 근남면 진복길 1 진복관,경상북도 울진군 근남면 진복길 1 진복관,정,경상북도 울진군 진복길 1 (근남면),129.41516193355486,36.92885919106771
마음자람아동청소년상담센터,054-434-5979,,경북 김천시 삼락택지길 73,경상북도 김천시 삼락택지길 73,정,경상북도 김천시 삼락택지길 73 (삼락동),128.09618174607667,36.14341721608489
문경시청소년상담복지센터,054-556-3000,,경북 문경시 중앙로 50,경상북도 문경시 중앙로 50,정,경상북도 문경시 중앙로 50 (모전동),128.19628611144108,36.59001984032546
같은마음,0507-1318-2460,https://blog.naver.com/ssargae81,경북 포항시 남구 새천년대로410번길 20 201동 202호,경상북도 포항시 남구 새천년대로410번길 20 201동 202호,정,경상북도 포항시 남구 새천년대로410번길 20 (대잠동),129.34456986374252,36.01167383893305
더공감예술심리상담연구소,0507-1354-6343,,"경북 구미시 상사동로 155 . 5층(사곡동, 동명빌딩)","경상북도 구미시 상사동로 155 . 5층(사곡동, 동명빌딩)",정,경상북도 구미시 상사동로 155 (사곡동),128.35876226081447,36.09838648250319
보배심리상담연구소,0507-1304-4239,https://m.expert.naver.com/expert/profile/home?storeId=100003590,경북 경산시 경청로222길 8 신나리아파트 104동104호,경상북도 경산시 경청로222길 8 신나리아파트 104동104호,정,"경상북도 경산시 경청로222길 8, 104동 (백천동)",128.74022281545453,35.802508209840056
아동가족상담센터 토닥,010-5643-5745,,경북 구미시 선산읍 동교3길 6-47,경상북도 구미시 선산읍 동교3길 6-47,정,경상북도 구미시 동교3길 6-47 (선산읍),128.30240730405632,36.24781567881795
김천시청소년상담복지센터,054-431-2009,,경북 김천시 문당길 142 청소년문화의집 3층,경상북도 김천시 문당길 142 청소년문화의집 3층,정,경상북도 김천시 문당길 142 (삼락동),128.09334927215966,36.14474127121226
영주아동발달센터,054-632-0690,,경북 영주시 구성로 184,경상북도 영주시 구성로 184,정,경상북도 영주시 구성로 184 (휴천동),128.62871952890998,36.80977586934113
울진군청소년상담복지센터,054-781-0079,,경북 울진군 울진읍 대나리항길 2,경상북도 울진군 울진읍 대나리항길 2,정,경상북도 울진군 대나리항길 2 (울진읍),129.4094054396076,36.99721549535029
위헤븐심리상담연구소,0507-1375-0675,https://www.weheaven.co.kr/,경북 경산시 원효로 154 4층,경상북도 경산시 원효로 154 4층,정,경상북도 경산시 원효로 154 (계양동),128.75368116648508,35.82059832522549
안동시청소년상담복지센터,054-841-7933,https://ad1318.or.kr/new/index.php,경북 안동시 축제장길 42 청소년수련관 2층,경상북도 안동시 축제장길 42 청소년수련관 2층,정,경상북도 안동시 축제장길 42 (옥야동),128.72268822325793,36.559023608843944
다온아동발달센터,054-854-3900,,경북 안동시 경동로 458,경상북도 안동시 경동로 458,정,경상북도 안동시 경동로 458 (태화동),128.7088746123885,36.56733908123574
여울감각통합발달센터,010-2554-6749,,경북 구미시 야은로 730 3층,경상북도 구미시 야은로 730 3층,정,경상북도 구미시 야은로 730 (신평동),128.35912984411794,36.12457609766214
늘품아동발달센터,054-917-5005,http://adyjneulpum.com/,경북 영주시 선비로187번길 13,경상북도 영주시 선비로187번길 13,정,경상북도 영주시 선비로187번길 13 (가흥동),128.61823567955472,36.82071512981196
한국미술심리상담연구소,054-655-6067,,경북 예천군 호명면 양지로 14 호반베르디움2차,경상북도 예천군 호명면 양지로 14 호반베르디움2차,정,경상북도 예천군 양지로 14 (호명읍),128.48267049258988,36.5779236561623
해윰심리상담센터,0507-1332-0473,,전북 전주시 완산구 감나무2길 3 2층 202호,전라북도 전주시 완산구 감나무2길 3 2층 202호,정,전북특별자치도 전주시 완산구 감나무2길 3 (서신동),127.12234700784383,35.82996067805461
경산희망청소년상담센터,053-817-1388,,경북 경산시 성암로11길 19-2,경상북도 경산시 성암로11길 19-2,정,경상북도 경산시 성암로11길 19-2 (옥산동),128.7216684935211,35.82494449750812
군산 마음봄날 심리상담센터,010-6516-1060,https://blog.naver.com/kioo11,전북 군산시 나운로 61 4층 군산 마음봄날 센터,전라북도 군산시 나운로 61 4층 군산 마음봄날 센터,정,전북특별자치도 군산시 나운로 61 (나운동),126.70082570182953,35.96714960057375
채움심리언어연구소,010-8478-1275,,경북 칠곡군 왜관읍 중앙로6길 2 2층,경상북도 칠곡군 왜관읍 중앙로6길 2 2층,정,경상북도 칠곡군 중앙로6길 2 (왜관읍),128.39897435510906,35.992297160845936
영덕군청소년상담복지센터,0507-1408-7371,https://www.facebook.com/%EC%98%81%EB%8D%95%EA%B5%B0%EC%B2%AD%EC%86%8C%EB%85%84%EC%83%81%EB%8B%B4%EB%B3%B5%EC%A7%80%EC%84%BC%ED%84%B0-1037698109644498/?notif_t=notify_me_page&notif_id=1462336876205518,경북 영덕군 영덕읍 강변길 324,경상북도 영덕군 영덕읍 강변길 324,정,경상북도 영덕군 강변길 324 (영덕읍),129.36208329281004,36.42003040787738
최혜란심리상담센터,0507-1368-5530,https://blog.naver.com/sahg1234,전북 전주시 완산구 홍산로 246 계성빌딩 901호,전라북도 전주시 완산구 홍산로 246 계성빌딩 901호,정,전북특별자치도 전주시 완산구 홍산로 246 (효자동2가),127.10647228161375,35.81550901135077
햇살꿈터,0507-1412-0922,,경북 영덕군 영덕읍 덕곡1길 13-3,경상북도 영덕군 영덕읍 덕곡1길 13-3,정,경상북도 영덕군 덕곡1길 13-3 (영덕읍),129.37032587279234,36.41287475871748
고령청소년상담센터,054-956-1320,,경북 고령군 대가야읍 왕릉로 30,경상북도 고령군 대가야읍 왕릉로 30,정,경상북도 고령군 왕릉로 30 (대가야읍),128.26328265448137,35.72357480607343
한국행복가족상담센터,054-430-8225,,경북 김천시 영남대로 2061,경상북도 김천시 영남대로 2061,정,경상북도 김천시 영남대로 2061 (덕곡동),128.15393258321987,36.1163790315315
허그맘허그인심리상담센터익산센터,063-851-7735,https://www.hugmom.co.kr/branch/counselor/list.html?jijummid=iksan,전북 익산시 선화로1길 16 2층 201호,전라북도 익산시 선화로1길 16 2층 201호,정,전북특별자치도 익산시 선화로1길 16 (모현동1가),126.93840304035767,35.95121641802994
틔움아동청소년발달센터,,,경북 경주시 현곡면 가삼골2길 1-32,경상북도 경주시 현곡면 가삼골2길 1-32,정,경상북도 경주시 가삼골2길 1-32 (현곡면),129.19670786856796,35.86900246518245
안동아동부모상담센터,054-842-1500,https://blog.naver.com/myoeum22,경북 안동시 강남6길 19 1층,경상북도 안동시 강남6길 19 1층,정,경상북도 안동시 강남6길 19 (정하동),128.73360350824737,36.550215958061386
영주시청소년상담복지센터,054-634-1318,,경북 영주시 광복로 63 22-3,경상북도 영주시 광복로 63 22-3,유,경상북도 영주시 광복로 63 (영주동),128.62542151711006,36.82803362927256
숲하나아동청소년상담센터,054-996-9961,https://blog.naver.com/soophana,경북 청도군 풍각면 백안길 11-47 숲하나아동청소년상담센터,경상북도 청도군 풍각면 백안길 11-47 숲하나아동청소년상담센터,정,경상북도 청도군 백안길 11-47 (풍각면),128.57688257817748,35.64864761121526
남원아동발달센터 윤수민언어심리상담센터,063-636-4875,http://xn--oy2b95bbwijyay5hxa95w.com/,전북 남원시 농고길 56,전라북도 남원시 농고길 56,정,전북특별자치도 남원시 농고길 56 (도통동),127.39389163987674,35.41917432419907
맘투맘심리상담센터,0507-1311-6235,https://blog.naver.com/mamto6235,전북 군산시 나운5길 46 2층,전라북도 군산시 나운5길 46 2층,정,전북특별자치도 군산시 나운5길 46 (나운동),126.7017548613919,35.96202815100576
지원심리상담센터,0507-1406-7303,,전북 전주시 완산구 세내로 253 3층,전라북도 전주시 완산구 세내로 253 3층,정,전북특별자치도 전주시 완산구 세내로 253 (효자동2가),127.11070560998779,35.8131111897277
의성Wee센터,054-830-1125,,경북 의성군 의성읍 구봉길 168-7,경상북도 의성군 의성읍 구봉길 168-7,정,경상북도 의성군 구봉길 168-7 (의성읍),128.7011581602799,36.34087396825795
영주교육지원청 WEE센터,054-630-4215,,경북 영주시 가흥로 165,경상북도 영주시 가흥로 165,정,경상북도 영주시 가흥로 165 (가흥동),128.61242494848173,36.81226794064843
예술심리상담센터 마음길,063-855-1275,http://maeumgil1275.modoo.at,전북 익산시 배산로3길 24-7 4층 예술심리상담센터 마음길,전라북도 익산시 배산로3길 24-7 4층 예술심리상담센터 마음길,정,전북특별자치도 익산시 배산로3길 24-7 (모현동1가),126.93630260409145,35.94855722117408
청도군청소년상담복지센터,054-373-1610,http://cafe.daum.net/cd1388,경북 청도군 화양읍 청려로 1846,경상북도 청도군 화양읍 청려로 1846,정,경상북도 청도군 청려로 1846 (화양읍),128.71668837340556,35.64873223550343
하람심리상담센터,0507-1407-5543,http://www.harammind.kr/,전북 전주시 덕진구 안골3길 8-4 2층,전라북도 전주시 덕진구 안골3길 8-4 2층,정,전북특별자치도 전주시 덕진구 안골3길 8-4 (인후동1가),127.1560825989972,35.83989506320979
헬로스마일 심리상담센터 전주점,0507-1423-3412,https://blog.naver.com/hellosmilebd,전북 전주시 완산구 홍산로 245 3층 303호,전라북도 전주시 완산구 홍산로 245 3층 303호,정,전북특별자치도 전주시 완산구 홍산로 245 (효자동2가),127.10548194398677,35.81551556955036
마음성장 심리상담센터,010-8797-7862,https://mentalgrowth.creatorlink.net/,전북 전주시 덕진구 틀못4길 31 3층 301호,전라북도 전주시 덕진구 틀못4길 31 3층 301호,정,전북특별자치도 전주시 덕진구 틀못4길 31 (장동),127.05968118881266,35.84501687934633
로뎀나무심리상담센터,063-251-3669,,전북 전주시 덕진구 삼송1길 4,전라북도 전주시 덕진구 삼송1길 4,정,전북특별자치도 전주시 덕진구 삼송1길 4 (금암동),127.13287013826167,35.84104524071544
허그맘 허그인 심리상담센터 전주점,010-2106-0071,https://blog.naver.com/hugmom22,전북 전주시 완산구 홍산로 238 메트로 빌딩 7층,전라북도 전주시 완산구 홍산로 238 메트로 빌딩 7층,정,전북특별자치도 전주시 완산구 홍산로 238 (효자동2가),127.10647401313955,35.814857116728206
경상북도안동교육청 위센터,054-859-9501,,경북 안동시 영호6길 26,경상북도 안동시 영호6길 26,정,경상북도 안동시 영호6길 26 (옥야동),128.72342391022914,36.56237921620343
영천시 청소년지원센터,054-338-2000,http://1388.yc.go.kr/,경북 영천시 운동장로 92 최무선관,경상북도 영천시 운동장로 92 최무선관,정,경상북도 영천시 운동장로 92 (교촌동),128.92217067535123,35.9703051874073
영천Wee센터,054-330-2328,,경북 영천시 장수로 18-2,경상북도 영천시 장수로 18-2,정,경상북도 영천시 장수로 18-2 (화룡동),128.9221740261475,35.964287363951044
따뜻한 상담소 심리상담센터,010-4659-7688,,전북 익산시 평동로 725 동산동제일2차아파트상가 2층,전라북도 익산시 평동로 725 동산동제일2차아파트상가 2층,정,전북특별자치도 익산시 평동로 725 (동산동),126.95894380697278,35.92929185801515
마음이보낸편지 김용임심리상담센터,0507-1403-3275,http://xn--jk1bk1korgnlc.com/,전북 전주시 완산구 효자로 161 웨스트빌,전라북도 전주시 완산구 효자로 161 웨스트빌,정,전북특별자치도 전주시 완산구 효자로 161 (효자동3가),127.1025744483433,35.819431640871926
멘토분석심리상담센터,063-271-2007,http://mentoo.okj.kr,전북 전주시 완산구 효자로 94 3층 301호,전라북도 전주시 완산구 효자로 94 3층 301호,정,전북특별자치도 전주시 완산구 효자로 94 (효자동3가),127.09573809492669,35.81789114352318
청향심리상담센터,063-288-1014,https://blog.naver.com/chunghyangcenter,전북 전주시 덕진구 벚꽃3길 9-1,전라북도 전주시 덕진구 벚꽃3길 9-1,정,전북특별자치도 전주시 덕진구 벚꽃3길 9-1 (진북동),127.13374206525785,35.828303507809146
물구나무심리상담센터,063-857-8540,,전북 익산시 익산대로16길 24,전라북도 익산시 익산대로16길 24,정,전북특별자치도 익산시 익산대로16길 24 (중앙동3가),126.94991695243729,35.94010857230861
조우심리상담센터,063-232-8425,http://www.jowoocoun.com/,전북 전주시 완산구 충경로 5-2,전라북도 전주시 완산구 충경로 5-2,정,전북특별자치도 전주시 완산구 충경로 5-2 (다가동3가),127.14020122270792,35.81679430778524
비본심리상담센터,010-2775-7584,,전북 남원시 쑥고개로 25 2층,전라북도 남원시 쑥고개로 25 2층,정,전북특별자치도 남원시 쑥고개로 25 (노암동),127.37957909821955,35.39930204898259
전주봄심리상담센터,010-3927-8967,https://blog.naver.com/april6466,전북 전주시 덕진구 기린대로 418 전북일보사건물 6층 611호,전라북도 전주시 덕진구 기린대로 418 전북일보사건물 6층 611호,정,전북특별자치도 전주시 덕진구 기린대로 418 (금암동),127.13091542072274,35.8390067578547
마음다락 심리상담센터,010-6711-3927,https://blog.naver.com/heyhey12,전북 군산시 문화로 70 3층,전라북도 군산시 문화로 70 3층,정,전북특별자치도 군산시 문화로 70 (수송동),126.71329623211334,35.969660015395554
조은심리상담센터,0507-1474-5557,,전북 군산시 번영로 233 3층 조은심리상담센터,전라북도 군산시 번영로 233 3층 조은심리상담센터,정,전북특별자치도 군산시 번영로 233 (사정동),126.74294139762273,35.96226395723108
파랑심리상담센터,063-221-7868,,전북 전주시 완산구 효자천변2길 8 5층 501호,전라북도 전주시 완산구 효자천변2길 8 5층 501호,정,전북특별자치도 전주시 완산구 효자천변2길 8 (효자동1가),127.11358854359646,35.80519530767308
정신분석&심리상담센터,063-903-7179,http://www.xn--jk1bk1klpd15ddnh1gqcy14c.com,전북 전주시 덕진구 오송로 7 건지타운 2동 303호,전라북도 전주시 덕진구 오송로 7 건지타운 2동 303호,정,전북특별자치도 전주시 덕진구 오송로 7 (송천동1가),127.12714824507692,35.859715475553955
최혜란전주심리상담센터,0507-1403-9010,https://cafe.naver.com/chrcc,전북 전주시 덕진구 권삼득로 429,전라북도 전주시 덕진구 권삼득로 429,정,전북특별자치도 전주시 덕진구 권삼득로 429 (덕진동2가),127.11748910185568,35.84942011492845
싹심리상담센터,063-225-1400,https://ssac2u.modoo.at,전북 전주시 덕진구 솔내로 190 4층,전라북도 전주시 덕진구 솔내로 190 4층,정,전북특별자치도 전주시 덕진구 솔내로 190 (송천동2가),127.12746332598013,35.86700982792866
안소영심리상담센터,0507-1417-9775,http://xn--jk1bk1korgdoamm91e09fltbm88c.kr,전북 익산시 약촌로 174 익산지식산업센터 901호,전라북도 익산시 약촌로 174 익산지식산업센터 901호,정,전북특별자치도 익산시 약촌로 174 (영등동),126.97474950530211,35.94921665534248
둥지예술심리상담센터,063-833-0703,,전북 익산시 무왕로22길 5 3층 둥지예술심리상담센터,전라북도 익산시 무왕로22길 5 3층 둥지예술심리상담센터,정,전북특별자치도 익산시 무왕로22길 5 (부송동),126.98684711338888,35.95893466674054
전주마라아동청소년상담센터,0507-1330-1685,,전북 전주시 완산구 서신로 41 2층,전라북도 전주시 완산구 서신로 41 2층,정,전북특별자치도 전주시 완산구 서신로 41 (서신동),127.1156052179379,35.829079686468795
굿프랜드심리상담센터,063-232-7979,,전북 전주시 덕진구 세병남로 37,전라북도 전주시 덕진구 세병남로 37,정,전북특별자치도 전주시 덕진구 세병남로 37 (송천동2가),127.12766017450977,35.8730619956048
전북해바라기센터아동,063-246-1375,http://www.jbsunflower.or.kr/,전북 전주시 덕진구 백제대로 751 뱅크빌딩 2층,전라북도 전주시 덕진구 백제대로 751 뱅크빌딩 2층,정,전북특별자치도 전주시 덕진구 백제대로 751 (인후동2가),127.15074525903236,35.84667752559054
전주시청소년상담복지센터,063-227-1005,,전북 전주시 완산구 용머리로 94 좋은빌딩3층,전라북도 전주시 완산구 용머리로 94 좋은빌딩3층,정,전북특별자치도 전주시 완산구 용머리로 94 (효자동1가),127.12031844079678,35.80598865479387
전북가족심리상담센터,063-538-7575,https://pf.kakao.com/_pmmxjxb,전북 정읍시 학산로 89-19 정읍학산타워 4층 402호,전라북도 정읍시 학산로 89-19 정읍학산타워 4층 402호,정,전북특별자치도 정읍시 학산로 89-19 (상동),126.8759171812303,35.5595239943486
마음소리예술심리상담센터,0507-1342-2502,https://maumsori0207.modoo.at,전북 익산시 고봉로 272 3층,전라북도 익산시 고봉로 272 3층,정,전북특별자치도 익산시 고봉로 272 (영등동),126.97048018616044,35.956144668452474
아름드리심리상담센터 군산심리발달교육원,0507-1318-5413,,전북 군산시 번영로 72 301호,전라북도 군산시 번영로 72 301호,정,전북특별자치도 군산시 번영로 72 (경장동),126.72936832336646,35.97076573623912
전북특별자치도 청소년 상담복지센터,063-273-1411,http://www.jb1388.kr/,전북 전주시 덕진구 팔달로 346,전라북도 전주시 덕진구 팔달로 346,정,전북특별자치도 전주시 덕진구 팔달로 346 (진북동),127.1386967140065,35.83149776503191
마음살림심리상담센터 군산점,0507-1389-8310,https://blog.naver.com/maum-salim,전북 군산시 궁포안2길 27 5층 504호,전라북도 군산시 궁포안2길 27 5층 504호,정,전북특별자치도 군산시 궁포안2길 27 (조촌동),126.74483033688661,35.97673472417834
갈림길심리상담센터,0507-1405-3229,,전북 전주시 덕진구 기린대로 281 4층,전라북도 전주시 덕진구 기린대로 281 4층,정,전북특별자치도 전주시 덕진구 기린대로 281 (진북동),127.14115149763656,35.83024665761835
나은심리상담센터,0507-1401-7932,http://www.naeuncounselling.com/,전북 전주시 덕진구 조경단로 113,전라북도 전주시 덕진구 조경단로 113,정,전북특별자치도 전주시 덕진구 조경단로 113 (금암동),127.13814054226316,35.844201435466566
노아심리발달센터,063-442-1013,,전북 군산시 궁포안2길 24 5층 501호,전라북도 군산시 궁포안2길 24 5층 501호,정,전북특별자치도 군산시 궁포안2길 24 (조촌동),126.74410555926497,35.9765860008112
"마음미술심리상담센터, 라온심리연구소",0507-1411-7586,http://raonsimri.modoo.at,전북 전주시 완산구 서원로 228,전라북도 전주시 완산구 서원로 228,정,전북특별자치도 전주시 완산구 서원로 228 (효자동1가),127.11928748680035,35.81231514168446
민들레꿈심리상담센터,0507-1373-9647,https://blog.naver.com/dandeliondream,전북 전주시 덕진구 사평로 24 4층,전라북도 전주시 덕진구 사평로 24 4층,정,전북특별자치도 전주시 덕진구 사평로 24 (덕진동1가),127.12013435439525,35.83984660985112
마음샘아동가족상담센터,063-277-0558,http://maumsem.net/,전북 전주시 완산구 서신로 33,전라북도 전주시 완산구 서신로 33,정,전북특별자치도 전주시 완산구 서신로 33 (서신동),127.11560993302248,35.82841795209709
토닥토닥심리상담센터,063-548-0807,https://www.instagram.com/fightingcounseling,"전북 김제시 검산택지4길 30 상가동 205, 206호","전라북도 김제시 검산택지4길 30 상가동 205, 206호",정,전북특별자치도 김제시 검산택지4길 30 (검산동),126.9062853005539,35.803008779788456
행복나눔공작소,0507-1441-1143,,전북 군산시 옥구읍 할미로 163 번지,전라북도 군산시 옥구읍 할미로 163 번지,정,전북특별자치도 군산시 할미로 163 (옥구읍),126.69908270989198,35.9335074006098
따뜻한상담소 심리상담센터 군산점,063-854-8228,,전북 군산시 대학로 156 2층,전라북도 군산시 대학로 156 2층,정,전북특별자치도 군산시 대학로 156 (문화동),126.704178002407,35.97773105839184
해맑은심리상담센터,010-2509-0969,http://hmcc0969.co.kr,전북 전주시 완산구 범안1길 30-4 카도스빌 2층,전라북도 전주시 완산구 범안1길 30-4 카도스빌 2층,정,전북특별자치도 전주시 완산구 범안1길 30-4 (효자동2가),127.10715279694396,35.8116831669675
장수군청소년상담복지센터,063-351-5161,,전북 장수군 장수읍 신천로 81 1층 청소년상담복지센터,전라북도 장수군 장수읍 신천로 81 1층 청소년상담복지센터,정,전북특별자치도 장수군 신천로 81 (장수읍),127.51811552919332,35.65361136556896
고은심리상담센터,0507-1395-3483,,전북 전주시 완산구 효자로 194 로자벨시티 608호,전라북도 전주시 완산구 효자로 194 로자벨시티 608호,정,전북특별자치도 전주시 완산구 효자로 194 (효자동3가),127.10646947358298,35.81861858903591
헬로스마일심리상담센터 청주점,0507-1412-0312,http://www.hellosmile.kr/,충북 청주시 흥덕구 가경로 5 미래프라자 3층 301호,충청북도 청주시 흥덕구 가경로 5 미래프라자 3층 301호,정,충청북도 청주시 흥덕구 가경로 5 (가경동),127.44361013512494,36.61638000149507
아동청소년지원센터나우,063-288-8297,https://blog.naver.com/now8297,전북 전주시 완산구 권삼득로 76,전라북도 전주시 완산구 권삼득로 76,정,전북특별자치도 전주시 완산구 권삼득로 76 (서노송동),127.14599813514458,35.828262216243246
하나두리아동청소년상담센터,0507-1340-1347,https://blog.naver.com/hanaduri1347,전북 익산시 동서로 491 온누리아동병원 2층,전라북도 익산시 동서로 491 온누리아동병원 2층,정,전북특별자치도 익산시 동서로 491 (어양동),126.98694950278454,35.95250047720688
라온아동심리발달센터,0507-1361-0500,,전북 전주시 덕진구 세병로 172 양지빌딩 4층 401호,전라북도 전주시 덕진구 세병로 172 양지빌딩 4층 401호,정,전북특별자치도 전주시 덕진구 세병로 172 (송천동2가),127.13354120052847,35.87857640582624
밸런스브레인 전주완산센터,0507-1409-2143,https://blog.naver.com/dbrjsgn12,전북 전주시 완산구 감나무4길 4 5층,전라북도 전주시 완산구 감나무4길 4 5층,정,전북특별자치도 전주시 완산구 감나무4길 4 (서신동),127.12236799941415,35.831680673780895
로뎀나무심리상담센터,0507-1443-8102,,전북 전주시 완산구 양지2길 52-13 .( 동신상가후문 2층),전라북도 전주시 완산구 양지2길 52-13 .( 동신상가후문 2층),정,전북특별자치도 전주시 완산구 양지2길 52-13 (평화동2가),127.12017004431956,35.79157843918853
세아심리상담복지센터,063-291-6085,http://cafe.naver.com/pureego,전북 완주군 삼례읍 삼봉로 91 1층,전라북도 완주군 삼례읍 삼봉로 91 1층,정,전북특별자치도 완주군 삼봉로 91 (삼례읍),127.08033860876216,35.91580816817232
마음온,010-5605-0398,,"전북 전주시 덕진구 만성북로 51-25 4017호 (전주스페이스온, 2구역)","전라북도 전주시 덕진구 만성북로 51-25 4017호 (전주스페이스온, 2구역)",정,전북특별자치도 전주시 덕진구 만성북로 51-25 (만성동),127.08263258942841,35.84905698971721
휴성인심리상담센터,0507-1316-4114,https://blog.naver.com/lyric19660,전북 익산시 무왕로19길 72-7 101동 1001호,전라북도 익산시 무왕로19길 72-7 101동 1001호,정,"전북특별자치도 익산시 무왕로19길 72-7, 101동 (부송동)",126.98443101390974,35.9656737633907
튼튼심리발달센터,0507-1334-2722,https://blog.naver.com/tt-center,전북 전주시 완산구 우전로 202 2층,전라북도 전주시 완산구 우전로 202 2층,정,전북특별자치도 전주시 완산구 우전로 202 (효자동2가),127.1020661720744,35.81244087653599
온마음심리상담센터,0507-1347-9806,https://www.instagram.com/onmaum_counseling,충북 충주시 월촌2길 27 2층,충청북도 충주시 월촌2길 27 2층,정,충청북도 충주시 월촌2길 27 (교현동),127.94270965688436,36.977973157055416
이랑아동발달통합지원센터,063-261-0030,https://blog.naver.com/erangchild,전북 완주군 봉동읍 구미1길 49-60 이랑아동발달통합지원센터,전라북도 완주군 봉동읍 구미1길 49-60 이랑아동발달통합지원센터,정,전북특별자치도 완주군 구미1길 49-60 (봉동읍),127.13023829963174,35.93129300851108
행복한라파아동청소년심리상담,0507-1332-5077,,충북 청주시 상당구 산성로 106 경일타워 5층 501호,충청북도 청주시 상당구 산성로 106 경일타워 5층 501호,정,충청북도 청주시 상당구 산성로 106 (용담동),127.50436404115977,36.63218472341641
충북아동가족상담센터,010-8573-2628,,충북 충주시 새말2길 9-2 충북아동가족상담센터,충청북도 충주시 새말2길 9-2 충북아동가족상담센터,정,충청북도 충주시 새말2길 9-2 (칠금동),127.90779719314132,36.98270130849019
가경심리상담센터,0507-1354-4633,https://gagyeong0110.modoo.at/,충북 청주시 흥덕구 풍년로111번길 22-1,충청북도 청주시 흥덕구 풍년로111번길 22-1,정,충청북도 청주시 흥덕구 풍년로111번길 22-1 (가경동),127.4336563931545,36.622284393190895
꿈그림심리발달센터,063-562-1105,https://cvdipdrawing.modoo.at,전북 고창군 고창읍 중앙로 281 백산빌딩 2층 꿈그림심리발달센터,전라북도 고창군 고창읍 중앙로 281 백산빌딩 2층 꿈그림심리발달센터,정,전북특별자치도 고창군 중앙로 281 (고창읍),126.70642753471778,35.43516244452328
마음요가 군산점,0507-1438-6782,https://blog.naver.com/maum_yp,전북 군산시 궁포안2길 27 506호,전라북도 군산시 궁포안2길 27 506호,정,전북특별자치도 군산시 궁포안2길 27 (조촌동),126.74483033688661,35.97673472417834
파우재아동가족심리상담센터,0507-1356-0621,https://pauseinlove.modoo.at,충북 청주시 청원구 충청대로 168 골든타임빌딩 501호,충청북도 청주시 청원구 충청대로 168 골든타임빌딩 501호,정,충청북도 청주시 청원구 충청대로 168 (주성동),127.49636497477981,36.6710124104105
제이아동청소년상담센터,010-5174-1364,,전북 전주시 덕진구 아중로 147 회광빌딩 2층,전라북도 전주시 덕진구 아중로 147 회광빌딩 2층,정,전북특별자치도 전주시 덕진구 아중로 147 (인후동1가),127.16567420273525,35.82620635600553
사단법인예람,063-253-1007,http://0632531007.tshome.co.kr/,전북 전주시 덕진구 팔달로 363 2층,전라북도 전주시 덕진구 팔달로 363 2층,정,전북특별자치도 전주시 덕진구 팔달로 363 (금암동),127.13721190271254,35.832633473951205
한마음ABA상담센터,010-4473-8873,https://blog.naver.com/eve7677,충북 청주시 상당구 호미로 330,충청북도 청주시 상당구 호미로 330,정,충청북도 청주시 상당구 호미로 330 (용담동),127.51021896788188,36.636394678969054
행복나무통합심리상담센터,043-285-2204,http://www.happy-mind.co.kr/,충북 청주시 서원구 수영로 6 3층,충청북도 청주시 서원구 수영로 6 3층,정,충청북도 청주시 서원구 수영로 6 (수곡동),127.48660148214759,36.614769924640626
봄날 심리상담센터,0507-1479-7810,https://springday2023.modoo.at,충북 청주시 흥덕구 대농로 68 5층 503호,충청북도 청주시 흥덕구 대농로 68 5층 503호,정,충청북도 청주시 흥덕구 대농로 68 (복대동),127.4297169650678,36.64152155474563
해든 아동청소년 상담센터,0507-1382-0692,http://haedeun12.modoo.at,전북 전주시 덕진구 만성중앙로 56 비전타워2 701호,전라북도 전주시 덕진구 만성중앙로 56 비전타워2 701호,정,전북특별자치도 전주시 덕진구 만성중앙로 56 (만성동),127.07748643133307,35.84223719201859
장앤김심리상담센터,0507-1490-3060,https://blog.naver.com/jangandkim11,충북 충주시 사직로 199 2층 203호,충청북도 충주시 사직로 199 2층 203호,정,충청북도 충주시 사직로 199 (성서동),127.93314327949204,36.96948359154351
연세주니어상담센터,0507-1425-0541,,충북 충주시 호암수청2로 15 5층 502호 연세주니어상담센터,충청북도 충주시 호암수청2로 15 5층 502호 연세주니어상담센터,정,충청북도 충주시 호암수청2로 15 (호암동),127.92385620465306,36.956626140052805
아동가족상담센터 봄,0507-1370-9984,https://www.instagram.com/conseling_bom,충북 청주시 흥덕구 대농로 43 3층 324호,충청북도 청주시 흥덕구 대농로 43 3층 324호,정,충청북도 청주시 흥덕구 대농로 43 (복대동),127.42645848328715,36.643346114599055
"심리상담센터 마음, 봄",0507-1331-2016,https://blog.naver.com/springinmind2016,충북 청주시 청원구 율량로138번길 33 3층,충청북도 청주시 청원구 율량로138번길 33 3층,정,충청북도 청주시 청원구 율량로138번길 33 (주성동),127.49748887930872,36.67041185125105
오지영심리상담센터,010-7605-4895,http://ojycenter.modoo.at,충북 음성군 맹동면 대하로 253 채움빌딩 3층 306호,충청북도 음성군 맹동면 대하로 253 채움빌딩 3층 306호,정,충청북도 음성군 대하로 253 (맹동면),127.54312546257555,36.91019553061428
청주시심리상담연구소 CJC 심리상담센터,0507-1307-2721,http://cj043.or.kr,충북 청주시 서원구 두꺼비로70번길 108 CJC타워빌 202호,충청북도 청주시 서원구 두꺼비로70번길 108 CJC타워빌 202호,정,충청북도 청주시 서원구 두꺼비로70번길 108 (산남동),127.46955206292137,36.60991347852371
심리상담센터무지개,0507-1343-3267,https://blog.naver.com/monica3267,충북 청주시 서원구 청남로2097번길 7 301호,충청북도 청주시 서원구 청남로2097번길 7 301호,정,충청북도 청주시 서원구 청남로2097번길 7 (수곡동),127.48666244236578,36.61931114809004
마음쉼 심리상담센터,0507-1350-5043,https://www.instagram.com/mindrest.center/,충북 청주시 흥덕구 직지대로 590 5층,충청북도 청주시 흥덕구 직지대로 590 5층,정,충청북도 청주시 흥덕구 직지대로 590 (봉명동),127.45842893876527,36.64289813215341
예쁜사랑심리상담센터,0507-1382-0788,,충북 청주시 흥덕구 강서로 121 세솔타운 1108호,충청북도 청주시 흥덕구 강서로 121 세솔타운 1108호,정,충청북도 청주시 흥덕구 강서로 121 (강서동),127.42964296671107,36.6253833972635
그린하늘심리상담센터,0507-1337-9973,https://www.instagram.com/paint__sky,충북 청주시 흥덕구 2순환로 1270 라인빌딩 401호,충청북도 청주시 흥덕구 2순환로 1270 라인빌딩 401호,정,충청북도 청주시 흥덕구 2순환로 1270 (가경동),127.431892361062,36.62303841154378
지금 쉼 심리상담센터,043-292-3520,http://now-counselling.co.kr/,충북 청주시 상당구 중고개로141번길 13-2 4층 402호,충청북도 청주시 상당구 중고개로141번길 13-2 4층 402호,정,충청북도 청주시 상당구 중고개로141번길 13-2 (용암동),127.51652285080377,36.61672697391849
오정순임상심리상담센터,0507-1357-1876,https://cafe.naver.com/cowrpg,충북 청주시 서원구 수곡로57번길 7 4층,충청북도 청주시 서원구 수곡로57번길 7 4층,정,충청북도 청주시 서원구 수곡로57번길 7 (수곡동),127.4721423370843,36.616686137987834
충북아동가족상담센터,070-7781-7755,,충북 음성군 맹동면 대하로 255 지음프라자3 402호,충청북도 음성군 맹동면 대하로 255 지음프라자3 402호,정,충청북도 음성군 대하로 255 (맹동면),127.5432794231555,36.91038861388797
마중물심리상담센터,0507-1470-9193,https://www.instagram.com/,충북 청주시 서원구 창직로55번길 13,충청북도 청주시 서원구 창직로55번길 13,정,충청북도 청주시 서원구 창직로55번길 13 (사창동),127.46751435260789,36.63134169117961
허그맘 허그인 심리상담센터 청주점,043-236-1275,https://blog.naver.com/hugmom1275,충북 청주시 서원구 복대로 19 매직타워 501호,충청북도 청주시 서원구 복대로 19 매직타워 501호,정,충청북도 청주시 서원구 복대로 19 (개신동),127.4455798854978,36.618943631756196
이음부부가족상담센터,010-5942-2699,https://eum22.modoo.at,충북 청주시 흥덕구 오송읍 오송생명3로 31 두산위브센티움 102동 312호,충청북도 청주시 흥덕구 오송읍 오송생명3로 31 두산위브센티움 102동 312호,정,"충청북도 청주시 흥덕구 오송생명3로 31, 102동 (오송읍)",127.32899010590864,36.635312801265165
사과나무심리상담센터,0507-1329-7588,https://blog.naver.com/suwnmail,충북 청주시 서원구 청남로 2155 3층,충청북도 청주시 서원구 청남로 2155 3층,정,충청북도 청주시 서원구 청남로 2155 (모충동),127.48839161870204,36.624622423534454
해피스마일심리상담센터,043-297-3323,,충북 청주시 서원구 원마루로 24 2층,충청북도 청주시 서원구 원마루로 24 2층,정,충청북도 청주시 서원구 원마루로 24 (분평동),127.49543262232336,36.61039041839199
라엘심리상담센터,0507-1349-3715,https://raelcounseling.modoo.at,충북 청주시 청원구 향군로 128 6층,충청북도 청주시 청원구 향군로 128 6층,정,충청북도 청주시 청원구 향군로 128 (내덕동),127.48099380377488,36.65603521910846
행복한통합심리상담센터,043-210-5551,,충북 청주시 청원구 율량로4번길 6,충청북도 청주시 청원구 율량로4번길 6,정,충청북도 청주시 청원구 율량로4번길 6 (주중동),127.48829491248982,36.67217762697577
다시봄아동청소년심리상담센터,0507-1478-8705,https://blog.naver.com/luculent2120/222929729179,충북 청주시 상당구 중고개로141번길 11-17 동남지음프라자 403~4호,충청북도 청주시 상당구 중고개로141번길 11-17 동남지음프라자 403~4호,유,충청북도 청주시 상당구 중고개로141번길 11-1 (용암동),127.51694029086549,36.616998418432
김혜정 아동가족상담센터,043-902-4846,https://blog.naver.com/newload0815,충북 청주시 상당구 상당로115번길 39,충청북도 청주시 상당구 상당로115번길 39,정,충청북도 청주시 상당구 상당로115번길 39 (북문로2가),127.48782545830751,36.63839250857311
참 인성심리상담센터,043-857-1279,,충북 충주시 중원대로 3377 럭키문화아파트상가,충청북도 충주시 중원대로 3377 럭키문화아파트상가,정,충청북도 충주시 중원대로 3377 (문화동),127.92314997420812,36.968575613828
박정선심리상담센터,,,충북 음성군 응천서길27번길 41,충청북도 음성군 응천서길27번길 41,정,충청북도 음성군 응천서길27번길 41 (금왕읍),127.59072419427395,36.98970351842284
청주심리치료 충청심리상담센터,043-232-8575,http://mind8575.itpage.kr,충북 청주시 흥덕구 가로수로 1373 2층 좌 201호,충청북도 청주시 흥덕구 가로수로 1373 2층 좌 201호,정,충청북도 청주시 흥덕구 가로수로 1373 (복대동),127.44581580005726,36.63419566432173
가윤예술심리상담센터,0507-1376-6992,https://www.instagram.com/gayoon_arttherapy,충북 청주시 흥덕구 송화로 162 3층 301호,충청북도 청주시 흥덕구 송화로 162 3층 301호,정,충청북도 청주시 흥덕구 송화로 162 (송절동),127.45087988483051,36.6663971327828
텐버디 심리상담센터,0507-1356-3625,,충북 증평군 증평읍 중앙로 138 텐버디 심리상담센터,충청북도 증평군 증평읍 중앙로 138 텐버디 심리상담센터,정,충청북도 증평군 중앙로 138 (증평읍),127.57698832799129,36.779295612077284
이음심리상담센터,043-534-5004,https://eum5004.modoo.at/,충북 진천군 덕산읍 대하로 144 B동 208호,충청북도 진천군 덕산읍 대하로 144 B동 208호,정,충청북도 진천군 대하로 144 (덕산읍),127.53546123248677,36.90329841347732
어우러기심리상담센터,0507-1415-8045,http://www.eoureogi.com,충북 청주시 상당구 대성로 230-2,충청북도 청주시 상당구 대성로 230-2,정,충청북도 청주시 상당구 대성로 230-2 (수동),127.4918831690234,36.64577912884897
마음숲심리상담센터,043-292-5433,https://blog.naver.com/mind_forest_,충북 청주시 상당구 용정로 25 한라비발디 아파트 104동 803호,충청북도 청주시 상당구 용정로 25 한라비발디 아파트 104동 803호,정,"충청북도 청주시 상당구 용정로 25, 104동 (용정동)",127.51490949458103,36.63018014851279
예인심리상담센터,043-265-0581,http://www.yeincenter.co.kr,충북 청주시 흥덕구 송화로184번길 10 SJ빌딩 4층,충청북도 청주시 흥덕구 송화로184번길 10 SJ빌딩 4층,정,충청북도 청주시 흥덕구 송화로184번길 10 (송절동),127.45329611244588,36.66699006369561
충주부부가족심리상담센터,043-846-8220,http://www.cfpc.co.kr,충북 충주시 충인5길 1,충청북도 충주시 충인5길 1,정,충청북도 충주시 충인5길 1 (충인동),127.93312058125927,36.97268871601311
자기발전소 심리상담센터,010-2158-4322,,충북 청주시 청원구 율봉로195번길 10 402호,충청북도 청주시 청원구 율봉로195번길 10 402호,정,충청북도 청주시 청원구 율봉로195번길 10 (율량동),127.49108948369707,36.669503983817684
나를만나러가는길 심리상담센터,0507-1359-1656,,충북 진천군 덕산읍 연미로 128 607동 505호,충청북도 진천군 덕산읍 연미로 128 607동 505호,정,"충청북도 진천군 연미로 128, 607동 (덕산읍)",127.5323958272436,36.904269822402895
위앤아이 심리상담센터,010-7598-8240,,충북 청주시 상당구 명암로 13 명암유원지,충청북도 청주시 상당구 명암로 13 명암유원지,정,충청북도 청주시 상당구 명암로 13 (용담동),127.50868729912257,36.638177300186385
청주부부가족상담센터,010-6442-2699,https://cjcouple.modoo.at,충북 청주시 흥덕구 오송읍 오송생명3로 31 두산위브센티움,충청북도 청주시 흥덕구 오송읍 오송생명3로 31 두산위브센티움,정,충청북도 청주시 흥덕구 오송생명3로 31 (오송읍),127.32840909336137,36.63423894713677
심리상담센터 나다움,0507-1309-8219,http://nadaumcenter.modoo.at,충북 청주시 흥덕구 서현북로 15,충청북도 청주시 흥덕구 서현북로 15,정,충청북도 청주시 흥덕구 서현북로 15 (가경동),127.42405244557725,36.617627137409364
하늘빛상담센터,043-224-5407,https://skysky2012.modoo.at,충북 청주시 청원구 상당로 246-1 2동 3층 301호,충청북도 청주시 청원구 상당로 246-1 2동 3층 301호,정,충청북도 청주시 청원구 상당로 246-1 (우암동),127.48920057904654,36.65044907612495
편한맘심리상담협회,043-846-1959,https://0603001288.modoo.at,충북 충주시 예성로 197 2층,충청북도 충주시 예성로 197 2층,정,충청북도 충주시 예성로 197 (교현동),127.93467946764164,36.974080769577675
충북심리상담센터,043-231-9002,,충북 청주시 흥덕구 직지대로436번길 76 직지스타 330호,충청북도 청주시 흥덕구 직지대로436번길 76 직지스타 330호,정,충청북도 청주시 흥덕구 직지대로436번길 76 (송정동),127.44030976164049,36.640599495217955
한양온심리상담센터,0507-1414-8033,,충북 청주시 상당구 용담로 7 253호,충청북도 청주시 상당구 용담로 7 253호,정,충청북도 청주시 상당구 용담로 7 (문화동),127.4923036333093,36.632928106581815
마음휴심리상담센터,043-233-9090,,충북 청주시 흥덕구 경신로 11-1 상가동 2층,충청북도 청주시 흥덕구 경신로 11-1 상가동 2층,정,충청북도 청주시 흥덕구 경신로 11-1 (가경동),127.44328369167117,36.62033731471467
하임심리상담센터,0507-1357-7983,https://www.instagram.com/haim7977,충북 청주시 흥덕구 사운로 204 3층,충청북도 청주시 흥덕구 사운로 204 3층,정,충청북도 청주시 흥덕구 사운로 204 (운천동),127.47738992806903,36.646976312553534
파인애플 심리상담센터,043-283-3336,https://booking.kakao.com/short/NKMfxedH4V,충북 청주시 서원구 두꺼비로78번길 25,충청북도 청주시 서원구 두꺼비로78번길 25,정,충청북도 청주시 서원구 두꺼비로78번길 25 (산남동),127.4659809469686,36.611697557497315
온유심리상담센터,010-4626-4191,https://www.instagram.com/counsel_onu,충북 청주시 서원구 용호로 10 4층,충청북도 청주시 서원구 용호로 10 4층,정,충청북도 청주시 서원구 용호로 10 (죽림동),127.4454444336547,36.61265190463736
최이화 심리상담센터,0507-1361-1460,,충북 청주시 청원구 안덕벌로 25 1층 1호,충청북도 청주시 청원구 안덕벌로 25 1층 1호,정,충청북도 청주시 청원구 안덕벌로 25 (내덕동),127.49122183439692,36.6575738788594
뚱이쌤 아동발달센터,043-237-6636,http://www.slpddoong.com,충북 청주시 흥덕구 대농로 33 테라스퀘어 506호,충청북도 청주시 흥덕구 대농로 33 테라스퀘어 506호,정,충청북도 청주시 흥덕구 대농로 33 (복대동),127.42587830434326,36.64248269959798
보듬아동가족통합지원센터,0507-1423-1919,https://smartstore.naver.com/bodumstore,충북 청주시 흥덕구 대신로10번길 12 1층,충청북도 청주시 흥덕구 대신로10번길 12 1층,정,충청북도 청주시 흥덕구 대신로10번길 12 (복대동),127.43677382907346,36.63355690614752
맘스핸즈발달지원센터,0507-1316-7572,http://cafe.naver.com/momshand,충북 청주시 청원구 율봉로176번길 31 남경빌딩 2층,충청북도 청주시 청원구 율봉로176번길 31 남경빌딩 2층,정,충청북도 청주시 청원구 율봉로176번길 31 (율량동),127.48844425520886,36.6672923920616
청주시청소년상담복지센터,043-275-1388,http://www.cj1388.or.kr,충북 청주시 상당구 중앙로 30 청하빌딩 5층,충청북도 청주시 상당구 중앙로 30 청하빌딩 5층,정,충청북도 청주시 상당구 중앙로 30 (북문로2가),127.48890332342704,36.639656804472274
하늘숲심리상담센터,043-224-0788,http://cafe.naver.com/skywoodcj,충북 청주시 상당구 상당로115번길 61 3층,충청북도 청주시 상당구 상당로115번길 61 3층,정,충청북도 청주시 상당구 상당로115번길 61 (영동),127.48658275494336,36.63829833789085
징검다리언어심리센터,0507-1354-2269,http://www.jgchildren.com/,충북 충주시 칠금중앙6길 6,충청북도 충주시 칠금중앙6길 6,정,충청북도 충주시 칠금중앙6길 6 (칠금동),127.92140161999657,36.98151533185696
안나코칭상담센터,010-5484-3408,,충북 제천시 원뜰로 25,충청북도 제천시 원뜰로 25,정,충청북도 제천시 원뜰로 25 (천남동),128.1944178407209,37.13268970712623
마음을 그리다 심리상담센터,043-224-7788,http://cafe.naver.com.heart7788/,충북 청주시 청원구 상당로 220 3층,충청북도 청주시 청원구 상당로 220 3층,정,충청북도 청주시 청원구 상당로 220 (우암동),127.48943658036343,36.647982026768865
마리솔심리상담센터,043-296-7770,,충북 청주시 서원구 1순환로1063번길 42 2층,충청북도 청주시 서원구 1순환로1063번길 42 2층,정,충청북도 청주시 서원구 1순환로1063번길 42 (분평동),127.4853345588216,36.60836275207041
마음두리놀이상담센터,0507-1351-2336,,충북 청주시 청원구 내수읍 은곡묵방길 22-12,충청북도 청주시 청원구 내수읍 은곡묵방길 22-12,정,충청북도 청주시 청원구 은곡묵방길 22-12 (내수읍),127.52636095052496,36.70773782294028
누리ABA아동발달연구소,0507-1360-0462,https://www.instagram.com/nuri_aba_osong?igsh=MWt1MGhuanl0dG02dw==,"충북 청주시 흥덕구 오송읍 연제1길 24-35 211,212호","충청북도 청주시 흥덕구 오송읍 연제1길 24-35 211,212호",정,충청북도 청주시 흥덕구 연제1길 24-35 (오송읍),127.32257122781803,36.626464946298455
전국교사힐링상담센터,070-7132-3024,,충북 청주시 흥덕구 강내면 태성탑연로 261,충청북도 청주시 흥덕구 강내면 태성탑연로 261,정,충청북도 청주시 흥덕구 태성탑연로 261 (강내면),127.35270941919607,36.60744560598966
거북이운동언어심리센터,043-848-5526,https://www.instagram.com/turtlecenter5526,충북 충주시 동수2길 45 3층,충청북도 충주시 동수2길 45 3층,정,충청북도 충주시 동수2길 45 (연수동),127.93904576477165,36.98622177026754
보듬아동가족통합지원센터,043-532-3777,https://blog.naver.com/bodumblog,충북 진천군 덕산읍 시가로 6 보석빌딩 3층,충청북도 진천군 덕산읍 시가로 6 보석빌딩 3층,정,충청북도 진천군 시가로 6 (덕산읍),127.5332062853918,36.901931068744375
킴스아동청소년가족상담센터,043-283-9776,,충북 청주시 서원구 두꺼비로70번길 58 2층,충청북도 청주시 서원구 두꺼비로70번길 58 2층,정,충청북도 청주시 서원구 두꺼비로70번길 58 (산남동),127.4678168373565,36.610726676388424
거북이운동언어심리센터,043-221-5526,https://www.instagram.com/turtlecenter5526,충북 청주시 상당구 중고개로 285 4층 금천동,충청북도 청주시 상당구 중고개로 285 4층 금천동,정,충청북도 청주시 상당구 중고개로 285 (금천동),127.50795720389111,36.628026152763724
수정심리분석상담센터,010-6541-3812,,충북 청주시 청원구 오창읍 중심상업로 17 7층 711호,충청북도 청주시 청원구 오창읍 중심상업로 17 7층 711호,정,충청북도 청주시 청원구 중심상업로 17 (오창읍),127.42927521616468,36.71244560034302
주정권ABA언어행동발달연구소,010-2010-2738,https://blog.naver.com/ju-aba,충북 청주시 서원구 산남로 23 111동 101호,충청북도 청주시 서원구 산남로 23 111동 101호,정,"충청북도 청주시 서원구 산남로 23, 111동 (산남동)",127.47161923709959,36.60958622612215
충주언어발달센터,043-846-0330,https://blog.naver.com/cjcdc,충북 충주시 번영대로 224 B동 201호,충청북도 충주시 번영대로 224 B동 201호,정,충청북도 충주시 번영대로 224 (연수동),127.9424853612774,36.98676169868445
꿈고래언어심리센터,043-848-1107,https://blog.naver.com/dreamwhale_23,충북 충주시 칠금중앙1길 3 1층,충청북도 충주시 칠금중앙1길 3 1층,정,충청북도 충주시 칠금중앙1길 3 (칠금동),127.91905070671983,36.97983181745654
WeABA연구소,043-233-8141,http://www.weaba.co.kr/,충북 청주시 흥덕구 대농로 33 테라스퀘어 415호,충청북도 청주시 흥덕구 대농로 33 테라스퀘어 415호,정,충청북도 청주시 흥덕구 대농로 33 (복대동),127.42587830434326,36.64248269959798
훈토스감각통합심리상담연구소,043-211-4452,https://blog.naver.com/juntos_center,충북 청주시 청원구 율량로 192 메디타워2 401호 훈토스감각통합심리상담연구소,충청북도 청주시 청원구 율량로 192 메디타워2 401호 훈토스감각통합심리상담연구소,정,충청북도 청주시 청원구 율량로 192 (율량동),127.49855293681168,36.66556711927297
공감예술심리상담센터,043-267-3348,,충북 청주시 서원구 수곡로 29,충청북도 청주시 서원구 수곡로 29,정,충청북도 청주시 서원구 수곡로 29 (수곡동),127.47414976825647,36.614818425741504
마음휴임상심리상담센터,0507-1328-8311,https://blog.naver.com/platanus8298,충북 청주시 서원구 수곡로67번길 31-13 201호,충청북도 청주시 서원구 수곡로67번길 31-13 201호,정,충청북도 청주시 서원구 수곡로67번길 31-13 (수곡동),127.47080449040767,36.61677256474076
청주아동발달센터,043-252-7582,http://cjspeech.woweb.net/,충북 청주시 청원구 율량로 192 SM빌딩,충청북도 청주시 청원구 율량로 192 SM빌딩,정,충청북도 청주시 청원구 율량로 192 (율량동),127.49855293681168,36.66556711927297
디얼마인드 예술 심리상담 서비스 센터,0507-1484-2307,https://youtube.com/@Dearmind-gu2xj,충북 청주시 상당구 중고개로141번길 11-1 어반스퀘어 401호,충청북도 청주시 상당구 중고개로141번길 11-1 어반스퀘어 401호,정,충청북도 청주시 상당구 중고개로141번길 11-1 (용암동),127.51694029086549,36.616998418432
새봄아동청소년발달센터,0507-1409-3454,,충북 청주시 서원구 1순환로 765 2층 201호,충청북도 청주시 서원구 1순환로 765 2층 201호,정,충청북도 청주시 서원구 1순환로 765 (개신동),127.46372566041694,36.62561351951118
충북금연지원센터,043-278-9030,https://blog.naver.com/cbtcc9030,충북 청주시 서원구 충대로 1 자연대3호관 S1-3 105호,충청북도 청주시 서원구 충대로 1 자연대3호관 S1-3 105호,정,충청북도 청주시 서원구 충대로 1 (개신동),127.46060248672705,36.62876805417572
두리아동발달센터,043-211-6078,https://blog.naver.com/kjm8140,충북 청주시 청원구 오창읍 모정2길 19-25 1층,충청북도 청주시 청원구 오창읍 모정2길 19-25 1층,정,충청북도 청주시 청원구 모정2길 19-25 (오창읍),127.47042523168149,36.748894502732384
제천한방자연치유센터,0507-1417-8850,https://blog.naver.com/as7000,충북 제천시 청풍면 학현소야로 324,충청북도 제천시 청풍면 학현소야로 324,정,충청북도 제천시 학현소야로 324 (청풍면),128.21840738006324,37.01006958629227
청주ABA행동발달연구소,010-9885-5135,https://blog.naver.com/asjangel,충북 청주시 흥덕구 송화로 170-8 3층,충청북도 청주시 흥덕구 송화로 170-8 3층,정,충청북도 청주시 흥덕구 송화로 170-8 (송절동),127.45241608110226,36.666994656862656
청주아동가족상담소,043-292-5660,https://blog.naver.com/cj2925660,충북 청주시 서원구 구룡산로 362-1 대원빌딩,충청북도 청주시 서원구 구룡산로 362-1 대원빌딩,정,충청북도 청주시 서원구 구룡산로 362-1 (수곡동),127.48472257599863,36.61816220657935
라온아동심리발달센터&PCIT,043-231-6914,https://blog.naver.com/bombom890,충북 청주시 흥덕구 서현북로 72 4층,충청북도 청주시 흥덕구 서현북로 72 4층,정,충청북도 청주시 흥덕구 서현북로 72 (가경동),127.43030879228719,36.62208675256367
하이잼아동발달센터,0507-1470-8261,https://blog.naver.com/sensory_plus,충북 청주시 청원구 오창읍 2산단로 140 2층 202호,충청북도 청주시 청원구 오창읍 2산단로 140 2층 202호,정,충청북도 청주시 청원구 2산단로 140 (오창읍),127.4514559049109,36.73373700296265
세종충북도박문제예방치유센터,043-275-0051,http://www.kcgp.or.kr/kcgplc/lc_main.do?lc=1200,충북 청주시 흥덕구 경산로 1 5층,충청북도 청주시 흥덕구 경산로 1 5층,정,충청북도 청주시 흥덕구 경산로 1 (가경동),127.43257792644576,36.62321878672498
청주아동발달지원센터,0507-1413-4880,,충북 청주시 흥덕구 청향로28번길 17 1층 2층,충청북도 청주시 흥덕구 청향로28번길 17 1층 2층,정,충청북도 청주시 흥덕구 청향로28번길 17 (비하동),127.41961890052131,36.638588782517644
말자람 언어발달센터,043-715-9779,https://sjarada.modoo.at,충북 청주시 흥덕구 서현북로 52 3층,충청북도 청주시 흥덕구 서현북로 52 3층,정,충청북도 청주시 흥덕구 서현북로 52 (가경동),127.42819440464957,36.62128681201691
행복가득 심리발달센터,043-536-0500,,충북 진천군 진천읍 상산로 59 2층,충청북도 진천군 진천읍 상산로 59 2층,정,충청북도 진천군 상산로 59 (진천읍),127.44056685527285,36.85466396201454
푸른나무심리센터,0507-1348-4040,http://xn--910b81ore73dk4s7p0a.com/,충북 청주시 상당구 중고개로 180-5 5층,충청북도 청주시 상당구 중고개로 180-5 5층,정,충청북도 청주시 상당구 중고개로 180-5 (용암동),127.51544030774815,36.620816449236244
이선영감각통합언어심리센터,0507-1487-3888,,충북 청주시 청원구 오창읍 중심상업로 31-4 엔젤오메가,충청북도 청주시 청원구 오창읍 중심상업로 31-4 엔젤오메가,정,충청북도 청주시 청원구 중심상업로 31-4 (오창읍),127.4290975711591,36.71392987154315
마음심리발달센터 동남지구점,0507-1407-1202,,충북 청주시 상당구 중고개로141번길 13-2 펜타스퀘어 508호,충청북도 청주시 상당구 중고개로141번길 13-2 펜타스퀘어 508호,정,충청북도 청주시 상당구 중고개로141번길 13-2 (용암동),127.51652285080377,36.61672697391849
충북교육권보호센터,0507-1336-4307,,충북 청주시 청원구 충청대로139번길 40 2층 204호,충청북도 청주시 청원구 충청대로139번길 40 2층 204호,정,충청북도 청주시 청원구 충청대로139번길 40 (율량동),127.4924587343484,36.669479873594426
시냇가학습심리센터,043-217-7443,https://stream123.modoo.at,충북 청주시 청원구 율봉로152번길 31-12 1층,충청북도 청주시 청원구 율봉로152번길 31-12 1층,정,충청북도 청주시 청원구 율봉로152번길 31-12 (율량동),127.48726177785429,36.66700809312323
공감심리발달지원센터,043-877-9255,https://blog.naver.com/didtns4042,충북 음성군 맹동면 대하로 281 3층 공감심리발달지원센터,충청북도 음성군 맹동면 대하로 281 3층 공감심리발달지원센터,정,충청북도 음성군 대하로 281 (맹동면),127.5447020400611,36.912246596676695
제천심리상담발달센터 청전점,043-648-1275,,충북 제천시 용두천로40길 8 제천심리상담발달센터청전점,충청북도 제천시 용두천로40길 8 제천심리상담발달센터청전점,정,충청북도 제천시 용두천로40길 8 (청전동),128.2186301342226,37.15453202980902
꿈꾸는거북이아동발달센터,0507-1420-3731,,충북 청주시 서원구 산남로70번길 34,충청북도 청주시 서원구 산남로70번길 34,정,충청북도 청주시 서원구 산남로70번길 34 (산남동),127.46635098613045,36.61266812023917
도담문학치료연구소,0507-1365-5355,https://blog.naver.com/chenny13,충북 청주시 서원구 쌍샘로107번길 15 3층 도담문학치료연구소,충청북도 청주시 서원구 쌍샘로107번길 15 3층 도담문학치료연구소,정,충청북도 청주시 서원구 쌍샘로107번길 15 (모충동),127.47263790307645,36.626160484177134
유순정심리행동발달센터,0507-1474-7949,https://blog.naver.com/chamjung1,"충북 청주시 상당구 중고개로 349 상가 106호(탑동, 보성트윈힐스아파트)","충청북도 청주시 상당구 중고개로 349 상가 106호(탑동, 보성트윈힐스아파트)",정,충청북도 청주시 상당구 중고개로 349 (탑동),127.50212028024556,36.63048987658789
마이힐심리발달지원센터,0507-1321-8031,https://bit.ly/3NpzEnX,충북 청주시 흥덕구 오송읍 연제1길 24-35 오송컨벤션센터 216호,충청북도 청주시 흥덕구 오송읍 연제1길 24-35 오송컨벤션센터 216호,정,충청북도 청주시 흥덕구 연제1길 24-35 (오송읍),127.32257122781803,36.626464946298455
성암재아동발달센터,0507-1302-2948,,충북 청주시 청원구 오창읍 2산단로 185 2F 성암재아동발달센터,충청북도 청주시 청원구 오창읍 2산단로 185 2F 성암재아동발달센터,유,충청북도 청주시 청원구 2산단로 185-1 (오창읍),127.45461585679644,36.737104240064994
토닥토닥놀이터,0507-1326-0398,https://blog.naver.com/gogsgogs,충북 청주시 상당구 원봉로 21 101동 1층 107호,충청북도 청주시 상당구 원봉로 21 101동 1층 107호,정,"충청북도 청주시 상당구 원봉로 21, 101동 (용암동)",127.5096970976253,36.61209274292638
희망뜰,010-5212-8411,https://blog.naver.com/k1-kyy,충북 청주시 서원구 성화로 95 1층 희망뜰,충청북도 청주시 서원구 성화로 95 1층 희망뜰,정,충청북도 청주시 서원구 성화로 95 (죽림동),127.44549607183467,36.61380991249097
도담발달지원센터,043-262-8288,http://www.xn--bk1bpa73d70y.com,충북 청주시 흥덕구 덕암로35번길 71,충청북도 청주시 흥덕구 덕암로35번길 71,정,충청북도 청주시 흥덕구 덕암로35번길 71 (봉명동),127.45795705515053,36.65633611993372
사회적협동조합 엘림,043-731-5250,,충북 옥천군 옥천읍 상야1길 5 . 1층,충청북도 옥천군 옥천읍 상야1길 5 . 1층,정,충청북도 옥천군 상야1길 5 (옥천읍),127.58486364454048,36.29389411501431
가나발달센터,0507-1303-4957,,충북 충주시 관아5길 1,충청북도 충주시 관아5길 1,정,충청북도 충주시 관아5길 1 (성내동),127.93561723116382,36.96948468331653
마음심리발달센터,0507-1417-1203,http://maumtherapy.itpage.kr,충북 청주시 흥덕구 대농로 70,충청북도 청주시 흥덕구 대농로 70,정,충청북도 청주시 흥덕구 대농로 70 (복대동),127.43010087148163,36.641517483948626
이선영감각통합언어발달센터,043-283-3888,,충북 청주시 상당구 용암북로 144,충청북도 청주시 상당구 용암북로 144,정,충청북도 청주시 상당구 용암북로 144 (용암동),127.51328514552806,36.62149535853163
마음뜰예술심리치료센터,043-267-7937,https://cafe.naver.com/mindgardencenter,충북 청주시 서원구 쌍샘로 95 3층,충청북도 청주시 서원구 쌍샘로 95 3층,정,충청북도 청주시 서원구 쌍샘로 95 (모충동),127.47335960215489,36.62665444183599
라엘ABA,0507-1397-6445,,충북 청주시 서원구 신성화로 49 404호,충청북도 청주시 서원구 신성화로 49 404호,정,충청북도 청주시 서원구 신성화로 49 (성화동),127.45779188075795,36.61942132446323
마음나라 카운슬링센타,043-283-3339,,충북 청주시 상당구 용정로38번길 6 우성타워 202호,충청북도 청주시 상당구 용정로38번길 6 우성타워 202호,정,충청북도 청주시 상당구 용정로38번길 6 (용정동),127.51745412203721,36.62958924884968
아동청소년지원센터 해봄,043-224-8297,https://blog.naver.com/cb8297,충북 청주시 상당구 상당로158번길 5 시민정보교육센터,충청북도 청주시 상당구 상당로158번길 5 시민정보교육센터,정,충청북도 청주시 상당구 상당로158번길 5 (북문로2가),127.49000682528667,36.64269300915878
청주풀이센터,0507-1430-7114,http://freecenter1.modoo.at/,충북 청주시 서원구 수곡로5번길 17 CBS청주기독교방송국 3층,충청북도 청주시 서원구 수곡로5번길 17 CBS청주기독교방송국 3층,정,충청북도 청주시 서원구 수곡로5번길 17 (수곡동),127.47323033986699,36.61386633880929
마음벗아동발달센터,043-212-5006,https://blog.naver.com/soulmate6377,충북 청주시 청원구 오창읍 오창중앙로 123-2 702호,충청북도 청주시 청원구 오창읍 오창중앙로 123-2 702호,정,충청북도 청주시 청원구 오창중앙로 123-2 (오창읍),127.4166615729261,36.709596721764086
우리아이발달심리센터,043-854-6252,,충북 충주시 국원초5길 49 중간동 2층,충청북도 충주시 국원초5길 49 중간동 2층,정,충청북도 충주시 국원초5길 49 (연수동),127.94545185977289,36.981738512510894
별별나눔예술심리센터,0507-1375-4376,http://m.magazine.zonecj.com/@/bbs/list/10172822?bid=magazine_store,충북 충주시 새말1길 8 1층,충청북도 충주시 새말1길 8 1층,정,충청북도 충주시 새말1길 8 (칠금동),127.90816083035895,36.982656180911775
오즈아동발달센터,043-927-2020,https://blog.naver.com/dolidoli60,충북 음성군 맹동면 덕금로 427,충청북도 음성군 맹동면 덕금로 427,정,충청북도 음성군 덕금로 427 (맹동면),127.56697640205601,36.928459855920146
와우숲언어인지발달센터,0507-1437-7594,http://www.xn--0q4b57evj.kr,충북 청주시 흥덕구 가로수로 1318,충청북도 청주시 흥덕구 가로수로 1318,정,충청북도 청주시 흥덕구 가로수로 1318 (복대동),127.43987163228476,36.632520694696666
도담도담언어심리발달센터,043-646-8001,http://dodamdodam8001.com,충북 제천시 청풍호로4가길 10-1,충청북도 제천시 청풍호로4가길 10-1,정,충청북도 제천시 청풍호로4가길 10-1 (영천동),128.2019286825862,37.126442919015346
이화발달센터,0507-1413-0770,http://ewhachildren.com/,충북 청주시 흥덕구 가경로 9-8,충청북도 청주시 흥덕구 가경로 9-8,정,충청북도 청주시 흥덕구 가경로 9-8 (가경동),127.44322658129082,36.61680248123653
플러스진로상담소,0507-1439-0800,,충북 청주시 상당구 단재로95번길 21 101호 플러스진로상담소,충청북도 청주시 상당구 단재로95번길 21 101호 플러스진로상담소,정,충청북도 청주시 상당구 단재로95번길 21 (영운동),127.49757917540785,36.62098857583325
한샘언어심리코칭센터,0507-1359-3167,https://blog.naver.com/se620818,충북 청주시 상당구 중고개로 181 5층 501호,충청북도 청주시 상당구 중고개로 181 5층 501호,정,충청북도 청주시 상당구 중고개로 181 (용암동),127.51474694617107,36.620480502841104
아이바디움직임센터,0507-1365-7696,,충북 청주시 상당구 2순환로2031번길 6-20 6-2번지 동경웰타워 5층 502호,충청북도 청주시 상당구 2순환로2031번길 6-20 6-2번지 동경웰타워 5층 502호,정,충청북도 청주시 상당구 2순환로2031번길 6-20 (방서동),127.50469197751818,36.59821905250937
김현주 심리상담 & 멘탈코칭센터,0507-1411-2070,,충북 청주시 흥덕구 강서로 107 BYC빌딩 409호,충청북도 청주시 흥덕구 강서로 107 BYC빌딩 409호,정,충청북도 청주시 흥덕구 강서로 107 (강서동),127.42810067973616,36.62489397911349
오혜경언어심리치료센터 청주점,043-222-1264,http://www.ohs-therapy.com/,충북 청주시 상당구 교서로 4-2 Lee&Oh빌딩4층,충청북도 청주시 상당구 교서로 4-2 Lee&Oh빌딩4층,정,충청북도 청주시 상당구 교서로 4-2 (영동),127.48661808300146,36.63709224203476
행복나무심리상담코칭센터,043-285-1275,,충북 청주시 서원구 산남로 22 산남렉슬2 204호,충청북도 청주시 서원구 산남로 22 산남렉슬2 204호,정,충청북도 청주시 서원구 산남로 22 (산남동),127.47153372642832,36.6118640760666
브레인트레이닝상담센터 청주지점,043-284-4320,,충북 청주시 서원구 두꺼비로60번길 3-2,충청북도 청주시 서원구 두꺼비로60번길 3-2,정,충청북도 청주시 서원구 두꺼비로60번길 3-2 (산남동),127.46497895599329,36.60995398076425
한국소비자원,1372,http://www.kca.go.kr/,충북 음성군 맹동면 용두로 54 한국소비자원,충청북도 음성군 맹동면 용두로 54 한국소비자원,정,충청북도 음성군 용두로 54 (맹동면),127.54829609378724,36.90694255399321
단양군가족센터,043-421-6200,http://danyang.familynet.or.kr/center/,충북 단양군 단양읍 별곡12길 5 2층 단양군 가족센터,충청북도 단양군 단양읍 별곡12길 5 2층 단양군 가족센터,정,충청북도 단양군 별곡12길 5 (단양읍),128.37019197295328,36.987629167812585
사랑나눔 언어발달센터,043-643-0927,,충북 제천시 동명로 45 2층 언어 발달센터,충청북도 제천시 동명로 45 2층 언어 발달센터,정,충청북도 제천시 동명로 45 (명동),128.20504861115103,37.13422801065753
충청북도 아토피천식 교육정보센터,043-269-7898,http://www.cballergy.co.kr,충북 청주시 서원구 1순환로 776 충북대학교병원 본관 B1층,충청북도 청주시 서원구 1순환로 776 충북대학교병원 본관 B1층,정,충청북도 청주시 서원구 1순환로 776 (개신동),127.46144671113463,36.624056801192374
블럭아 놀자,,,충북 제천시 내제로 211,충청북도 제천시 내제로 211,정,충청북도 제천시 내제로 211 (청전동),128.20966537326333,37.146047546514595
푸른숲마음발달센터,0507-1377-5860,,충북 청주시 상당구 중고개로 180-5 6층,충청북도 청주시 상당구 중고개로 180-5 6층,정,충청북도 청주시 상당구 중고개로 180-5 (용암동),127.51544030774815,36.620816449236244
행복한마음코칭센터,070-8269-5969,,충북 청주시 서원구 탑골로37번길 7-1 유진하우스2층,충청북도 청주시 서원구 탑골로37번길 7-1 유진하우스2층,정,충청북도 청주시 서원구 탑골로37번길 7-1 (산남동),127.47622896797591,36.60996126892079
정통합발달센터,010-7605-8288,,충북 청주시 상당구 중고개로 330-1 401호,충청북도 청주시 상당구 중고개로 330-1 401호,정,충청북도 청주시 상당구 중고개로 330-1 (금천동),127.50419618553357,36.63054225489187
마하나임상담코칭센터,0507-1352-6480,https://mahanaim3927.modoo.at/?link=6h6et6oi,충북 청주시 흥덕구 백봉로224번길 23 203호,충청북도 청주시 흥덕구 백봉로224번길 23 203호,정,충청북도 청주시 흥덕구 백봉로224번길 23 (봉명동),127.46035412892222,36.64809479403068
충청북도청소년종합진흥원 청소년상담복지센터,043-258-2000,http://1388.cbyouth.net/www/main,충북 청주시 상당구 대성로 103 2층 청소년상담복지센터,충청북도 청주시 상당구 대성로 103 2층 청소년상담복지센터,정,충청북도 청주시 상당구 대성로 103 (문화동),127.49226597341577,36.63453016044397
청주스마일센터,0507-1490-1360,https://www.resmile.or.kr/,충북 청주시 청원구 1순환로 112,충청북도 청주시 청원구 1순환로 112,정,충청북도 청주시 청원구 1순환로 112 (율량동),127.5002072596128,36.66417588768904
충북심리상담교육센터,043-842-8855,https://cscent.modoo.at/?link=b4av3ns6,충북 충주시 충인2길 12,충청북도 충주시 충인2길 12,정,충청북도 충주시 충인2길 12 (충의동),127.9303607042111,36.97381591454982
뭉클 심리상담코칭센터,0507-1364-9309,,충북 청주시 서원구 1순환로1107번길 20 3층,충청북도 청주시 서원구 1순환로1107번길 20 3층,정,충청북도 청주시 서원구 1순환로1107번길 20 (분평동),127.48987908184685,36.607229079547814
해피마인드 아동발달센터,043-256-7976,,충북 청주시 상당구 단재로 112 주택광은순복음교회,충청북도 청주시 상당구 단재로 112 주택광은순복음교회,정,충청북도 청주시 상당구 단재로 112 (영운동),127.49703838408557,36.61914618990698
행복한그림 미술심리센터,043-291-5204,,충북 청주시 상당구 용암북로160번길 51-1 2층 행복한그림,충청북도 청주시 상당구 용암북로160번길 51-1 2층 행복한그림,정,충청북도 청주시 상당구 용암북로160번길 51-1 (용암동),127.51632003012973,36.621010276199364
레스정신분석상담연구소,0507-1306-1323,https://res2024.modoo.at,충북 청주시 흥덕구 직지대로 737 2층,충청북도 청주시 흥덕구 직지대로 737 2층,정,충청북도 청주시 흥덕구 직지대로 737 (운천동),127.47454418228516,36.643608891812896
심리언어클리닉 유딧,043-653-7736,,충북 제천시 봉양읍 제원로4길 12-1,충청북도 제천시 봉양읍 제원로4길 12-1,정,충청북도 제천시 제원로4길 12-1 (봉양읍),128.11304824329795,37.160132123198174
강스인지학습센터,0507-1381-0732,https://blog.naver.com/younglee96,충북 청주시 청원구 오창읍 2산단3로 34 2층,충청북도 청주시 청원구 오창읍 2산단3로 34 2층,정,충청북도 청주시 청원구 2산단3로 34 (오창읍),127.45307012702557,36.73713405945202
여름의문단속 마인드케어센터,0507-1307-9352,,충북 청주시 청원구 직지대로 864 203호,충청북도 청주시 청원구 직지대로 864 203호,정,충청북도 청주시 청원구 직지대로 864 (우암동),127.48649342510214,36.65004630328644
행복드림센터,,,충북 청주시 서원구 수곡로 35,충청북도 청주시 서원구 수곡로 35,정,충청북도 청주시 서원구 수곡로 35 (수곡동),127.47373989400162,36.6152409162043
연세언어채움연구소,0507-1393-4729,https://yonseicheaum.modoo.at,충북 청주시 서원구 산남로 76 인템프라자 7층 701호,충청북도 청주시 서원구 산남로 76 인템프라자 7층 701호,정,충청북도 청주시 서원구 산남로 76 (산남동),127.46567864089117,36.61132784336385
청주고용복지플러스센터,043-230-6700,http://www.work.go.kr/cheongju/,충북 청주시 서원구 1순환로 642 고용지원센타,충청북도 청주시 서원구 1순환로 642 고용지원센타,정,충청북도 청주시 서원구 1순환로 642 (사창동),127.45924020557402,36.636220447865206
육군 군사경찰 범죄신고상담센터 충북지역,043-820-6094,https://www.army.mil.kr/gbbs/armysingo/helparmy/,충북 증평군 증평읍 초평로 1694,충청북도 증평군 증평읍 초평로 1694,정,충청북도 증평군 초평로 1694 (증평읍),127.55811898823897,36.79534770903793
공감심리상담센터,064-759-0369,https://blog.naver.com/kangjeyoon,제주 제주시 연삼로 352 2층,제주특별자치도 제주시 연삼로 352 2층,정,제주특별자치도 제주시 연삼로 352 (도남동),126.53016712982405,33.49222312304959
박종호언어치료센터,043-288-7553,,충북 청주시 서원구 탑골로5번길 4,충청북도 청주시 서원구 탑골로5번길 4,정,충청북도 청주시 서원구 탑골로5번길 4 (산남동),127.47378861381614,36.61163997704512
명인교육센터 제천센터,043-644-7662,http://www.myunginedu.kr/,충북 제천시 죽하로11길 27 2층,충청북도 제천시 죽하로11길 27 2층,정,충청북도 제천시 죽하로11길 27 (장락동),128.2242593203835,37.15777849560947
여성긴급전화충북1366,043-285-1366,http://1366.cb21.net/,충북 청주시 상당구 목련로 27 충북미래여성플라자 내,충청북도 청주시 상당구 목련로 27 충북미래여성플라자 내,정,충청북도 청주시 상당구 목련로 27 (방서동),127.5095337284941,36.59959804542068
아름나무 심리연구소,0507-1495-8039,https://blog.naver.com/arumnamu20,충북 청주시 청원구 오창읍 양청택지2길 21-1 102호,충청북도 청주시 청원구 오창읍 양청택지2길 21-1 102호,정,충청북도 청주시 청원구 양청택지2길 21-1 (오창읍),127.42176042370603,36.71739300639903
충북여성인권상담소늘봄,043-257-8297,http://bombom.or.kr/,충북 청주시 상당구 상당로 18 5 시민정보교육센타,충청북도 청주시 상당구 상당로 18 5 시민정보교육센타,유,충청북도 청주시 상당구 상당로 18-1 (서운동),127.4913713762049,36.62988707469006
한마음직업상담센터,043-903-9035,http://hellojobkorea.co.kr,충북 청주시 청원구 율량로 13 3층,충청북도 청주시 청원구 율량로 13 3층,정,충청북도 청주시 청원구 율량로 13 (주중동),127.48775062304964,36.673135901803185
국민연금공단제천단양종합센터,1355,http://www.nps.or.kr,충북 제천시 풍양로 65 KT빌딩 4층,충청북도 제천시 풍양로 65 KT빌딩 4층,정,충청북도 제천시 풍양로 65 (의림동),128.20789112034396,37.13867793893083
중원행정사사무소 다문화사회상담센터,0507-1333-7103,,충북 충주시 종민1길 108-1 범동,충청북도 충주시 종민1길 108-1 범동,정,충청북도 충주시 종민1길 108-1 (종민동),127.98202396272214,37.00602907204894
제주심리상담센터 맘푸리,0507-1359-2368,https://mindfree.modoo.at,제주 제주시 기자길 41-2 1층,제주특별자치도 제주시 기자길 41-2 1층,정,제주특별자치도 제주시 기자길 41-2 (아라이동),126.54626130534774,33.4829532239383
제주심리상담센터해맑음,0507-1363-5938,https://blog.naver.com/haemalgeum0125,제주 제주시 정존11길 23 2층 201호 해맑음상담센터,제주특별자치도 제주시 정존11길 23 2층 201호 해맑음상담센터,정,제주특별자치도 제주시 정존11길 23 (노형동),126.47516857085844,33.48560952283652
마주봄심리상담센터,064-702-0237,https://blog.naver.com/majubomjeju,제주 제주시 대원길 58 2층,제주특별자치도 제주시 대원길 58 2층,정,제주특별자치도 제주시 대원길 58 (아라일동),126.53523995359718,33.47182247623489
블루토리심리상담센터&부모교육연구소제주점,064-758-3714,http://pf.kakao.com/_WxbJhxj,제주 제주시 동광로7길 14 랜드마크 3층,제주특별자치도 제주시 동광로7길 14 랜드마크 3층,정,제주특별자치도 제주시 동광로7길 14 (이도일동),126.53156308692262,33.50312345231054
예지재가상담복지센터,0507-1321-7383,http://www.yejicare.com,충북 청주시 상당구 월평로250번길 7 101호,충청북도 청주시 상당구 월평로250번길 7 101호,정,충청북도 청주시 상당구 월평로250번길 7 (용암동),127.50986546867499,36.60612233148294
청주노인복지상담센터,043-291-4959,,충북 청주시 서원구 매봉로60번길 20,충청북도 청주시 서원구 매봉로60번길 20,정,충청북도 청주시 서원구 매봉로60번길 20 (수곡동),127.47940478604309,36.61535823769126
마나미술심리센터,,,충북 충주시 칠금중앙로 30,충청북도 충주시 칠금중앙로 30,정,충청북도 충주시 칠금중앙로 30 (칠금동),127.91849107002574,36.98159665109494
제주심리상담센터 이너프,0507-1367-6104,https://alreadyenough.modoo.at,제주 제주시 원노형5길 17-11 101호,제주특별자치도 제주시 원노형5길 17-11 101호,정,제주특별자치도 제주시 원노형5길 17-11 (노형동),126.48434354218494,33.48695875558753
제천시가족센터,043-643-0050,http://jchome.familynet.or.kr,충북 제천시 명륜로13길 3 제천가톨릭복지관 2층,충청북도 제천시 명륜로13길 3 제천가톨릭복지관 2층,정,충청북도 제천시 명륜로13길 3 (의림동),128.2113732507669,37.1414171182163
더이음심리상담센터,064-805-7756,,제주 제주시 중앙로 299 402호,제주특별자치도 제주시 중앙로 299 402호,정,제주특별자치도 제주시 중앙로 299 (이도이동),126.53464360813163,33.49440369215724
충북여성새로일하기지원본부,043-217-9195,http://www.cbwoman.or.kr/,충북 청주시 청원구 오창읍 중심상업로 17 오창프라자2 602호,충청북도 청주시 청원구 오창읍 중심상업로 17 오창프라자2 602호,정,충청북도 청주시 청원구 중심상업로 17 (오창읍),127.42927521616468,36.71244560034302
소리누리언어심리상담센터,064-702-2636,,제주 제주시 오복4길 8 2층,제주특별자치도 제주시 오복4길 8 2층,정,제주특별자치도 제주시 오복4길 8 (이도이동),126.53631645266034,33.49543156582651
상쾌한 하루 상담센터,0507-1356-1915,,충북 청주시 서원구 장전로 51 106,충청북도 청주시 서원구 장전로 51 106,유,충청북도 청주시 서원구 장전로 51 (성화동),127.454612837331,36.61775949775586
연세공감심리상담센터,064-747-1160,http://www.jejuysg.com/,제주 제주시 국기로 36 성은빌딜4층,제주특별자치도 제주시 국기로 36 성은빌딜4층,정,제주특별자치도 제주시 국기로 36 (연동),126.49006493794144,33.47851895181907
삼성스토어 서청주,043-238-8950,,충북 청주시 흥덕구 2순환로 1124,충청북도 청주시 흥덕구 2순환로 1124,정,충청북도 청주시 흥덕구 2순환로 1124 (비하동),127.42365790322984,36.6345704881459
다복한주간보호센터,0507-1312-9263,https://band.us/band/74151437,충북 청주시 서원구 청남로2074번길 56 다복한주간보호센터,충청북도 청주시 서원구 청남로2074번길 56 다복한주간보호센터,정,충청북도 청주시 서원구 청남로2074번길 56 (수곡동),127.4898131782821,36.61692837053872
에스듈의원,043-224-3700,https://blog.naver.com/sduleclinic,충북 청주시 상당구 상당로81번길 19 2층 에스듈의원,충청북도 청주시 상당구 상당로81번길 19 2층 에스듈의원,정,충청북도 청주시 상당구 상당로81번길 19 (북문로1가),127.48925940612634,36.635497768240825
해바라기심리상담센터,064-711-1231,,제주 제주시 구남로4길 8-11,제주특별자치도 제주시 구남로4길 8-11,정,제주특별자치도 제주시 구남로4길 8-11 (이도이동),126.53315532465186,33.48850087148799
이루심리상담센터,0507-1343-6104,https://alreadyenough.modoo.at/,제주 서귀포시 안덕면 산방로 415,제주특별자치도 서귀포시 안덕면 산방로 415,정,제주특별자치도 서귀포시 산방로 415 (안덕면),126.29288264937846,33.23049894923216
제주심리상담센터 이너프,0507-1367-6104,https://alreadyenough.modoo.at,제주 제주시 원노형5길 17-11 101호,제주특별자치도 제주시 원노형5길 17-11 101호,정,제주특별자치도 제주시 원노형5길 17-11 (노형동),126.48434354218494,33.48695875558753
트랙9 마음심리상담센터,0507-1361-8627,https://www.instagram.com/track_nine_jeju?igshid=NGVhN2U2NjQ0Yg==,제주 제주시 산천단남2길 85-1 다복 501호,제주특별자치도 제주시 산천단남2길 85-1 다복 501호,정,제주특별자치도 제주시 산천단남2길 85-1 (아라일동),126.5635858852465,33.450358685459925
같이이룸언어발달심리상담센터,0507-1392-3226,,제주 제주시 간월동로 14-1 1층,제주특별자치도 제주시 간월동로 14-1 1층,정,제주특별자치도 제주시 간월동로 14-1 (아라이동),126.54441127155779,33.48557662654143
샛별공간언어심리상담센터,0507-1392-6890,https://blog.naver.com/with014,제주 제주시 아란7길 24 2층 201호,제주특별자치도 제주시 아란7길 24 2층 201호,정,제주특별자치도 제주시 아란7길 24 (아라일동),126.54294519461804,33.474567701701964
마음편한정신건강의학과의원,043-237-8872,http://www.life-sharing.co.kr/,충북 청주시 흥덕구 풍산로 26 대한빌딩 2층,충청북도 청주시 흥덕구 풍산로 26 대한빌딩 2층,정,충청북도 청주시 흥덕구 풍산로 26 (가경동),127.43339965207831,36.62606526989842
오늘하루 정신건강의학과의원,043-715-5689,https://alltoday23.modoo.at,"충북 청주시 상당구 중고개로 129 402호, 403호","충청북도 청주시 상당구 중고개로 129 402호, 403호",정,충청북도 청주시 상당구 중고개로 129 (용암동),127.51814570727537,36.61669709933316
마음소리미술심리상담센터,064-743-3206,http://mindsori.rubi.co.kr/,제주 제주시 진군2길 3 인성원룸,제주특별자치도 제주시 진군2길 3 인성원룸,정,제주특별자치도 제주시 진군2길 3 (노형동),126.48036608342922,33.478618914383006
우리요양원,043-846-5600,https://blog.naver.com/sotae625,충북 충주시 금봉대로 417,충청북도 충주시 금봉대로 417,정,충청북도 충주시 금봉대로 417 (안림동),127.94626990861377,36.97196659021029
제주심리상담센터 해맑음 본점,0507-1461-7903,https://blog.naver.com/enlighting7901,제주 제주시 월광로 134 8층,제주특별자치도 제주시 월광로 134 8층,정,제주특별자치도 제주시 월광로 134 (노형동),126.4728053176273,33.490855904062926
마음대로심리상담센터,010-2676-1155,,제주 제주시 서광로 297 2층,제주특별자치도 제주시 서광로 297 2층,정,제주특별자치도 제주시 서광로 297 (이도일동),126.52821047652445,33.50076805601797
지상의별처럼심리상담센터,064-722-2328,https://likestarsonearth.modoo.at/,제주 제주시 일주동로 380-1 2층,제주특별자치도 제주시 일주동로 380-1 2층,정,제주특별자치도 제주시 일주동로 380-1 (삼양이동),126.58574112109717,33.52094452867403
후엠아이 심리상담센터,0507-1396-2844,https://blog.naver.com/yujin1010012,제주 서귀포시 성산읍 풍천로273번길 24-6 1층,제주특별자치도 서귀포시 성산읍 풍천로273번길 24-6 1층,정,제주특별자치도 서귀포시 풍천로273번길 24-6 (성산읍),126.83389188671431,33.36400775796372
마음의정원심리상담치유센터,0507-1488-7114,https://www.instagram.com/bada_counsel_jeju/,제주 제주시 영평길 218 나동 501호,제주특별자치도 제주시 영평길 218 나동 501호,정,"제주특별자치도 제주시 영평길 218, 나동 (영평동)",126.57037193541926,33.48190941945746
모아심리상담센터,0507-1444-1472,https://www.instagram.com/moajeju/,제주 제주시 과원로 28 2층,제주특별자치도 제주시 과원로 28 2층,정,제주특별자치도 제주시 과원로 28 (연동),126.48644991199227,33.47613235008753
협동조합마음온심리상담센터,0507-1402-1331,https://www.instagram.com/maon1247,제주 제주시 가령로4길 7,제주특별자치도 제주시 가령로4길 7,정,제주특별자치도 제주시 가령로4길 7 (이도이동),126.53371674680679,33.497058086523644
이루심리상담센터,0507-1343-6104,https://alreadyenough.modoo.at/,제주 서귀포시 안덕면 산방로 415,제주특별자치도 서귀포시 안덕면 산방로 415,정,제주특별자치도 서귀포시 산방로 415 (안덕면),126.29288264937846,33.23049894923216
돌담심리상담센터,064-721-7942,,제주 제주시 오복7길 29 1층,제주특별자치도 제주시 오복7길 29 1층,정,제주특별자치도 제주시 오복7길 29 (이도이동),126.53409215249519,33.49870036654768
마인드허브심리상담센터,064-748-8050,https://blog.naver.com/mind_hub,제주 제주시 일주서로 7463 조은빌3차 나동 2층,제주특별자치도 제주시 일주서로 7463 조은빌3차 나동 2층,정,제주특별자치도 제주시 일주서로 7463 (내도동),126.4442864748937,33.49365238646574
공감심리상담센터,064-759-0369,https://blog.naver.com/kangjeyoon,제주 제주시 연삼로 352 2층,제주특별자치도 제주시 연삼로 352 2층,정,제주특별자치도 제주시 연삼로 352 (도남동),126.53016712982405,33.49222312304959
마인드로드예술심리상담센터,010-9788-0520,,제주 제주시 한림읍 한림로 660 1층 104호,제주특별자치도 제주시 한림읍 한림로 660 1층 104호,정,제주특별자치도 제주시 한림로 660 (한림읍),126.26366721706182,33.414177532522885
제주공감심리상담센터,064-749-5335,,제주 제주시 1100로 3324 청원빌딩 6층,제주특별자치도 제주시 1100로 3324 청원빌딩 6층,정,제주특별자치도 제주시 1100로 3324 (노형동),126.48123283946329,33.48300045188887
트리즈심리상담센터,064-726-0726,https://blog.naver.com/trees4god,제주 서귀포시 이어도로 932 2층(법환동),제주특별자치도 서귀포시 이어도로 932 2층(법환동),정,제주특별자치도 서귀포시 이어도로 932 (법환동),126.51407646965234,33.23800279872725
라포르아동청소년심리상담센터,064-755-4829,,제주 제주시 아란5길 43,제주특별자치도 제주시 아란5길 43,정,제주특별자치도 제주시 아란5길 43 (아라일동),126.54406654686458,33.47289068280512
심심책방&심리상담센터,0507-1488-7114,https://www.instagram.com/bada_counsel_jeju/,제주 제주시 영평길 218 나동 501호,제주특별자치도 제주시 영평길 218 나동 501호,정,"제주특별자치도 제주시 영평길 218, 나동 (영평동)",126.57037193541926,33.48190941945746
제주가온심리상담센터,064-752-3388,,제주 제주시 동광로 43 동광빌딩6층,제주특별자치도 제주시 동광로 43 동광빌딩6층,정,제주특별자치도 제주시 동광로 43 (이도일동),126.53330134165016,33.502856499360725
휴모루심리상담센터,064-759-3400,https://blog.naver.com/humorucenter,제주 제주시 신선동길 3-1 1층,제주특별자치도 제주시 신선동길 3-1 1층,정,제주특별자치도 제주시 신선동길 3-1 (일도이동),126.5317931135503,33.508907346010886
한국재활심리상담센터,0507-1334-8479,https://krpcc10.modoo.at,"제주 제주시 동광로 131 , 702호","제주특별자치도 제주시 동광로 131 , 702호",정,제주특별자치도 제주시 동광로 131 (일도이동),126.54062359744813,33.50796996909439
웃음꽃심리상담센터,0507-1432-0220,,제주 서귀포시 남원읍 태위로 643 3층,제주특별자치도 서귀포시 남원읍 태위로 643 3층,정,제주특별자치도 서귀포시 태위로 643 (남원읍),126.71522618575196,33.278253018798054
토닥토닥 심리상담센터,0507-1458-1059,,제주 제주시 연삼로 537-1 B02층(일도이동),제주특별자치도 제주시 연삼로 537-1 B02층(일도이동),정,제주특별자치도 제주시 연삼로 537-1 (일도이동),126.54631928515842,33.50236682471699
제주행복드림상담센터,0507-1488-7114,https://www.instagram.com/bada_counsel_jeju/,제주 제주시 영평길 218 나동 501호,제주특별자치도 제주시 영평길 218 나동 501호,정,"제주특별자치도 제주시 영평길 218, 나동 (영평동)",126.57037193541926,33.48190941945746
제주그린심리상담센터,0507-1313-2257,,제주 제주시 월랑로6길 10 2층,제주특별자치도 제주시 월랑로6길 10 2층,정,제주특별자치도 제주시 월랑로6길 10 (노형동),126.47796545565492,33.488805841990434
채움미술심리상담센터,0507-1315-5795,http://www.wiselifeat.com,제주 제주시 억삼길 35-57,제주특별자치도 제주시 억삼길 35-57,정,제주특별자치도 제주시 억삼길 35-57 (이호이동),126.47126866591049,33.491745188218175
함께하는심리상담센터,0507-1385-0675,https://blog.naver.com/jamesdws,제주 제주시 조천읍 신북로 88 라움시티 207호,제주특별자치도 제주시 조천읍 신북로 88 라움시티 207호,정,제주특별자치도 제주시 신북로 88 (조천읍),126.62300978752639,33.5352003360457
제주다움심리상담센터,064-744-0954,,제주 제주시 동광로4길 14 2층,제주특별자치도 제주시 동광로4길 14 2층,정,제주특별자치도 제주시 동광로4길 14 (이도이동),126.53150364182441,33.50053683327986
내맘같은 심리상담소,0507-1488-7114,https://www.instagram.com/bada_counsel_jeju/,제주 제주시 영평길 218 나동 501호,제주특별자치도 제주시 영평길 218 나동 501호,정,"제주특별자치도 제주시 영평길 218, 나동 (영평동)",126.57037193541926,33.48190941945746
모든마음심리상담센터,0507-1356-3117,http://blog.naver.com/entiresoul,제주 서귀포시 남원읍 태흥중앙로21번길 30,제주특별자치도 서귀포시 남원읍 태흥중앙로21번길 30,정,제주특별자치도 서귀포시 태흥중앙로21번길 30 (남원읍),126.72860059149339,33.28519630659585
숨나무예술심리상담센터,0507-1324-1712,,제주 제주시 서광로30길 9,제주특별자치도 제주시 서광로30길 9,정,제주특별자치도 제주시 서광로30길 9 (이도이동),126.52695144393549,33.49940251360163
함께하는심리상담센터,0507-1385-0675,https://blog.naver.com/jamesdws,제주 제주시 조천읍 신북로 88 라움시티 207호,제주특별자치도 제주시 조천읍 신북로 88 라움시티 207호,정,제주특별자치도 제주시 신북로 88 (조천읍),126.62300978752639,33.5352003360457
챨리정심리상담소,0507-1488-7114,https://www.instagram.com/bada_counsel_jeju/,제주 제주시 영평길 218 나동 501호,제주특별자치도 제주시 영평길 218 나동 501호,정,"제주특별자치도 제주시 영평길 218, 나동 (영평동)",126.57037193541926,33.48190941945746
바다심리상담센터,0507-1488-7114,https://www.instagram.com/bada_counsel_jeju/,제주 제주시 영평길 218 나동 501호,제주특별자치도 제주시 영평길 218 나동 501호,정,"제주특별자치도 제주시 영평길 218, 나동 (영평동)",126.57037193541926,33.48190941945746